{
"type": "FeatureCollection",
"name": "pu2021",
"crs": { "type": "name", "properties": { "name": "urn:ogc:def:crs:EPSG::32749" } },
"features": [
{ "type": "Feature", "properties": { "LOKASI": "Jl. Pakis Agosari (Yamaha)", "KECAMATAN": "Dukuh Pakis", "KELURAHAN": "Dukuh Pakis", "RAYON": "Rayon Wiyung", "LUAS_GENAN": 10.8, "TINGGI_GEN": 10.0, "LAMA_GENAN": 40.0, "SKOR_LUAS": 100.0, "SKOR_TINGG": 25.0, "SKOR_LAMA": 25.0, "ORIG_FID": 0 }, "geometry": { "type": "Point", "coordinates": [ 689334.715103744529188, 9193572.775120880454779 ] } },
{ "type": "Feature", "properties": { "LOKASI": "Jl. Mayjend Sungkono - Darmo Park I", "KECAMATAN": "Dukuh Pakis", "KELURAHAN": "Dukuh Pakis", "RAYON": "Rayon Wiyung", "LUAS_GENAN": 0.816236, "TINGGI_GEN": 25.0, "LAMA_GENAN": 58.0, "SKOR_LUAS": 75.0, "SKOR_TINGG": 50.0, "SKOR_LAMA": 25.0, "ORIG_FID": 1 }, "geometry": { "type": "Point", "coordinates": [ 689628.20124809385743, 9193657.975286722183228 ] } },
{ "type": "Feature", "properties": { "LOKASI": "Jl. Mayjend Sungkono (Pom Bensin)", "KECAMATAN": "Dukuh Pakis", "KELURAHAN": "Dukuh Pakis", "RAYON": "Rayon Wiyung", "LUAS_GENAN": 0.509047, "TINGGI_GEN": 15.0, "LAMA_GENAN": 16.0, "SKOR_LUAS": 75.0, "SKOR_TINGG": 50.0, "SKOR_LAMA": 0.0, "ORIG_FID": 2 }, "geometry": { "type": "Point", "coordinates": [ 690316.590063237235881, 9193594.527753641828895 ] } },
{ "type": "Feature", "properties": { "LOKASI": "Kp. Kebraon", "KECAMATAN": "Karangpilang", "KELURAHAN": "Warugunung", "RAYON": "Rayon Wiyung", "LUAS_GENAN": 0.785111, "TINGGI_GEN": 10.0, "LAMA_GENAN": 40.0, "SKOR_LUAS": 75.0, "SKOR_TINGG": 25.0, "SKOR_LAMA": 25.0, "ORIG_FID": 3 }, "geometry": { "type": "Point", "coordinates": [ 687559.901175478822552, 9189030.119708836078644 ] } },
{ "type": "Feature", "properties": { "LOKASI": "Jl. Lakar Santri RW.001", "KECAMATAN": "Lakarsantri", "KELURAHAN": "Bangkingan", "RAYON": "Rayon Wiyung", "LUAS_GENAN": 0.749717, "TINGGI_GEN": 30.0, "LAMA_GENAN": 16.0, "SKOR_LUAS": 75.0, "SKOR_TINGG": 50.0, "SKOR_LAMA": 0.0, "ORIG_FID": 4 }, "geometry": { "type": "Point", "coordinates": [ 680483.450723451562226, 9192439.525971747934818 ] } },
{ "type": "Feature", "properties": { "LOKASI": "Lontar Lidah Kulon", "KECAMATAN": "Lakarsantri", "KELURAHAN": "Lidah Kulon", "RAYON": "Rayon Wiyung", "LUAS_GENAN": 1.175965, "TINGGI_GEN": 4.0, "LAMA_GENAN": 16.0, "SKOR_LUAS": 75.0, "SKOR_TINGG": 0.0, "SKOR_LAMA": 0.0, "ORIG_FID": 5 }, "geometry": { "type": "Point", "coordinates": [ 683389.051903126644902, 9192275.551771864295006 ] } },
{ "type": "Feature", "properties": { "LOKASI": "Kp. Babatan dan sekitarnya", "KECAMATAN": "Wiyung", "KELURAHAN": "Babatan", "RAYON": "Rayon Wiyung", "LUAS_GENAN": 0.22065, "TINGGI_GEN": 25.0, "LAMA_GENAN": 16.0, "SKOR_LUAS": 50.0, "SKOR_TINGG": 50.0, "SKOR_LAMA": 0.0, "ORIG_FID": 6 }, "geometry": { "type": "Point", "coordinates": [ 685246.875766310375184, 9191474.568171149119735 ] } },
{ "type": "Feature", "properties": { "LOKASI": "Jl. Wiyung (Gg. DPR)", "KECAMATAN": "Wiyung", "KELURAHAN": "Wiyung", "RAYON": "Rayon Wiyung", "LUAS_GENAN": 0.1855, "TINGGI_GEN": 25.0, "LAMA_GENAN": 16.0, "SKOR_LUAS": 50.0, "SKOR_TINGG": 50.0, "SKOR_LAMA": 0.0, "ORIG_FID": 7 }, "geometry": { "type": "Point", "coordinates": [ 687553.754457513685338, 9191319.88742814771831 ] } },
{ "type": "Feature", "properties": { "LOKASI": "Jl. Hayam Wuruk", "KECAMATAN": "Wonokromo", "KELURAHAN": "Sawunggaling", "RAYON": "Rayon Wiyung", "LUAS_GENAN": 0.394008, "TINGGI_GEN": 15.0, "LAMA_GENAN": 40.0, "SKOR_LUAS": 50.0, "SKOR_TINGG": 50.0, "SKOR_LAMA": 25.0, "ORIG_FID": 8 }, "geometry": { "type": "Point", "coordinates": [ 691046.386825548950583, 9193175.518732720986009 ] } },
{ "type": "Feature", "properties": { "LOKASI": "Jl. Adityawarman", "KECAMATAN": "Wonokromo", "KELURAHAN": "Wonokromo", "RAYON": "Rayon Wiyung", "LUAS_GENAN": 1.120918, "TINGGI_GEN": 10.0, "LAMA_GENAN": 40.0, "SKOR_LUAS": 75.0, "SKOR_TINGG": 25.0, "SKOR_LAMA": 25.0, "ORIG_FID": 9 }, "geometry": { "type": "Point", "coordinates": [ 691160.554562877863646, 9193356.575997838750482 ] } },
{ "type": "Feature", "properties": { "LOKASI": "Jl. Jajar Tunggal", "KECAMATAN": "Wiyung", "KELURAHAN": "Jajar Tunggal", "RAYON": "Rayon Wiyung", "LUAS_GENAN": 0.546206, "TINGGI_GEN": 50.0, "LAMA_GENAN": 80.0, "SKOR_LUAS": 75.0, "SKOR_TINGG": 75.0, "SKOR_LAMA": 50.0, "ORIG_FID": 10 }, "geometry": { "type": "Point", "coordinates": [ 688503.445677615236491, 9192364.121635781601071 ] } },
{ "type": "Feature", "properties": { "LOKASI": "Jl. H. Abdul Wahab Siamin", "KECAMATAN": "Dukuh Pakis", "KELURAHAN": "Dukuh Pakis", "RAYON": "Rayon Wiyung", "LUAS_GENAN": 0.69076, "TINGGI_GEN": 30.0, "LAMA_GENAN": 50.0, "SKOR_LUAS": 75.0, "SKOR_TINGG": 50.0, "SKOR_LAMA": 25.0, "ORIG_FID": 11 }, "geometry": { "type": "Point", "coordinates": [ 688459.105817232863046, 9193017.764437617734075 ] } },
{ "type": "Feature", "properties": { "LOKASI": "Jl. Gajah Mada", "KECAMATAN": "Wonokromo", "KELURAHAN": "Sawunggaling", "RAYON": "Rayon Wiyung", "LUAS_GENAN": 0.224743, "TINGGI_GEN": 25.0, "LAMA_GENAN": 40.0, "SKOR_LUAS": 50.0, "SKOR_TINGG": 50.0, "SKOR_LAMA": 25.0, "ORIG_FID": 12 }, "geometry": { "type": "Point", "coordinates": [ 690412.147122840979137, 9192355.138986114412546 ] } },
{ "type": "Feature", "properties": { "LOKASI": "Jl. Bangkingan", "KECAMATAN": "Lakarsantri", "KELURAHAN": "Bangkingan", "RAYON": "Rayon Wiyung", "LUAS_GENAN": 0.488274, "TINGGI_GEN": 15.0, "LAMA_GENAN": 16.0, "SKOR_LUAS": 50.0, "SKOR_TINGG": 50.0, "SKOR_LAMA": 0.0, "ORIG_FID": 13 }, "geometry": { "type": "Point", "coordinates": [ 683363.413446887745522, 9187274.580981222912669 ] } },
{ "type": "Feature", "properties": { "LOKASI": "Jl. Lakarsantri (Jembatan Perbatasan)", "KECAMATAN": "Lakarsantri", "KELURAHAN": "Bangkingan", "RAYON": "Rayon Wiyung", "LUAS_GENAN": 9.6, "TINGGI_GEN": 25.0, "LAMA_GENAN": 16.0, "SKOR_LUAS": 100.0, "SKOR_TINGG": 50.0, "SKOR_LAMA": 0.0, "ORIG_FID": 14 }, "geometry": { "type": "Point", "coordinates": [ 680680.785698131890967, 9192256.86987068131566 ] } },
{ "type": "Feature", "properties": { "LOKASI": "Jl. Dukuh Pakis", "KECAMATAN": "Dukuh Pakis", "KELURAHAN": "Dukuh Pakis", "RAYON": "Rayon Wiyung", "LUAS_GENAN": 0.36091, "TINGGI_GEN": 25.0, "LAMA_GENAN": 31.0, "SKOR_LUAS": 50.0, "SKOR_TINGG": 50.0, "SKOR_LAMA": 25.0, "ORIG_FID": 15 }, "geometry": { "type": "Point", "coordinates": [ 689220.27254804619588, 9193503.948879815638065 ] } },
{ "type": "Feature", "properties": { "LOKASI": "Jl. Waru Gunung (Kedawung)", "KECAMATAN": "Karangpilang", "KELURAHAN": "Warugunung", "RAYON": "Rayon Wiyung", "LUAS_GENAN": 0.212653, "TINGGI_GEN": 25.0, "LAMA_GENAN": 16.0, "SKOR_LUAS": 50.0, "SKOR_TINGG": 50.0, "SKOR_LAMA": 0.0, "ORIG_FID": 16 }, "geometry": { "type": "Point", "coordinates": [ 684307.008844990399666, 9187326.273565888404846 ] } },
{ "type": "Feature", "properties": { "LOKASI": "Jl. Waru Gunung (Rusun)", "KECAMATAN": "Karangpilang", "KELURAHAN": "Warugunung", "RAYON": "Rayon Wiyung", "LUAS_GENAN": 0.413372, "TINGGI_GEN": 25.0, "LAMA_GENAN": 16.0, "SKOR_LUAS": 50.0, "SKOR_TINGG": 50.0, "SKOR_LAMA": 0.0, "ORIG_FID": 17 }, "geometry": { "type": "Point", "coordinates": [ 683884.353288647369482, 9187877.638234183192253 ] } },
{ "type": "Feature", "properties": { "LOKASI": "Kp. Lidah Kulon RW.005", "KECAMATAN": "Lakarsantri", "KELURAHAN": "Lidah Kulon", "RAYON": "Rayon Wiyung", "LUAS_GENAN": 0.13233, "TINGGI_GEN": 30.0, "LAMA_GENAN": 16.0, "SKOR_LUAS": 50.0, "SKOR_TINGG": 50.0, "SKOR_LAMA": 0.0, "ORIG_FID": 18 }, "geometry": { "type": "Point", "coordinates": [ 682268.020168413524516, 9192371.485156053677201 ] } },
{ "type": "Feature", "properties": { "LOKASI": "Jl. Babatan Indah", "KECAMATAN": "Wiyung", "KELURAHAN": "Babatan", "RAYON": "Rayon Wiyung", "LUAS_GENAN": 8.1, "TINGGI_GEN": 10.0, "LAMA_GENAN": 16.0, "SKOR_LUAS": 100.0, "SKOR_TINGG": 25.0, "SKOR_LAMA": 0.0, "ORIG_FID": 19 }, "geometry": { "type": "Point", "coordinates": [ 684728.284304362488911, 9191409.215011397376657 ] } },
{ "type": "Feature", "properties": { "LOKASI": "Perumahan Lembah Harapan", "KECAMATAN": "Lakarsantri", "KELURAHAN": "Lidah Wetan", "RAYON": "Rayon Wiyung", "LUAS_GENAN": 0.182205, "TINGGI_GEN": 10.0, "LAMA_GENAN": 16.0, "SKOR_LUAS": 50.0, "SKOR_TINGG": 25.0, "SKOR_LAMA": 0.0, "ORIG_FID": 20 }, "geometry": { "type": "Point", "coordinates": [ 684140.707663285546005, 9190981.596664590761065 ] } },
{ "type": "Feature", "properties": { "LOKASI": "Jl. Simo Hilir", "KECAMATAN": "Sukomanunggal", "KELURAHAN": "Simomulyo", "RAYON": "Rayon Tandes", "LUAS_GENAN": 0.205258, "TINGGI_GEN": 4.0, "LAMA_GENAN": 16.0, "SKOR_LUAS": 50.0, "SKOR_TINGG": 0.0, "SKOR_LAMA": 0.0, "ORIG_FID": 21 }, "geometry": { "type": "Point", "coordinates": [ 688194.508356653153896, 9195787.102240795269608 ] } },
{ "type": "Feature", "properties": { "LOKASI": "Jl. Simo Rejo", "KECAMATAN": "Sukomanunggal", "KELURAHAN": "Simomulyo", "RAYON": "Rayon Tandes", "LUAS_GENAN": 10.0, "TINGGI_GEN": 10.0, "LAMA_GENAN": 31.0, "SKOR_LUAS": 100.0, "SKOR_TINGG": 25.0, "SKOR_LAMA": 25.0, "ORIG_FID": 22 }, "geometry": { "type": "Point", "coordinates": [ 688958.982006264617667, 9197485.88206241838634 ] } },
{ "type": "Feature", "properties": { "LOKASI": "Jl. Simo Langit", "KECAMATAN": "Sukomanunggal", "KELURAHAN": "Simomulyo", "RAYON": "Rayon Tandes", "LUAS_GENAN": 0.166687, "TINGGI_GEN": 10.0, "LAMA_GENAN": 16.0, "SKOR_LUAS": 50.0, "SKOR_TINGG": 25.0, "SKOR_LAMA": 0.0, "ORIG_FID": 23 }, "geometry": { "type": "Point", "coordinates": [ 689048.015434068744071, 9195661.470634920522571 ] } },
{ "type": "Feature", "properties": { "LOKASI": "Jl. Raya Simo Jawar", "KECAMATAN": "Sukomanunggal", "KELURAHAN": "Simomulyo", "RAYON": "Rayon Tandes", "LUAS_GENAN": 0.762466, "TINGGI_GEN": 4.0, "LAMA_GENAN": 16.0, "SKOR_LUAS": 75.0, "SKOR_TINGG": 0.0, "SKOR_LAMA": 0.0, "ORIG_FID": 24 }, "geometry": { "type": "Point", "coordinates": [ 688146.78144801070448, 9196399.785688433796167 ] } },
{ "type": "Feature", "properties": { "LOKASI": "Jl. Suko Manunggal s/d Simo Jawar", "KECAMATAN": "Sukomanunggal", "KELURAHAN": "Simomulyo", "RAYON": "Rayon Tandes", "LUAS_GENAN": 1.018027, "TINGGI_GEN": 4.0, "LAMA_GENAN": 16.0, "SKOR_LUAS": 75.0, "SKOR_TINGG": 0.0, "SKOR_LAMA": 0.0, "ORIG_FID": 25 }, "geometry": { "type": "Point", "coordinates": [ 687384.385421473882161, 9196680.546289930120111 ] } },
{ "type": "Feature", "properties": { "LOKASI": "Jl. Pattimura", "KECAMATAN": "Sukomanunggal", "KELURAHAN": "Sono Kwijenan", "RAYON": "Rayon Tandes", "LUAS_GENAN": 0.156225, "TINGGI_GEN": 9.0, "LAMA_GENAN": 16.0, "SKOR_LUAS": 50.0, "SKOR_TINGG": 25.0, "SKOR_LAMA": 0.0, "ORIG_FID": 26 }, "geometry": { "type": "Point", "coordinates": [ 687499.849264043848962, 9195331.230516249313951 ] } },
{ "type": "Feature", "properties": { "LOKASI": "Jl. Satelit Selatan", "KECAMATAN": "Sukomanunggal", "KELURAHAN": "Tanjungsari", "RAYON": "Rayon Tandes", "LUAS_GENAN": 0.237901, "TINGGI_GEN": 10.0, "LAMA_GENAN": 16.0, "SKOR_LUAS": 50.0, "SKOR_TINGG": 25.0, "SKOR_LAMA": 0.0, "ORIG_FID": 27 }, "geometry": { "type": "Point", "coordinates": [ 686764.773933678981848, 9196177.359163863584399 ] } },
{ "type": "Feature", "properties": { "LOKASI": "Jl. Satelit Indah", "KECAMATAN": "Sukomanunggal", "KELURAHAN": "Tanjungsari", "RAYON": "Rayon Tandes", "LUAS_GENAN": 0.315189, "TINGGI_GEN": 10.0, "LAMA_GENAN": 16.0, "SKOR_LUAS": 50.0, "SKOR_TINGG": 25.0, "SKOR_LAMA": 0.0, "ORIG_FID": 28 }, "geometry": { "type": "Point", "coordinates": [ 686973.820403493125923, 9196336.618974296376109 ] } },
{ "type": "Feature", "properties": { "LOKASI": "Jl. Darmo Indah Timur (Darmo Harapan)", "KECAMATAN": "Sukomanunggal", "KELURAHAN": "Tanjungsari", "RAYON": "Rayon Tandes", "LUAS_GENAN": 2.909585, "TINGGI_GEN": 25.0, "LAMA_GENAN": 16.0, "SKOR_LUAS": 100.0, "SKOR_TINGG": 50.0, "SKOR_LAMA": 0.0, "ORIG_FID": 29 }, "geometry": { "type": "Point", "coordinates": [ 686381.19030424207449, 9196563.343167152255774 ] } },
{ "type": "Feature", "properties": { "LOKASI": "Kp. Balongsari", "KECAMATAN": "Tandes", "KELURAHAN": "Balongsari", "RAYON": "Rayon Tandes", "LUAS_GENAN": 0.927409, "TINGGI_GEN": 9.0, "LAMA_GENAN": 16.0, "SKOR_LUAS": 75.0, "SKOR_TINGG": 25.0, "SKOR_LAMA": 0.0, "ORIG_FID": 30 }, "geometry": { "type": "Point", "coordinates": [ 685331.384522785549052, 9197291.157865466549993 ] } },
{ "type": "Feature", "properties": { "LOKASI": "Kp. Manukan Kulon", "KECAMATAN": "Tandes", "KELURAHAN": "Manukan Kulon", "RAYON": "Rayon Tandes", "LUAS_GENAN": 0.76946, "TINGGI_GEN": 9.0, "LAMA_GENAN": 16.0, "SKOR_LUAS": 75.0, "SKOR_TINGG": 25.0, "SKOR_LAMA": 0.0, "ORIG_FID": 31 }, "geometry": { "type": "Point", "coordinates": [ 683918.154759734170511, 9197483.562506183981895 ] } },
{ "type": "Feature", "properties": { "LOKASI": "Jl. Margomulyo (Bawah Jalan Tol))", "KECAMATAN": "Tandes", "KELURAHAN": "Tandes", "RAYON": "Rayon Tandes", "LUAS_GENAN": 1.959712, "TINGGI_GEN": 4.0, "LAMA_GENAN": 16.0, "SKOR_LUAS": 100.0, "SKOR_TINGG": 0.0, "SKOR_LAMA": 0.0, "ORIG_FID": 32 }, "geometry": { "type": "Point", "coordinates": [ 685751.226093684905209, 9199355.115031348541379 ] } },
{ "type": "Feature", "properties": { "LOKASI": "Jl. Tambak Mayor", "KECAMATAN": "Asemrowo", "KELURAHAN": "Asemrowo", "RAYON": "Rayon Tandes", "LUAS_GENAN": 1.622856, "TINGGI_GEN": 10.0, "LAMA_GENAN": 31.0, "SKOR_LUAS": 100.0, "SKOR_TINGG": 25.0, "SKOR_LAMA": 25.0, "ORIG_FID": 33 }, "geometry": { "type": "Point", "coordinates": [ 688506.368590019643307, 9197995.475347016006708 ] } },
{ "type": "Feature", "properties": { "LOKASI": "Kp. Dukuh Langkir Babat Jerawat", "KECAMATAN": "Benowo", "KELURAHAN": "Babat Jerawat", "RAYON": "Rayon Tandes", "LUAS_GENAN": 0.971342, "TINGGI_GEN": 25.0, "LAMA_GENAN": 31.0, "SKOR_LUAS": 75.0, "SKOR_TINGG": 50.0, "SKOR_LAMA": 25.0, "ORIG_FID": 34 }, "geometry": { "type": "Point", "coordinates": [ 679432.807434131857008, 9197499.06600858643651 ] } },
{ "type": "Feature", "properties": { "LOKASI": "Kp. Babat Jerawat", "KECAMATAN": "Benowo", "KELURAHAN": "Babat Jerawat", "RAYON": "Rayon Tandes", "LUAS_GENAN": 1.539918, "TINGGI_GEN": 9.0, "LAMA_GENAN": 16.0, "SKOR_LUAS": 100.0, "SKOR_TINGG": 25.0, "SKOR_LAMA": 0.0, "ORIG_FID": 35 }, "geometry": { "type": "Point", "coordinates": [ 679899.70838130696211, 9198623.193496827036142 ] } },
{ "type": "Feature", "properties": { "LOKASI": "Kp. Benowo", "KECAMATAN": "Benowo", "KELURAHAN": "Benowo", "RAYON": "Rayon Tandes", "LUAS_GENAN": 1.17728, "TINGGI_GEN": 15.0, "LAMA_GENAN": 16.0, "SKOR_LUAS": 75.0, "SKOR_TINGG": 50.0, "SKOR_LAMA": 0.0, "ORIG_FID": 36 }, "geometry": { "type": "Point", "coordinates": [ 677727.991772720706649, 9199912.7558483928442 ] } },
{ "type": "Feature", "properties": { "LOKASI": "Kp. Kandangan", "KECAMATAN": "Benowo", "KELURAHAN": "Kandangan", "RAYON": "Rayon Tandes", "LUAS_GENAN": 0.612675, "TINGGI_GEN": 15.0, "LAMA_GENAN": 16.0, "SKOR_LUAS": 75.0, "SKOR_TINGG": 50.0, "SKOR_LAMA": 0.0, "ORIG_FID": 37 }, "geometry": { "type": "Point", "coordinates": [ 682322.632105682510883, 9197679.694675097241998 ] } },
{ "type": "Feature", "properties": { "LOKASI": "Wisma Tengger", "KECAMATAN": "Benowo", "KELURAHAN": "Kandangan", "RAYON": "Rayon Tandes", "LUAS_GENAN": 0.860051, "TINGGI_GEN": 10.0, "LAMA_GENAN": 16.0, "SKOR_LUAS": 75.0, "SKOR_TINGG": 25.0, "SKOR_LAMA": 0.0, "ORIG_FID": 38 }, "geometry": { "type": "Point", "coordinates": [ 683076.957969008246437, 9197361.925385745242238 ] } },
{ "type": "Feature", "properties": { "LOKASI": "Jl. Kupang Baru", "KECAMATAN": "Dukuh Pakis", "KELURAHAN": "Dukuh Kupang", "RAYON": "Rayon Tandes", "LUAS_GENAN": 0.258649, "TINGGI_GEN": 25.0, "LAMA_GENAN": 16.0, "SKOR_LUAS": 50.0, "SKOR_TINGG": 50.0, "SKOR_LAMA": 0.0, "ORIG_FID": 39 }, "geometry": { "type": "Point", "coordinates": [ 688051.795110152335837, 9195116.35665387660265 ] } },
{ "type": "Feature", "properties": { "LOKASI": "Jl. Darmo Permai Timur", "KECAMATAN": "Dukuh Pakis", "KELURAHAN": "Pradah Kali Kendal", "RAYON": "Rayon Tandes", "LUAS_GENAN": 0.761763, "TINGGI_GEN": 15.0, "LAMA_GENAN": 16.0, "SKOR_LUAS": 75.0, "SKOR_TINGG": 50.0, "SKOR_LAMA": 0.0, "ORIG_FID": 40 }, "geometry": { "type": "Point", "coordinates": [ 687672.020453912089579, 9194392.889658976346254 ] } },
{ "type": "Feature", "properties": { "LOKASI": "Jl. Simpang Darmo Permai", "KECAMATAN": "Dukuh Pakis", "KELURAHAN": "Pradah Kali Kendal", "RAYON": "Rayon Tandes", "LUAS_GENAN": 0.770196, "TINGGI_GEN": 15.0, "LAMA_GENAN": 16.0, "SKOR_LUAS": 75.0, "SKOR_TINGG": 50.0, "SKOR_LAMA": 0.0, "ORIG_FID": 41 }, "geometry": { "type": "Point", "coordinates": [ 685768.956876702490263, 9195255.488803977146745 ] } },
{ "type": "Feature", "properties": { "LOKASI": "Jl. Raya Sawo", "KECAMATAN": "Sambikerep", "KELURAHAN": "Bringin", "RAYON": "Rayon Tandes", "LUAS_GENAN": 0.472986, "TINGGI_GEN": 15.0, "LAMA_GENAN": 16.0, "SKOR_LUAS": 50.0, "SKOR_TINGG": 50.0, "SKOR_LAMA": 0.0, "ORIG_FID": 42 }, "geometry": { "type": "Point", "coordinates": [ 681685.467264987062663, 9196138.159771896898746 ] } },
{ "type": "Feature", "properties": { "LOKASI": "Jl. Raya Bringin Indah", "KECAMATAN": "Sambikerep", "KELURAHAN": "Bringin", "RAYON": "Rayon Tandes", "LUAS_GENAN": 0.494582, "TINGGI_GEN": 25.0, "LAMA_GENAN": 31.0, "SKOR_LUAS": 50.0, "SKOR_TINGG": 50.0, "SKOR_LAMA": 25.0, "ORIG_FID": 43 }, "geometry": { "type": "Point", "coordinates": [ 682128.940410728682764, 9197034.723391419276595 ] } },
{ "type": "Feature", "properties": { "LOKASI": "Kp.Candi Lempung", "KECAMATAN": "Sambikerep", "KELURAHAN": "Lontar", "RAYON": "Rayon Tandes", "LUAS_GENAN": 0.555119, "TINGGI_GEN": 25.0, "LAMA_GENAN": 31.0, "SKOR_LUAS": 75.0, "SKOR_TINGG": 50.0, "SKOR_LAMA": 25.0, "ORIG_FID": 44 }, "geometry": { "type": "Point", "coordinates": [ 684335.187332404078916, 9196012.875801535323262 ] } },
{ "type": "Feature", "properties": { "LOKASI": "Kp. Simo Gunung", "KECAMATAN": "Sawahan", "KELURAHAN": "Banyuurip", "RAYON": "Rayon Tandes", "LUAS_GENAN": 0.629668, "TINGGI_GEN": 25.0, "LAMA_GENAN": 16.0, "SKOR_LUAS": 75.0, "SKOR_TINGG": 50.0, "SKOR_LAMA": 0.0, "ORIG_FID": 45 }, "geometry": { "type": "Point", "coordinates": [ 689207.154641062603332, 9195681.450538329780102 ] } },
{ "type": "Feature", "properties": { "LOKASI": "Kp. Dukuh Kupang IX s/d SD Jarak", "KECAMATAN": "Sawahan", "KELURAHAN": "Pakis", "RAYON": "Rayon Tandes", "LUAS_GENAN": 3.518957, "TINGGI_GEN": 10.0, "LAMA_GENAN": 16.0, "SKOR_LUAS": 100.0, "SKOR_TINGG": 25.0, "SKOR_LAMA": 0.0, "ORIG_FID": 46 }, "geometry": { "type": "Point", "coordinates": [ 689224.33064383326564, 9194816.97549807280302 ] } },
{ "type": "Feature", "properties": { "LOKASI": "Jl. Dukuh Kupang XX", "KECAMATAN": "Sawahan", "KELURAHAN": "Pakis", "RAYON": "Rayon Tandes", "LUAS_GENAN": 0.216271, "TINGGI_GEN": 10.0, "LAMA_GENAN": 16.0, "SKOR_LUAS": 50.0, "SKOR_TINGG": 25.0, "SKOR_LAMA": 0.0, "ORIG_FID": 47 }, "geometry": { "type": "Point", "coordinates": [ 689352.34595561993774, 9194733.094133025035262 ] } },
{ "type": "Feature", "properties": { "LOKASI": "Kp. Pakis Tirtosari", "KECAMATAN": "Sawahan", "KELURAHAN": "Pakis", "RAYON": "Rayon Tandes", "LUAS_GENAN": 0.241423, "TINGGI_GEN": 10.0, "LAMA_GENAN": 16.0, "SKOR_LUAS": 50.0, "SKOR_TINGG": 25.0, "SKOR_LAMA": 0.0, "ORIG_FID": 48 }, "geometry": { "type": "Point", "coordinates": [ 690176.711435406235978, 9193826.612637242302299 ] } },
{ "type": "Feature", "properties": { "LOKASI": "Jl. Raya Tengger", "KECAMATAN": "Sawahan", "KELURAHAN": "Sawahan", "RAYON": "Rayon Tandes", "LUAS_GENAN": 0.699545, "TINGGI_GEN": 10.0, "LAMA_GENAN": 16.0, "SKOR_LUAS": 75.0, "SKOR_TINGG": 25.0, "SKOR_LAMA": 0.0, "ORIG_FID": 49 }, "geometry": { "type": "Point", "coordinates": [ 682778.325052789528854, 9197357.817533884197474 ] } },
{ "type": "Feature", "properties": { "LOKASI": "Jl. Jurang Kuping s/d Jl. Rejosari", "KECAMATAN": "Pakal", "KELURAHAN": "Benowo", "RAYON": "Rayon Tandes", "LUAS_GENAN": 0.329893, "TINGGI_GEN": 15.0, "LAMA_GENAN": 16.0, "SKOR_LUAS": 50.0, "SKOR_TINGG": 50.0, "SKOR_LAMA": 0.0, "ORIG_FID": 50 }, "geometry": { "type": "Point", "coordinates": [ 677579.324109054985456, 9199520.490750523284078 ] } },
{ "type": "Feature", "properties": { "LOKASI": "Jl. Pakis Wetan", "KECAMATAN": "Sawahan", "KELURAHAN": "Pakis", "RAYON": "Rayon Tandes", "LUAS_GENAN": 0.14892, "TINGGI_GEN": 15.0, "LAMA_GENAN": 16.0, "SKOR_LUAS": 50.0, "SKOR_TINGG": 50.0, "SKOR_LAMA": 0.0, "ORIG_FID": 51 }, "geometry": { "type": "Point", "coordinates": [ 690932.533288954058662, 9194252.693251211196184 ] } },
{ "type": "Feature", "properties": { "LOKASI": "Jl. Simo Gunung Gg.1", "KECAMATAN": "Sawahan", "KELURAHAN": "Banyuurip", "RAYON": "Rayon Tandes", "LUAS_GENAN": 0.142854, "TINGGI_GEN": 10.0, "LAMA_GENAN": 16.0, "SKOR_LUAS": 50.0, "SKOR_TINGG": 25.0, "SKOR_LAMA": 0.0, "ORIG_FID": 52 }, "geometry": { "type": "Point", "coordinates": [ 689128.213296777685173, 9195871.564586792141199 ] } },
{ "type": "Feature", "properties": { "LOKASI": "Jl. Dukuh Kupang XXV", "KECAMATAN": "Sawahan", "KELURAHAN": "Pakis", "RAYON": "Rayon Tandes", "LUAS_GENAN": 0.226555, "TINGGI_GEN": 10.0, "LAMA_GENAN": 16.0, "SKOR_LUAS": 50.0, "SKOR_TINGG": 25.0, "SKOR_LAMA": 0.0, "ORIG_FID": 53 }, "geometry": { "type": "Point", "coordinates": [ 689344.561119687044993, 9194680.613781290128827 ] } },
{ "type": "Feature", "properties": { "LOKASI": "Jl. Simo Rukun", "KECAMATAN": "Sukomanunggal", "KELURAHAN": "Simomulyo", "RAYON": "Rayon Tandes", "LUAS_GENAN": 0.151445, "TINGGI_GEN": 9.0, "LAMA_GENAN": 16.0, "SKOR_LUAS": 50.0, "SKOR_TINGG": 25.0, "SKOR_LAMA": 0.0, "ORIG_FID": 54 }, "geometry": { "type": "Point", "coordinates": [ 688965.646568879834376, 9196660.393226282671094 ] } },
{ "type": "Feature", "properties": { "LOKASI": "Jl. Simo Rukun VIII", "KECAMATAN": "Sukomanunggal", "KELURAHAN": "Simomulyo", "RAYON": "Rayon Tandes", "LUAS_GENAN": 0.152239, "TINGGI_GEN": 4.0, "LAMA_GENAN": 16.0, "SKOR_LUAS": 50.0, "SKOR_TINGG": 0.0, "SKOR_LAMA": 0.0, "ORIG_FID": 55 }, "geometry": { "type": "Point", "coordinates": [ 689025.185028849635273, 9196987.662940101698041 ] } },
{ "type": "Feature", "properties": { "LOKASI": "Kp. Simo Mulyo, Jl. Simo Mulyo", "KECAMATAN": "Sukomanunggal", "KELURAHAN": "Simomulyo", "RAYON": "Rayon Tandes", "LUAS_GENAN": 0.899891, "TINGGI_GEN": 9.0, "LAMA_GENAN": 16.0, "SKOR_LUAS": 75.0, "SKOR_TINGG": 25.0, "SKOR_LAMA": 0.0, "ORIG_FID": 56 }, "geometry": { "type": "Point", "coordinates": [ 688416.063819927629083, 9196193.658123390749097 ] } },
{ "type": "Feature", "properties": { "LOKASI": "Kp. Manukan Krajan", "KECAMATAN": "Tandes", "KELURAHAN": "Manukan Kulon", "RAYON": "Rayon Tandes", "LUAS_GENAN": 0.963129, "TINGGI_GEN": 9.0, "LAMA_GENAN": 31.0, "SKOR_LUAS": 75.0, "SKOR_TINGG": 25.0, "SKOR_LAMA": 25.0, "ORIG_FID": 57 }, "geometry": { "type": "Point", "coordinates": [ 684356.301143729826435, 9197207.112578120082617 ] } },
{ "type": "Feature", "properties": { "LOKASI": "Kp. Manukan Lor", "KECAMATAN": "Tandes", "KELURAHAN": "Manukan Kulon", "RAYON": "Rayon Tandes", "LUAS_GENAN": 0.915953, "TINGGI_GEN": 9.0, "LAMA_GENAN": 16.0, "SKOR_LUAS": 75.0, "SKOR_TINGG": 25.0, "SKOR_LAMA": 0.0, "ORIG_FID": 58 }, "geometry": { "type": "Point", "coordinates": [ 683765.390792365418747, 9197177.251449391245842 ] } },
{ "type": "Feature", "properties": { "LOKASI": "Jl. Balongsari (Balong Sari Tama)", "KECAMATAN": "Tandes", "KELURAHAN": "Balongsari", "RAYON": "Rayon Tandes", "LUAS_GENAN": 1.103001, "TINGGI_GEN": 15.0, "LAMA_GENAN": 31.0, "SKOR_LUAS": 75.0, "SKOR_TINGG": 50.0, "SKOR_LAMA": 25.0, "ORIG_FID": 59 }, "geometry": { "type": "Point", "coordinates": [ 685256.562164787668735, 9196928.965765150263906 ] } },
{ "type": "Feature", "properties": { "LOKASI": "Exit Tol Romokalisari", "KECAMATAN": "Benowo", "KELURAHAN": "Romo Kalisari", "RAYON": "Rayon Tandes", "LUAS_GENAN": 0.276473, "TINGGI_GEN": 10.0, "LAMA_GENAN": 16.0, "SKOR_LUAS": 50.0, "SKOR_TINGG": 25.0, "SKOR_LAMA": 0.0, "ORIG_FID": 60 }, "geometry": { "type": "Point", "coordinates": [ 681737.4206008129986, 9204039.788002770394087 ] } },
{ "type": "Feature", "properties": { "LOKASI": "Dupak Rukun", "KECAMATAN": "Krembangan", "KELURAHAN": "Dupak", "RAYON": "Rayon Tandes", "LUAS_GENAN": 13.4, "TINGGI_GEN": 15.0, "LAMA_GENAN": 16.0, "SKOR_LUAS": 100.0, "SKOR_TINGG": 50.0, "SKOR_LAMA": 0.0, "ORIG_FID": 61 }, "geometry": { "type": "Point", "coordinates": [ 689519.271935961325653, 9198711.538921173661947 ] } },
{ "type": "Feature", "properties": { "LOKASI": "Kp. Sumber Rejo", "KECAMATAN": "Pakal", "KELURAHAN": "Sumber Rejo", "RAYON": "Rayon Tandes", "LUAS_GENAN": 16.9, "TINGGI_GEN": 9.0, "LAMA_GENAN": 90.0, "SKOR_LUAS": 100.0, "SKOR_TINGG": 25.0, "SKOR_LAMA": 50.0, "ORIG_FID": 62 }, "geometry": { "type": "Point", "coordinates": [ 677093.029578219400719, 9200908.559256553649902 ] } },
{ "type": "Feature", "properties": { "LOKASI": "Jl. Sememi", "KECAMATAN": "Benowo", "KELURAHAN": "Sememi", "RAYON": "Rayon Tandes", "LUAS_GENAN": 0.45215, "TINGGI_GEN": 15.0, "LAMA_GENAN": 16.0, "SKOR_LUAS": 50.0, "SKOR_TINGG": 50.0, "SKOR_LAMA": 0.0, "ORIG_FID": 63 }, "geometry": { "type": "Point", "coordinates": [ 680256.075240954291075, 9198994.086211923509836 ] } },
{ "type": "Feature", "properties": { "LOKASI": "Jl. Pakal", "KECAMATAN": "Benowo", "KELURAHAN": "Pakal", "RAYON": "Rayon Tandes", "LUAS_GENAN": 11.0, "TINGGI_GEN": 15.0, "LAMA_GENAN": 16.0, "SKOR_LUAS": 100.0, "SKOR_TINGG": 50.0, "SKOR_LAMA": 0.0, "ORIG_FID": 65 }, "geometry": { "type": "Point", "coordinates": [ 677895.097995937685482, 9199438.649590520188212 ] } },
{ "type": "Feature", "properties": { "LOKASI": "Jl. Kendung", "KECAMATAN": "Benowo", "KELURAHAN": "Sememi", "RAYON": "Rayon Tandes", "LUAS_GENAN": 0.544111, "TINGGI_GEN": 9.0, "LAMA_GENAN": 16.0, "SKOR_LUAS": 75.0, "SKOR_TINGG": 25.0, "SKOR_LAMA": 0.0, "ORIG_FID": 66 }, "geometry": { "type": "Point", "coordinates": [ 680495.30111919157207, 9197403.87461749650538 ] } },
{ "type": "Feature", "properties": { "LOKASI": "Jl. Ngemplak (Made Utara)", "KECAMATAN": "Sambikerep", "KELURAHAN": "Made", "RAYON": "Rayon Tandes", "LUAS_GENAN": 0.512739, "TINGGI_GEN": 15.0, "LAMA_GENAN": 16.0, "SKOR_LUAS": 75.0, "SKOR_TINGG": 50.0, "SKOR_LAMA": 0.0, "ORIG_FID": 67 }, "geometry": { "type": "Point", "coordinates": [ 681312.96499384206254, 9195980.764655651524663 ] } },
{ "type": "Feature", "properties": { "LOKASI": "Jl. Darmo Indah Barat II", "KECAMATAN": "Sukomanunggal", "KELURAHAN": "Tanjungsari", "RAYON": "Rayon Tandes", "LUAS_GENAN": 0.26614, "TINGGI_GEN": 15.0, "LAMA_GENAN": 16.0, "SKOR_LUAS": 50.0, "SKOR_TINGG": 50.0, "SKOR_LAMA": 0.0, "ORIG_FID": 68 }, "geometry": { "type": "Point", "coordinates": [ 685606.880516695440747, 9196709.225685626268387 ] } },
{ "type": "Feature", "properties": { "LOKASI": "Jl. Jawar", "KECAMATAN": "Sukomanunggal", "KELURAHAN": "Simomulyo", "RAYON": "Rayon Tandes", "LUAS_GENAN": 1.959238, "TINGGI_GEN": 25.0, "LAMA_GENAN": 16.0, "SKOR_LUAS": 100.0, "SKOR_TINGG": 50.0, "SKOR_LAMA": 0.0, "ORIG_FID": 69 }, "geometry": { "type": "Point", "coordinates": [ 679346.373438622569665, 9203160.572781257331371 ] } },
{ "type": "Feature", "properties": { "LOKASI": "Kp. Simo Mulyo, Jl. Gumuk Bogo", "KECAMATAN": "Sukomanunggal", "KELURAHAN": "Simomulyo", "RAYON": "Rayon Tandes", "LUAS_GENAN": 17.9, "TINGGI_GEN": 4.0, "LAMA_GENAN": 16.0, "SKOR_LUAS": 100.0, "SKOR_TINGG": 0.0, "SKOR_LAMA": 0.0, "ORIG_FID": 70 }, "geometry": { "type": "Point", "coordinates": [ 688975.339701825054362, 9196903.884026730433106 ] } },
{ "type": "Feature", "properties": { "LOKASI": "Kp. Simo Mulyo, Jl. Kali Kundang", "KECAMATAN": "Sukomanunggal", "KELURAHAN": "Simomulyo", "RAYON": "Rayon Tandes", "LUAS_GENAN": 17.9, "TINGGI_GEN": 10.0, "LAMA_GENAN": 16.0, "SKOR_LUAS": 100.0, "SKOR_TINGG": 25.0, "SKOR_LAMA": 0.0, "ORIG_FID": 71 }, "geometry": { "type": "Point", "coordinates": [ 689015.349404793232679, 9197080.539065752178431 ] } },
{ "type": "Feature", "properties": { "LOKASI": "Jl. Simo Katrungan V & VI", "KECAMATAN": "Sawahan", "KELURAHAN": "Banyuurip", "RAYON": "Rayon Tandes", "LUAS_GENAN": 0.141395, "TINGGI_GEN": 4.0, "LAMA_GENAN": 16.0, "SKOR_LUAS": 50.0, "SKOR_TINGG": 0.0, "SKOR_LAMA": 0.0, "ORIG_FID": 72 }, "geometry": { "type": "Point", "coordinates": [ 689223.58602361776866, 9196057.070776076987386 ] } },
{ "type": "Feature", "properties": { "LOKASI": "Jl. Raya Lontar", "KECAMATAN": "Sambikerep", "KELURAHAN": "Lontar", "RAYON": "Rayon Tandes", "LUAS_GENAN": 0.212273, "TINGGI_GEN": 25.0, "LAMA_GENAN": 40.0, "SKOR_LUAS": 50.0, "SKOR_TINGG": 50.0, "SKOR_LAMA": 25.0, "ORIG_FID": 73 }, "geometry": { "type": "Point", "coordinates": [ 683981.702122637652792, 9194557.239961162209511 ] } },
{ "type": "Feature", "properties": { "LOKASI": "Perumahan Wisma Menanggal", "KECAMATAN": "Gayungan", "KELURAHAN": "Dukuh Menanggal", "RAYON": "Rayon Jambangan", "LUAS_GENAN": 2.32739, "TINGGI_GEN": 4.0, "LAMA_GENAN": 16.0, "SKOR_LUAS": 100.0, "SKOR_TINGG": 0.0, "SKOR_LAMA": 0.0, "ORIG_FID": 74 }, "geometry": { "type": "Point", "coordinates": [ 689601.618466968415305, 9188380.290943002328277 ] } },
{ "type": "Feature", "properties": { "LOKASI": "Gayungsari Barat V", "KECAMATAN": "Gayungan", "KELURAHAN": "Dukuh Menanggal", "RAYON": "Rayon Jambangan", "LUAS_GENAN": 0.510791, "TINGGI_GEN": 9.0, "LAMA_GENAN": 40.0, "SKOR_LUAS": 75.0, "SKOR_TINGG": 25.0, "SKOR_LAMA": 25.0, "ORIG_FID": 75 }, "geometry": { "type": "Point", "coordinates": [ 689653.660564575926401, 9188709.624283723533154 ] } },
{ "type": "Feature", "properties": { "LOKASI": "Gayungsari Barat X", "KECAMATAN": "Gayungan", "KELURAHAN": "Dukuh Menanggal", "RAYON": "Rayon Jambangan", "LUAS_GENAN": 0.565383, "TINGGI_GEN": 18.0, "LAMA_GENAN": 40.0, "SKOR_LUAS": 75.0, "SKOR_TINGG": 50.0, "SKOR_LAMA": 25.0, "ORIG_FID": 76 }, "geometry": { "type": "Point", "coordinates": [ 689903.555242481292225, 9188566.045530308037996 ] } },
{ "type": "Feature", "properties": { "LOKASI": "Gayungsari Barat", "KECAMATAN": "Gayungan", "KELURAHAN": "Dukuh Menanggal", "RAYON": "Rayon Jambangan", "LUAS_GENAN": 0.375385, "TINGGI_GEN": 9.0, "LAMA_GENAN": 26.0, "SKOR_LUAS": 50.0, "SKOR_TINGG": 25.0, "SKOR_LAMA": 0.0, "ORIG_FID": 77 }, "geometry": { "type": "Point", "coordinates": [ 689824.575208626803942, 9188888.441734632477164 ] } },
{ "type": "Feature", "properties": { "LOKASI": "Jl. Gayungan I,II dan sekitarnya", "KECAMATAN": "Gayungan", "KELURAHAN": "Dukuh Menanggal", "RAYON": "Rayon Jambangan", "LUAS_GENAN": 0.257308, "TINGGI_GEN": 4.0, "LAMA_GENAN": 40.0, "SKOR_LUAS": 50.0, "SKOR_TINGG": 0.0, "SKOR_LAMA": 25.0, "ORIG_FID": 78 }, "geometry": { "type": "Point", "coordinates": [ 690680.94658026471734, 9188544.371838144958019 ] } },
{ "type": "Feature", "properties": { "LOKASI": "Ketintang Baru", "KECAMATAN": "Gayungan", "KELURAHAN": "Dukuh Menanggal", "RAYON": "Rayon Jambangan", "LUAS_GENAN": 0.580002, "TINGGI_GEN": 4.0, "LAMA_GENAN": 16.0, "SKOR_LUAS": 75.0, "SKOR_TINGG": 0.0, "SKOR_LAMA": 0.0, "ORIG_FID": 79 }, "geometry": { "type": "Point", "coordinates": [ 691036.163304768968374, 9190951.392324993386865 ] } },
{ "type": "Feature", "properties": { "LOKASI": "Kp. Ngagel Tirto", "KECAMATAN": "Gubeng", "KELURAHAN": "Pucang Sewu", "RAYON": "Rayon Jambangan", "LUAS_GENAN": 0.425176, "TINGGI_GEN": 10.0, "LAMA_GENAN": 31.0, "SKOR_LUAS": 50.0, "SKOR_TINGG": 25.0, "SKOR_LAMA": 25.0, "ORIG_FID": 80 }, "geometry": { "type": "Point", "coordinates": [ 692569.358355058007874, 9192942.571629447862506 ] } },
{ "type": "Feature", "properties": { "LOKASI": "Karah Agung", "KECAMATAN": "Jambangan", "KELURAHAN": "Karah", "RAYON": "Rayon Jambangan", "LUAS_GENAN": 0.393857, "TINGGI_GEN": 4.0, "LAMA_GENAN": 16.0, "SKOR_LUAS": 50.0, "SKOR_TINGG": 0.0, "SKOR_LAMA": 0.0, "ORIG_FID": 81 }, "geometry": { "type": "Point", "coordinates": [ 689682.973738816333935, 9191328.077318856492639 ] } },
{ "type": "Feature", "properties": { "LOKASI": "Jl. Kedungasem", "KECAMATAN": "Rungkut", "KELURAHAN": "Kedung Baruk", "RAYON": "Rayon Jambangan", "LUAS_GENAN": 0.835831, "TINGGI_GEN": 4.0, "LAMA_GENAN": 16.0, "SKOR_LUAS": 75.0, "SKOR_TINGG": 0.0, "SKOR_LAMA": 0.0, "ORIG_FID": 82 }, "geometry": { "type": "Point", "coordinates": [ 696184.644573736703023, 9190260.924697402864695 ] } },
{ "type": "Feature", "properties": { "LOKASI": "Jl. Raya Medokan Ayu", "KECAMATAN": "Rungkut", "KELURAHAN": "Medokan Ayu", "RAYON": "Rayon Jambangan", "LUAS_GENAN": 0.155418, "TINGGI_GEN": 4.0, "LAMA_GENAN": 16.0, "SKOR_LUAS": 50.0, "SKOR_TINGG": 0.0, "SKOR_LAMA": 0.0, "ORIG_FID": 83 }, "geometry": { "type": "Point", "coordinates": [ 698106.95410721458029, 9189872.75426334887743 ] } },
{ "type": "Feature", "properties": { "LOKASI": "Jl. Penjaringansari Timur", "KECAMATAN": "Rungkut", "KELURAHAN": "Penjaringansari", "RAYON": "Rayon Jambangan", "LUAS_GENAN": 0.677365, "TINGGI_GEN": 9.0, "LAMA_GENAN": 31.0, "SKOR_LUAS": 75.0, "SKOR_TINGG": 25.0, "SKOR_LAMA": 25.0, "ORIG_FID": 84 }, "geometry": { "type": "Point", "coordinates": [ 696899.403055996051989, 9190607.799157463014126 ] } },
{ "type": "Feature", "properties": { "LOKASI": "Rungkut Kidul", "KECAMATAN": "Rungkut", "KELURAHAN": "Rungkut Kidul", "RAYON": "Rayon Jambangan", "LUAS_GENAN": 1.143154, "TINGGI_GEN": 4.0, "LAMA_GENAN": 16.0, "SKOR_LUAS": 75.0, "SKOR_TINGG": 0.0, "SKOR_LAMA": 0.0, "ORIG_FID": 85 }, "geometry": { "type": "Point", "coordinates": [ 695687.598854809883051, 9189572.73972967453301 ] } },
{ "type": "Feature", "properties": { "LOKASI": "Jl. Keputih Tegal Timur", "KECAMATAN": "Sukolilo", "KELURAHAN": "Keputih", "RAYON": "Rayon Jambangan", "LUAS_GENAN": 1.972737, "TINGGI_GEN": 10.0, "LAMA_GENAN": 31.0, "SKOR_LUAS": 100.0, "SKOR_TINGG": 25.0, "SKOR_LAMA": 25.0, "ORIG_FID": 86 }, "geometry": { "type": "Point", "coordinates": [ 699301.461018210859038, 9193693.92053072527051 ] } },
{ "type": "Feature", "properties": { "LOKASI": "Klampis Semalang", "KECAMATAN": "Sukolilo", "KELURAHAN": "Klampis Ngasem", "RAYON": "Rayon Jambangan", "LUAS_GENAN": 0.471683, "TINGGI_GEN": 9.0, "LAMA_GENAN": 16.0, "SKOR_LUAS": 50.0, "SKOR_TINGG": 25.0, "SKOR_LAMA": 0.0, "ORIG_FID": 87 }, "geometry": { "type": "Point", "coordinates": [ 695790.08154226501938, 9193717.596528541296721 ] } },
{ "type": "Feature", "properties": { "LOKASI": "Kp. Manyar Rejo", "KECAMATAN": "Sukolilo", "KELURAHAN": "Menur Pumougan", "RAYON": "Rayon Jambangan", "LUAS_GENAN": 0.36674, "TINGGI_GEN": 9.0, "LAMA_GENAN": 40.0, "SKOR_LUAS": 50.0, "SKOR_TINGG": 25.0, "SKOR_LAMA": 25.0, "ORIG_FID": 88 }, "geometry": { "type": "Point", "coordinates": [ 695170.525383678497747, 9193329.30730396322906 ] } },
{ "type": "Feature", "properties": { "LOKASI": "Perumahan Kutisari Indah", "KECAMATAN": "Tenggilis Mejoyo", "KELURAHAN": "Kutisari", "RAYON": "Rayon Jambangan", "LUAS_GENAN": 0.917751, "TINGGI_GEN": 4.0, "LAMA_GENAN": 58.0, "SKOR_LUAS": 75.0, "SKOR_TINGG": 0.0, "SKOR_LAMA": 25.0, "ORIG_FID": 89 }, "geometry": { "type": "Point", "coordinates": [ 693383.614099104888737, 9188390.939043926075101 ] } },
{ "type": "Feature", "properties": { "LOKASI": "Jl. Keputih Tegal", "KECAMATAN": "Sukolilo", "KELURAHAN": "Keputih", "RAYON": "Rayon Jambangan", "LUAS_GENAN": 10.2, "TINGGI_GEN": 10.0, "LAMA_GENAN": 16.0, "SKOR_LUAS": 100.0, "SKOR_TINGG": 25.0, "SKOR_LAMA": 0.0, "ORIG_FID": 90 }, "geometry": { "type": "Point", "coordinates": [ 698911.745131249772385, 9193502.41229835152626 ] } },
{ "type": "Feature", "properties": { "LOKASI": "Jl. Dukuh Menanggal", "KECAMATAN": "Gayungan", "KELURAHAN": "Dukuh Menanggal", "RAYON": "Rayon Jambangan", "LUAS_GENAN": 0.308184, "TINGGI_GEN": 10.0, "LAMA_GENAN": 40.0, "SKOR_LUAS": 50.0, "SKOR_TINGG": 25.0, "SKOR_LAMA": 25.0, "ORIG_FID": 91 }, "geometry": { "type": "Point", "coordinates": [ 690731.937215793761425, 9187899.982325535267591 ] } },
{ "type": "Feature", "properties": { "LOKASI": "Gayungsari", "KECAMATAN": "Gayungan", "KELURAHAN": "Dukuh Menanggal", "RAYON": "Rayon Jambangan", "LUAS_GENAN": 0.226172, "TINGGI_GEN": 9.0, "LAMA_GENAN": 40.0, "SKOR_LUAS": 50.0, "SKOR_TINGG": 25.0, "SKOR_LAMA": 25.0, "ORIG_FID": 92 }, "geometry": { "type": "Point", "coordinates": [ 690387.771963439066894, 9188770.485102334991097 ] } },
{ "type": "Feature", "properties": { "LOKASI": "Jambangan", "KECAMATAN": "Jambangan", "KELURAHAN": "Jambangan", "RAYON": "Rayon Jambangan", "LUAS_GENAN": 10.0, "TINGGI_GEN": 18.0, "LAMA_GENAN": 40.0, "SKOR_LUAS": 100.0, "SKOR_TINGG": 50.0, "SKOR_LAMA": 25.0, "ORIG_FID": 93 }, "geometry": { "type": "Point", "coordinates": [ 689131.366787531762384, 9191056.488075155764818 ] } },
{ "type": "Feature", "properties": { "LOKASI": "Jl. Siwalankerto Timur", "KECAMATAN": "Siwalan Kerto", "KELURAHAN": "Siwalan Kerto", "RAYON": "Rayon Jambangan", "LUAS_GENAN": 0.74223, "TINGGI_GEN": 9.0, "LAMA_GENAN": 16.0, "SKOR_LUAS": 75.0, "SKOR_TINGG": 25.0, "SKOR_LAMA": 0.0, "ORIG_FID": 94 }, "geometry": { "type": "Point", "coordinates": [ 692018.533668652526103, 9188535.034083966165781 ] } },
{ "type": "Feature", "properties": { "LOKASI": "Kp. Merisi Selatan", "KECAMATAN": "Wonocolo", "KELURAHAN": "Bendul Merisi", "RAYON": "Rayon Jambangan", "LUAS_GENAN": 1.040533, "TINGGI_GEN": 10.0, "LAMA_GENAN": 58.0, "SKOR_LUAS": 75.0, "SKOR_TINGG": 25.0, "SKOR_LAMA": 25.0, "ORIG_FID": 95 }, "geometry": { "type": "Point", "coordinates": [ 692737.477895280346274, 9191441.510011047124863 ] } },
{ "type": "Feature", "properties": { "LOKASI": "Perumahan Bendul Merisi", "KECAMATAN": "Wonocolo", "KELURAHAN": "Bendul Merisi", "RAYON": "Rayon Jambangan", "LUAS_GENAN": 9.2, "TINGGI_GEN": 4.0, "LAMA_GENAN": 40.0, "SKOR_LUAS": 100.0, "SKOR_TINGG": 0.0, "SKOR_LAMA": 25.0, "ORIG_FID": 96 }, "geometry": { "type": "Point", "coordinates": [ 692796.504947710898705, 9191633.429803183302283 ] } },
{ "type": "Feature", "properties": { "LOKASI": "Jl. Panjang Jiwo IX", "KECAMATAN": "Tenggilis Mejoyo", "KELURAHAN": "Panjang Jiwo", "RAYON": "Rayon Jambangan", "LUAS_GENAN": 12.0, "TINGGI_GEN": 4.0, "LAMA_GENAN": 16.0, "SKOR_LUAS": 100.0, "SKOR_TINGG": 0.0, "SKOR_LAMA": 0.0, "ORIG_FID": 97 }, "geometry": { "type": "Point", "coordinates": [ 694503.030272015486844, 9191584.055700022727251 ] } },
{ "type": "Feature", "properties": { "LOKASI": "Jl. Menur Pumpungan", "KECAMATAN": "Sukolilo", "KELURAHAN": "Menur Pumpungan", "RAYON": "Rayon Jambangan", "LUAS_GENAN": 0.471186, "TINGGI_GEN": 4.0, "LAMA_GENAN": 16.0, "SKOR_LUAS": 50.0, "SKOR_TINGG": 0.0, "SKOR_LAMA": 0.0, "ORIG_FID": 98 }, "geometry": { "type": "Point", "coordinates": [ 695667.373129870509729, 9193855.289599668234587 ] } },
{ "type": "Feature", "properties": { "LOKASI": "Kp. Menur Pumpungan", "KECAMATAN": "Sukolilo", "KELURAHAN": "Menur Pumpungan", "RAYON": "Rayon Jambangan", "LUAS_GENAN": 0.335837, "TINGGI_GEN": 10.0, "LAMA_GENAN": 16.0, "SKOR_LUAS": 50.0, "SKOR_TINGG": 25.0, "SKOR_LAMA": 0.0, "ORIG_FID": 99 }, "geometry": { "type": "Point", "coordinates": [ 694930.640865348046646, 9193817.719445476308465 ] } },
{ "type": "Feature", "properties": { "LOKASI": "Jl. Baratajaya", "KECAMATAN": "Gubeng", "KELURAHAN": "Baratajaya", "RAYON": "Rayon Jambangan", "LUAS_GENAN": 1.737368, "TINGGI_GEN": 4.0, "LAMA_GENAN": 16.0, "SKOR_LUAS": 100.0, "SKOR_TINGG": 0.0, "SKOR_LAMA": 0.0, "ORIG_FID": 100 }, "geometry": { "type": "Point", "coordinates": [ 694251.392576512182131, 9192640.341613847762346 ] } },
{ "type": "Feature", "properties": { "LOKASI": "Perumahan Medokan Asri", "KECAMATAN": "Rungkut", "KELURAHAN": "Medokan Ayu", "RAYON": "Rayon Jambangan", "LUAS_GENAN": 0.839133, "TINGGI_GEN": 4.0, "LAMA_GENAN": 16.0, "SKOR_LUAS": 75.0, "SKOR_TINGG": 0.0, "SKOR_LAMA": 0.0, "ORIG_FID": 101 }, "geometry": { "type": "Point", "coordinates": [ 697539.725754597224295, 9189608.884945804253221 ] } },
{ "type": "Feature", "properties": { "LOKASI": "Medokan Semampir", "KECAMATAN": "Rungkut", "KELURAHAN": "Medokan Ayu", "RAYON": "Rayon Jambangan", "LUAS_GENAN": 9.3, "TINGGI_GEN": 4.0, "LAMA_GENAN": 16.0, "SKOR_LUAS": 100.0, "SKOR_TINGG": 0.0, "SKOR_LAMA": 0.0, "ORIG_FID": 102 }, "geometry": { "type": "Point", "coordinates": [ 696229.141735551180318, 9192026.370983878150582 ] } },
{ "type": "Feature", "properties": { "LOKASI": "Perumahan Penjaringansari", "KECAMATAN": "Rungkut", "KELURAHAN": "Penjaringansari", "RAYON": "Rayon Jambangan", "LUAS_GENAN": 0.160132, "TINGGI_GEN": 4.0, "LAMA_GENAN": 16.0, "SKOR_LUAS": 50.0, "SKOR_TINGG": 0.0, "SKOR_LAMA": 0.0, "ORIG_FID": 103 }, "geometry": { "type": "Point", "coordinates": [ 697016.768853303627111, 9190565.577627772465348 ] } },
{ "type": "Feature", "properties": { "LOKASI": "Perumahan Rungkut Harapan", "KECAMATAN": "Rungkut", "KELURAHAN": "Rungkut Kidul", "RAYON": "Rayon Jambangan", "LUAS_GENAN": 12.1, "TINGGI_GEN": 4.0, "LAMA_GENAN": 40.0, "SKOR_LUAS": 100.0, "SKOR_TINGG": 0.0, "SKOR_LAMA": 25.0, "ORIG_FID": 104 }, "geometry": { "type": "Point", "coordinates": [ 696395.621605365187861, 9189933.676135381683707 ] } },
{ "type": "Feature", "properties": { "LOKASI": "Ngagel Madya (Gereja Santa Maria)", "KECAMATAN": "Gubeng", "KELURAHAN": "Pucang Sewu", "RAYON": "Rayon Jambangan", "LUAS_GENAN": 0.61425, "TINGGI_GEN": 10.0, "LAMA_GENAN": 31.0, "SKOR_LUAS": 75.0, "SKOR_TINGG": 25.0, "SKOR_LAMA": 25.0, "ORIG_FID": 105 }, "geometry": { "type": "Point", "coordinates": [ 694298.515998344984837, 9193834.737934086471796 ] } },
{ "type": "Feature", "properties": { "LOKASI": "Jl. Keputih", "KECAMATAN": "Sukolilo", "KELURAHAN": "Keputih", "RAYON": "Rayon Jambangan", "LUAS_GENAN": 0.801458, "TINGGI_GEN": 9.0, "LAMA_GENAN": 31.0, "SKOR_LUAS": 75.0, "SKOR_TINGG": 25.0, "SKOR_LAMA": 25.0, "ORIG_FID": 106 }, "geometry": { "type": "Point", "coordinates": [ 698665.793090549763292, 9193662.08159377425909 ] } },
{ "type": "Feature", "properties": { "LOKASI": "Jl. Jetis Kulon", "KECAMATAN": "Wonokromo", "KELURAHAN": "Wonokromo", "RAYON": "Rayon Jambangan", "LUAS_GENAN": 0.509372, "TINGGI_GEN": 10.0, "LAMA_GENAN": 58.0, "SKOR_LUAS": 75.0, "SKOR_TINGG": 25.0, "SKOR_LAMA": 25.0, "ORIG_FID": 107 }, "geometry": { "type": "Point", "coordinates": [ 691242.314586526481435, 9191726.381006838753819 ] } },
{ "type": "Feature", "properties": { "LOKASI": "Jl. Ketintang", "KECAMATAN": "Gayungan", "KELURAHAN": "Ketintang", "RAYON": "Rayon Jambangan", "LUAS_GENAN": 0.49914, "TINGGI_GEN": 10.0, "LAMA_GENAN": 31.0, "SKOR_LUAS": 50.0, "SKOR_TINGG": 25.0, "SKOR_LAMA": 25.0, "ORIG_FID": 108 }, "geometry": { "type": "Point", "coordinates": [ 690717.368907799595036, 9191714.006923178210855 ] } },
{ "type": "Feature", "properties": { "LOKASI": "Jl. Ketintang Madya dan sekitarnya", "KECAMATAN": "Ketintang", "KELURAHAN": "Ketintang", "RAYON": "Rayon Jambangan", "LUAS_GENAN": 0.352063, "TINGGI_GEN": 9.0, "LAMA_GENAN": 16.0, "SKOR_LUAS": 50.0, "SKOR_TINGG": 25.0, "SKOR_LAMA": 0.0, "ORIG_FID": 109 }, "geometry": { "type": "Point", "coordinates": [ 690418.370198615128174, 9191643.609772091731429 ] } },
{ "type": "Feature", "properties": { "LOKASI": "Jl. Siwalankerto dan sekitarnya", "KECAMATAN": "Siwalan Kerto", "KELURAHAN": "Siwalan Kerto", "RAYON": "Rayon Jambangan", "LUAS_GENAN": 0.469372, "TINGGI_GEN": 9.0, "LAMA_GENAN": 40.0, "SKOR_LUAS": 50.0, "SKOR_TINGG": 25.0, "SKOR_LAMA": 25.0, "ORIG_FID": 110 }, "geometry": { "type": "Point", "coordinates": [ 691261.763282366096973, 9188578.93613918684423 ] } },
{ "type": "Feature", "properties": { "LOKASI": "Jl. Nambangan", "KECAMATAN": "Bulak", "KELURAHAN": "Kedung Cowek", "RAYON": "Rayon Gubeng", "LUAS_GENAN": 0.884641, "TINGGI_GEN": 15.0, "LAMA_GENAN": 40.0, "SKOR_LUAS": 75.0, "SKOR_TINGG": 50.0, "SKOR_LAMA": 25.0, "ORIG_FID": 111 }, "geometry": { "type": "Point", "coordinates": [ 696696.95825264963787, 9201313.877068867906928 ] } },
{ "type": "Feature", "properties": { "LOKASI": "Jl. Raya Gubeng / Jl. Sumatera", "KECAMATAN": "Gubeng", "KELURAHAN": "Gubeng", "RAYON": "Rayon Gubeng", "LUAS_GENAN": 0.378756, "TINGGI_GEN": 4.0, "LAMA_GENAN": 5.0, "SKOR_LUAS": 50.0, "SKOR_TINGG": 0.0, "SKOR_LAMA": 0.0, "ORIG_FID": 112 }, "geometry": { "type": "Point", "coordinates": [ 693292.244732591207139, 9196087.061242876574397 ] } },
{ "type": "Feature", "properties": { "LOKASI": "Jl. Jawa", "KECAMATAN": "Gubeng", "KELURAHAN": "Gubeng", "RAYON": "Rayon Gubeng", "LUAS_GENAN": 0.266988, "TINGGI_GEN": 4.0, "LAMA_GENAN": 5.0, "SKOR_LUAS": 50.0, "SKOR_TINGG": 0.0, "SKOR_LAMA": 0.0, "ORIG_FID": 113 }, "geometry": { "type": "Point", "coordinates": [ 693062.418480475666001, 9195641.328364687040448 ] } },
{ "type": "Feature", "properties": { "LOKASI": "Jl. Pucang Anom Timur", "KECAMATAN": "Gubeng", "KELURAHAN": "Kertajaya", "RAYON": "Rayon Gubeng", "LUAS_GENAN": 10.0, "TINGGI_GEN": 10.0, "LAMA_GENAN": 13.0, "SKOR_LUAS": 100.0, "SKOR_TINGG": 25.0, "SKOR_LAMA": 0.0, "ORIG_FID": 114 }, "geometry": { "type": "Point", "coordinates": [ 693844.077595129958354, 9194479.009819308295846 ] } },
{ "type": "Feature", "properties": { "LOKASI": "Jl. Pucang Jajar", "KECAMATAN": "Gubeng", "KELURAHAN": "Kertajaya", "RAYON": "Rayon Gubeng", "LUAS_GENAN": 15.3, "TINGGI_GEN": 14.0, "LAMA_GENAN": 16.0, "SKOR_LUAS": 100.0, "SKOR_TINGG": 50.0, "SKOR_LAMA": 0.0, "ORIG_FID": 115 }, "geometry": { "type": "Point", "coordinates": [ 694258.178183876676485, 9194256.507063241675496 ] } },
{ "type": "Feature", "properties": { "LOKASI": "Jl. Karang Menjangan\r", "KECAMATAN": "Gubeng", "KELURAHAN": "Mojo", "RAYON": "Rayon Gubeng", "LUAS_GENAN": 0.634641, "TINGGI_GEN": 17.0, "LAMA_GENAN": 16.0, "SKOR_LUAS": 75.0, "SKOR_TINGG": 50.0, "SKOR_LAMA": 0.0, "ORIG_FID": 116 }, "geometry": { "type": "Point", "coordinates": [ 694391.958805281552486, 9196206.024150038138032 ] } },
{ "type": "Feature", "properties": { "LOKASI": "Jl. Kyai Tambak Deres", "KECAMATAN": "Kenjeran", "KELURAHAN": "Bulak Banteng", "RAYON": "Rayon Gubeng", "LUAS_GENAN": 0.277082, "TINGGI_GEN": 10.0, "LAMA_GENAN": 16.0, "SKOR_LUAS": 50.0, "SKOR_TINGG": 25.0, "SKOR_LAMA": 0.0, "ORIG_FID": 117 }, "geometry": { "type": "Point", "coordinates": [ 696514.862025820999406, 9200216.735377322882414 ] } },
{ "type": "Feature", "properties": { "LOKASI": "Jl. Bulak Kenjeran", "KECAMATAN": "Kenjeran", "KELURAHAN": "Bulak Banteng", "RAYON": "Rayon Gubeng", "LUAS_GENAN": 0.14998, "TINGGI_GEN": 4.0, "LAMA_GENAN": 5.0, "SKOR_LUAS": 50.0, "SKOR_TINGG": 0.0, "SKOR_LAMA": 0.0, "ORIG_FID": 118 }, "geometry": { "type": "Point", "coordinates": [ 697088.241233687847853, 9200106.876239875331521 ] } },
{ "type": "Feature", "properties": { "LOKASI": "Jl. Bulak Banteng Kidul\r", "KECAMATAN": "Kenjeran", "KELURAHAN": "Bulak Banteng", "RAYON": "Rayon Gubeng", "LUAS_GENAN": 0.30738, "TINGGI_GEN": 4.0, "LAMA_GENAN": 5.0, "SKOR_LUAS": 50.0, "SKOR_TINGG": 0.0, "SKOR_LAMA": 0.0, "ORIG_FID": 119 }, "geometry": { "type": "Point", "coordinates": [ 694504.395960225840099, 9201400.419405691325665 ] } },
{ "type": "Feature", "properties": { "LOKASI": "Jl. Randu", "KECAMATAN": "Kenjeran", "KELURAHAN": "Sidotopo Wetan", "RAYON": "Rayon Gubeng", "LUAS_GENAN": 0.792657, "TINGGI_GEN": 30.0, "LAMA_GENAN": 90.0, "SKOR_LUAS": 75.0, "SKOR_TINGG": 50.0, "SKOR_LAMA": 50.0, "ORIG_FID": 120 }, "geometry": { "type": "Point", "coordinates": [ 694721.939950204337947, 9200701.42198365367949 ] } },
{ "type": "Feature", "properties": { "LOKASI": "Jl. Kedinding Lor", "KECAMATAN": "Kenjeran", "KELURAHAN": "Tanah Kali Kedinding", "RAYON": "Rayon Gubeng", "LUAS_GENAN": 0.312514, "TINGGI_GEN": 9.0, "LAMA_GENAN": 40.0, "SKOR_LUAS": 50.0, "SKOR_TINGG": 25.0, "SKOR_LAMA": 25.0, "ORIG_FID": 121 }, "geometry": { "type": "Point", "coordinates": [ 695479.576642293832265, 9201402.289923848584294 ] } },
{ "type": "Feature", "properties": { "LOKASI": "Kp. Pogot", "KECAMATAN": "Kenjeran", "KELURAHAN": "Tanah Kali Kedinding", "RAYON": "Rayon Gubeng", "LUAS_GENAN": 0.695793, "TINGGI_GEN": 4.0, "LAMA_GENAN": 16.0, "SKOR_LUAS": 75.0, "SKOR_TINGG": 0.0, "SKOR_LAMA": 0.0, "ORIG_FID": 122 }, "geometry": { "type": "Point", "coordinates": [ 695308.42306402081158, 9200144.656257407739758 ] } },
{ "type": "Feature", "properties": { "LOKASI": "Jl. Kedung Mangu Timur", "KECAMATAN": "Kenjeran", "KELURAHAN": "Tanah Kali Kedinding", "RAYON": "Rayon Gubeng", "LUAS_GENAN": 0.538027, "TINGGI_GEN": 9.0, "LAMA_GENAN": 16.0, "SKOR_LUAS": 75.0, "SKOR_TINGG": 25.0, "SKOR_LAMA": 0.0, "ORIG_FID": 123 }, "geometry": { "type": "Point", "coordinates": [ 694934.782497577718459, 9201245.799283593893051 ] } },
{ "type": "Feature", "properties": { "LOKASI": "Jl. Kalijudan (Perbatasan Ploso)", "KECAMATAN": "Mulyorejo", "KELURAHAN": "Kalijudan", "RAYON": "Rayon Gubeng", "LUAS_GENAN": 0.37517, "TINGGI_GEN": 6.0, "LAMA_GENAN": 58.0, "SKOR_LUAS": 50.0, "SKOR_TINGG": 25.0, "SKOR_LAMA": 25.0, "ORIG_FID": 124 }, "geometry": { "type": "Point", "coordinates": [ 696535.061446727602743, 9197508.678626418113708 ] } },
{ "type": "Feature", "properties": { "LOKASI": "Perumahan Mulyosari", "KECAMATAN": "Mulyorejo", "KELURAHAN": "Kalisari", "RAYON": "Rayon Gubeng", "LUAS_GENAN": 0.858418, "TINGGI_GEN": 15.0, "LAMA_GENAN": 58.0, "SKOR_LUAS": 75.0, "SKOR_TINGG": 50.0, "SKOR_LAMA": 25.0, "ORIG_FID": 125 }, "geometry": { "type": "Point", "coordinates": [ 698295.517271953634918, 9196379.046235434710979 ] } },
{ "type": "Feature", "properties": { "LOKASI": "Jl. Raya ITS / Bundaran ITS\r", "KECAMATAN": "Mulyorejo", "KELURAHAN": "Manyar Sabrangan", "RAYON": "Rayon Gubeng", "LUAS_GENAN": 0.309029, "TINGGI_GEN": 8.0, "LAMA_GENAN": 16.0, "SKOR_LUAS": 50.0, "SKOR_TINGG": 25.0, "SKOR_LAMA": 0.0, "ORIG_FID": 126 }, "geometry": { "type": "Point", "coordinates": [ 697522.695999579387717, 9194976.782654155045748 ] } },
{ "type": "Feature", "properties": { "LOKASI": "Kp. Manyar Sabrangan (Mleto)", "KECAMATAN": "Mulyorejo", "KELURAHAN": "Manyar Sabrangan", "RAYON": "Rayon Gubeng", "LUAS_GENAN": 0.389129, "TINGGI_GEN": 9.0, "LAMA_GENAN": 16.0, "SKOR_LUAS": 50.0, "SKOR_TINGG": 25.0, "SKOR_LAMA": 0.0, "ORIG_FID": 127 }, "geometry": { "type": "Point", "coordinates": [ 694913.699069612077437, 9194666.618351936340332 ] } },
{ "type": "Feature", "properties": { "LOKASI": "Jl. Slompretan", "KECAMATAN": "Pabean Cantikan", "KELURAHAN": "Bongkaran", "RAYON": "Rayon Gubeng", "LUAS_GENAN": 0.205651, "TINGGI_GEN": 4.0, "LAMA_GENAN": 5.0, "SKOR_LUAS": 50.0, "SKOR_TINGG": 0.0, "SKOR_LAMA": 0.0, "ORIG_FID": 128 }, "geometry": { "type": "Point", "coordinates": [ 692225.755237333243713, 9199579.849607702344656 ] } },
{ "type": "Feature", "properties": { "LOKASI": "Jl. Bongkaran", "KECAMATAN": "Pabean Cantikan", "KELURAHAN": "Bongkaran", "RAYON": "Rayon Gubeng", "LUAS_GENAN": 0.198765, "TINGGI_GEN": 4.0, "LAMA_GENAN": 5.0, "SKOR_LUAS": 50.0, "SKOR_TINGG": 0.0, "SKOR_LAMA": 0.0, "ORIG_FID": 129 }, "geometry": { "type": "Point", "coordinates": [ 692317.490042789140716, 9199558.196771360933781 ] } },
{ "type": "Feature", "properties": { "LOKASI": "Jl. Songoyudan", "KECAMATAN": "Pabean Cantikan", "KELURAHAN": "Nyamplungan", "RAYON": "Rayon Gubeng", "LUAS_GENAN": 0.282563, "TINGGI_GEN": 4.0, "LAMA_GENAN": 5.0, "SKOR_LUAS": 50.0, "SKOR_TINGG": 0.0, "SKOR_LAMA": 0.0, "ORIG_FID": 130 }, "geometry": { "type": "Point", "coordinates": [ 692313.488927478902042, 9199857.411978924646974 ] } },
{ "type": "Feature", "properties": { "LOKASI": "Jl. Karang Tembok (Sisi Barat)", "KECAMATAN": "Semampir", "KELURAHAN": "Pegirian", "RAYON": "Rayon Gubeng", "LUAS_GENAN": 0.338543, "TINGGI_GEN": 9.0, "LAMA_GENAN": 16.0, "SKOR_LUAS": 50.0, "SKOR_TINGG": 25.0, "SKOR_LAMA": 0.0, "ORIG_FID": 131 }, "geometry": { "type": "Point", "coordinates": [ 692973.94368574116379, 9201061.576262848451734 ] } },
{ "type": "Feature", "properties": { "LOKASI": "Jl. Sidorame\r", "KECAMATAN": "Semampir", "KELURAHAN": "Sidotopo", "RAYON": "Rayon Gubeng", "LUAS_GENAN": 0.683436, "TINGGI_GEN": 10.0, "LAMA_GENAN": 16.0, "SKOR_LUAS": 75.0, "SKOR_TINGG": 25.0, "SKOR_LAMA": 0.0, "ORIG_FID": 132 }, "geometry": { "type": "Point", "coordinates": [ 693085.538429856882431, 9200708.156575044617057 ] } },
{ "type": "Feature", "properties": { "LOKASI": "Jl. Jati Srono/Kp. Jati Purwo", "KECAMATAN": "Semampir", "KELURAHAN": "Ujung", "RAYON": "Rayon Gubeng", "LUAS_GENAN": 0.216922, "TINGGI_GEN": 3.0, "LAMA_GENAN": 13.0, "SKOR_LUAS": 50.0, "SKOR_TINGG": 0.0, "SKOR_LAMA": 0.0, "ORIG_FID": 133 }, "geometry": { "type": "Point", "coordinates": [ 693124.634970673243515, 9201525.593580598011613 ] } },
{ "type": "Feature", "properties": { "LOKASI": "Jl. KH Mas Mansyur", "KECAMATAN": "Semampir", "KELURAHAN": "Ujung", "RAYON": "Rayon Gubeng", "LUAS_GENAN": 10.5, "TINGGI_GEN": 4.0, "LAMA_GENAN": 16.0, "SKOR_LUAS": 100.0, "SKOR_TINGG": 0.0, "SKOR_LAMA": 0.0, "ORIG_FID": 134 }, "geometry": { "type": "Point", "coordinates": [ 692243.188478308846243, 9200409.2472850587219 ] } },
{ "type": "Feature", "properties": { "LOKASI": "Kp. Bulak Banteng", "KECAMATAN": "Kenjeran", "KELURAHAN": "Bulak Banteng", "RAYON": "Rayon Gubeng", "LUAS_GENAN": 0.348132, "TINGGI_GEN": 4.0, "LAMA_GENAN": 16.0, "SKOR_LUAS": 50.0, "SKOR_TINGG": 0.0, "SKOR_LAMA": 0.0, "ORIG_FID": 135 }, "geometry": { "type": "Point", "coordinates": [ 694569.977707067155279, 9201705.203719818964601 ] } },
{ "type": "Feature", "properties": { "LOKASI": "Jl. Hang Tuah", "KECAMATAN": "Semampir", "KELURAHAN": "Ujung", "RAYON": "Rayon Gubeng", "LUAS_GENAN": 10.5, "TINGGI_GEN": 10.0, "LAMA_GENAN": 90.0, "SKOR_LUAS": 100.0, "SKOR_TINGG": 25.0, "SKOR_LAMA": 50.0, "ORIG_FID": 136 }, "geometry": { "type": "Point", "coordinates": [ 692174.469933991320431, 9201278.868140630424023 ] } },
{ "type": "Feature", "properties": { "LOKASI": "Jl. Iskandar Muda", "KECAMATAN": "Semampir", "KELURAHAN": "Ujung", "RAYON": "Rayon Gubeng", "LUAS_GENAN": 0.49055, "TINGGI_GEN": 4.0, "LAMA_GENAN": 5.0, "SKOR_LUAS": 50.0, "SKOR_TINGG": 0.0, "SKOR_LAMA": 0.0, "ORIG_FID": 137 }, "geometry": { "type": "Point", "coordinates": [ 692382.492370449006557, 9200960.226569959893823 ] } },
{ "type": "Feature", "properties": { "LOKASI": "Kp Wonosari Lor", "KECAMATAN": "Semampir", "KELURAHAN": "Ujung", "RAYON": "Rayon Gubeng", "LUAS_GENAN": 0.776542, "TINGGI_GEN": 10.0, "LAMA_GENAN": 16.0, "SKOR_LUAS": 75.0, "SKOR_TINGG": 25.0, "SKOR_LAMA": 0.0, "ORIG_FID": 138 }, "geometry": { "type": "Point", "coordinates": [ 693338.194926175056025, 9201777.45590184815228 ] } },
{ "type": "Feature", "properties": { "LOKASI": "Jl. Tenggumung Baru", "KECAMATAN": "Semampir", "KELURAHAN": "Wonokusumo", "RAYON": "Rayon Gubeng", "LUAS_GENAN": 0.22679, "TINGGI_GEN": 4.0, "LAMA_GENAN": 13.0, "SKOR_LUAS": 50.0, "SKOR_TINGG": 0.0, "SKOR_LAMA": 0.0, "ORIG_FID": 139 }, "geometry": { "type": "Point", "coordinates": [ 694005.841930820140988, 9201039.954742077738047 ] } },
{ "type": "Feature", "properties": { "LOKASI": "Kp Wonokusumo Lor", "KECAMATAN": "Semampir", "KELURAHAN": "Wonokusumo", "RAYON": "Rayon Gubeng", "LUAS_GENAN": 0.434397, "TINGGI_GEN": 4.0, "LAMA_GENAN": 16.0, "SKOR_LUAS": 50.0, "SKOR_TINGG": 0.0, "SKOR_LAMA": 0.0, "ORIG_FID": 140 }, "geometry": { "type": "Point", "coordinates": [ 693529.020128787029535, 9201377.230807069689035 ] } },
{ "type": "Feature", "properties": { "LOKASI": "Jl. Bulaksari", "KECAMATAN": "Semampir", "KELURAHAN": "Wonokusumo", "RAYON": "Rayon Gubeng", "LUAS_GENAN": 0.37232, "TINGGI_GEN": 10.0, "LAMA_GENAN": 16.0, "SKOR_LUAS": 50.0, "SKOR_TINGG": 25.0, "SKOR_LAMA": 0.0, "ORIG_FID": 141 }, "geometry": { "type": "Point", "coordinates": [ 693607.140216393512674, 9202146.278466956689954 ] } },
{ "type": "Feature", "properties": { "LOKASI": "Kp. Klampis Jaya", "KECAMATAN": "Sukolilo", "KELURAHAN": "Klampis Ngasem", "RAYON": "Rayon Gubeng", "LUAS_GENAN": 1.351034, "TINGGI_GEN": 9.0, "LAMA_GENAN": 16.0, "SKOR_LUAS": 75.0, "SKOR_TINGG": 25.0, "SKOR_LAMA": 0.0, "ORIG_FID": 142 }, "geometry": { "type": "Point", "coordinates": [ 696071.622699664672837, 9194245.678240200504661 ] } },
{ "type": "Feature", "properties": { "LOKASI": "Jl. Prof Dr.Moestopo / Kedung Sroko\r", "KECAMATAN": "Tambaksari", "KELURAHAN": "Pacar Keling", "RAYON": "Rayon Gubeng", "LUAS_GENAN": 0.408484, "TINGGI_GEN": 4.0, "LAMA_GENAN": 16.0, "SKOR_LUAS": 50.0, "SKOR_TINGG": 0.0, "SKOR_LAMA": 0.0, "ORIG_FID": 143 }, "geometry": { "type": "Point", "coordinates": [ 694334.062682293355465, 9196587.383353834971786 ] } },
{ "type": "Feature", "properties": { "LOKASI": "Jl. Residen Sudirman", "KECAMATAN": "Tambaksari", "KELURAHAN": "Pacar Keling", "RAYON": "Rayon Gubeng", "LUAS_GENAN": 0.704542, "TINGGI_GEN": 4.0, "LAMA_GENAN": 31.0, "SKOR_LUAS": 75.0, "SKOR_TINGG": 0.0, "SKOR_LAMA": 25.0, "ORIG_FID": 144 }, "geometry": { "type": "Point", "coordinates": [ 693647.319860988180153, 9197434.244217798113823 ] } },
{ "type": "Feature", "properties": { "LOKASI": "Kp. Ploso Baru", "KECAMATAN": "Tambaksari", "KELURAHAN": "Pacar Keling", "RAYON": "Rayon Gubeng", "LUAS_GENAN": 0.73972, "TINGGI_GEN": 4.0, "LAMA_GENAN": 75.0, "SKOR_LUAS": 75.0, "SKOR_TINGG": 0.0, "SKOR_LAMA": 50.0, "ORIG_FID": 145 }, "geometry": { "type": "Point", "coordinates": [ 695581.142494126805104, 9197419.272715132683516 ] } },
{ "type": "Feature", "properties": { "LOKASI": "Kp. Bogen", "KECAMATAN": "Tambaksari", "KELURAHAN": "Ploso", "RAYON": "Rayon Gubeng", "LUAS_GENAN": 0.170663, "TINGGI_GEN": 9.0, "LAMA_GENAN": 16.0, "SKOR_LUAS": 50.0, "SKOR_TINGG": 25.0, "SKOR_LAMA": 0.0, "ORIG_FID": 146 }, "geometry": { "type": "Point", "coordinates": [ 694053.298207940999418, 9198092.392619414255023 ] } },
{ "type": "Feature", "properties": { "LOKASI": "Jl. Salak dan Sekitarnya", "KECAMATAN": "Tambaksari", "KELURAHAN": "Ploso", "RAYON": "Rayon Gubeng", "LUAS_GENAN": 0.284249, "TINGGI_GEN": 20.0, "LAMA_GENAN": 58.0, "SKOR_LUAS": 50.0, "SKOR_TINGG": 50.0, "SKOR_LAMA": 25.0, "ORIG_FID": 147 }, "geometry": { "type": "Point", "coordinates": [ 693760.520454110810533, 9198202.257920803502202 ] } },
{ "type": "Feature", "properties": { "LOKASI": "Kp. Karang Empat", "KECAMATAN": "Tambaksari", "KELURAHAN": "Ploso", "RAYON": "Rayon Gubeng", "LUAS_GENAN": 0.581005, "TINGGI_GEN": 8.0, "LAMA_GENAN": 75.0, "SKOR_LUAS": 75.0, "SKOR_TINGG": 25.0, "SKOR_LAMA": 50.0, "ORIG_FID": 148 }, "geometry": { "type": "Point", "coordinates": [ 695519.412345821969211, 9198115.440501842647791 ] } },
{ "type": "Feature", "properties": { "LOKASI": "Kp. Karang Asem", "KECAMATAN": "Tambaksari", "KELURAHAN": "Ploso", "RAYON": "Rayon Gubeng", "LUAS_GENAN": 0.478234, "TINGGI_GEN": 4.0, "LAMA_GENAN": 31.0, "SKOR_LUAS": 50.0, "SKOR_TINGG": 0.0, "SKOR_LAMA": 25.0, "ORIG_FID": 149 }, "geometry": { "type": "Point", "coordinates": [ 695617.080242760945112, 9198307.175798116251826 ] } },
{ "type": "Feature", "properties": { "LOKASI": "Jl. Jagiran", "KECAMATAN": "Tambaksari", "KELURAHAN": "Tambaksari", "RAYON": "Rayon Gubeng", "LUAS_GENAN": 0.383234, "TINGGI_GEN": 10.0, "LAMA_GENAN": 40.0, "SKOR_LUAS": 50.0, "SKOR_TINGG": 25.0, "SKOR_LAMA": 25.0, "ORIG_FID": 150 }, "geometry": { "type": "Point", "coordinates": [ 694287.761884501553141, 9197677.883675388991833 ] } },
{ "type": "Feature", "properties": { "LOKASI": "Jl. Flores dan Sekitarnya", "KECAMATAN": "Wonokoromo", "KELURAHAN": "Ngagel", "RAYON": "Rayon Gubeng", "LUAS_GENAN": 0.896425, "TINGGI_GEN": 9.0, "LAMA_GENAN": 16.0, "SKOR_LUAS": 75.0, "SKOR_TINGG": 25.0, "SKOR_LAMA": 0.0, "ORIG_FID": 151 }, "geometry": { "type": "Point", "coordinates": [ 693017.944247491657734, 9195114.210637357085943 ] } },
{ "type": "Feature", "properties": { "LOKASI": "Gelanggang Remaja", "KECAMATAN": "Tambaksari", "KELURAHAN": "Ploso", "RAYON": "Rayon Gubeng", "LUAS_GENAN": 0.284313, "TINGGI_GEN": 9.0, "LAMA_GENAN": 16.0, "SKOR_LUAS": 50.0, "SKOR_TINGG": 25.0, "SKOR_LAMA": 0.0, "ORIG_FID": 152 }, "geometry": { "type": "Point", "coordinates": [ 693961.662532600923441, 9198146.631505031138659 ] } },
{ "type": "Feature", "properties": { "LOKASI": "Jl. Pucang Anom", "KECAMATAN": "Gubeng", "KELURAHAN": "Kertajaya", "RAYON": "Rayon Gubeng", "LUAS_GENAN": 0.674965, "TINGGI_GEN": 4.0, "LAMA_GENAN": 13.0, "SKOR_LUAS": 75.0, "SKOR_TINGG": 0.0, "SKOR_LAMA": 0.0, "ORIG_FID": 153 }, "geometry": { "type": "Point", "coordinates": [ 693856.673281585914083, 9194443.226282872259617 ] } },
{ "type": "Feature", "properties": { "LOKASI": "Jl. Mojo Kidul", "KECAMATAN": "Gubeng", "KELURAHAN": "Mojo", "RAYON": "Rayon Gubeng", "LUAS_GENAN": 0.593999, "TINGGI_GEN": 9.0, "LAMA_GENAN": 16.0, "SKOR_LUAS": 75.0, "SKOR_TINGG": 25.0, "SKOR_LAMA": 0.0, "ORIG_FID": 154 }, "geometry": { "type": "Point", "coordinates": [ 695455.924601907725446, 9196080.068897396326065 ] } },
{ "type": "Feature", "properties": { "LOKASI": "Jl. Dharmawangsa", "KECAMATAN": "Gubeng", "KELURAHAN": "Airlangga", "RAYON": "Rayon Gubeng", "LUAS_GENAN": 1.626244, "TINGGI_GEN": 10.0, "LAMA_GENAN": 16.0, "SKOR_LUAS": 100.0, "SKOR_TINGG": 25.0, "SKOR_LAMA": 0.0, "ORIG_FID": 155 }, "geometry": { "type": "Point", "coordinates": [ 693898.923243486438878, 9195716.306102005764842 ] } },
{ "type": "Feature", "properties": { "LOKASI": "Jl. Bulak Jaya", "KECAMATAN": "Semampir", "KELURAHAN": "Wonokusumo", "RAYON": "Rayon Gubeng", "LUAS_GENAN": 0.340674, "TINGGI_GEN": 9.0, "LAMA_GENAN": 16.0, "SKOR_LUAS": 50.0, "SKOR_TINGG": 25.0, "SKOR_LAMA": 0.0, "ORIG_FID": 156 }, "geometry": { "type": "Point", "coordinates": [ 694052.557703939964995, 9201981.756385860964656 ] } },
{ "type": "Feature", "properties": { "LOKASI": "Jl. Sidodadi", "KECAMATAN": "Simokerto", "KELURAHAN": "Sidodadi", "RAYON": "Rayon Gubeng", "LUAS_GENAN": 0.323497, "TINGGI_GEN": 4.0, "LAMA_GENAN": 13.0, "SKOR_LUAS": 50.0, "SKOR_TINGG": 0.0, "SKOR_LAMA": 0.0, "ORIG_FID": 157 }, "geometry": { "type": "Point", "coordinates": [ 692824.236065420205705, 9199750.865869261324406 ] } },
{ "type": "Feature", "properties": { "LOKASI": "Jl. Kapasari", "KECAMATAN": "Genteng", "KELURAHAN": "Kapasari", "RAYON": "Rayon Gubeng", "LUAS_GENAN": 0.893754, "TINGGI_GEN": 4.0, "LAMA_GENAN": 5.0, "SKOR_LUAS": 75.0, "SKOR_TINGG": 0.0, "SKOR_LAMA": 0.0, "ORIG_FID": 158 }, "geometry": { "type": "Point", "coordinates": [ 693400.173525223392062, 9198824.725346632301807 ] } },
{ "type": "Feature", "properties": { "LOKASI": "Jl. Samudera", "KECAMATAN": "Pabean Cantikan", "KELURAHAN": "Bongkaran", "RAYON": "Rayon Gubeng", "LUAS_GENAN": 0.232645, "TINGGI_GEN": 4.0, "LAMA_GENAN": 5.0, "SKOR_LUAS": 50.0, "SKOR_TINGG": 0.0, "SKOR_LAMA": 0.0, "ORIG_FID": 159 }, "geometry": { "type": "Point", "coordinates": [ 692469.146812912542373, 9199418.975862305611372 ] } },
{ "type": "Feature", "properties": { "LOKASI": "Jl. Kalimati Kulon", "KECAMATAN": "Pabean Cantikan", "KELURAHAN": "Nyamplungan", "RAYON": "Rayon Gubeng", "LUAS_GENAN": 0.270738, "TINGGI_GEN": 4.0, "LAMA_GENAN": 5.0, "SKOR_LUAS": 50.0, "SKOR_TINGG": 0.0, "SKOR_LAMA": 0.0, "ORIG_FID": 160 }, "geometry": { "type": "Point", "coordinates": [ 692155.999927319935523, 9199749.148515865206718 ] } },
{ "type": "Feature", "properties": { "LOKASI": "Jl. Gebang Putih", "KECAMATAN": "Sukolilo", "KELURAHAN": "Gebang Putih", "RAYON": "Rayon Gubeng", "LUAS_GENAN": 0.325197, "TINGGI_GEN": 9.0, "LAMA_GENAN": 13.0, "SKOR_LUAS": 50.0, "SKOR_TINGG": 25.0, "SKOR_LAMA": 0.0, "ORIG_FID": 161 }, "geometry": { "type": "Point", "coordinates": [ 697096.801138614420779, 9194436.426098978146911 ] } },
{ "type": "Feature", "properties": { "LOKASI": "Perumahan Sutorejo Selatan", "KECAMATAN": "Mulyorejo", "KELURAHAN": "Dukuh Sutorejo", "RAYON": "Rayon Gubeng", "LUAS_GENAN": 0.401893, "TINGGI_GEN": 9.0, "LAMA_GENAN": 16.0, "SKOR_LUAS": 50.0, "SKOR_TINGG": 25.0, "SKOR_LAMA": 0.0, "ORIG_FID": 162 }, "geometry": { "type": "Point", "coordinates": [ 698117.466006609029137, 9196089.842644764110446 ] } },
{ "type": "Feature", "properties": { "LOKASI": "Jl. Tenggumung Wetan", "KECAMATAN": "Semampir", "KELURAHAN": "Wonokusumo", "RAYON": "Rayon Gubeng", "LUAS_GENAN": 0.415624, "TINGGI_GEN": 4.0, "LAMA_GENAN": 5.0, "SKOR_LUAS": 50.0, "SKOR_TINGG": 0.0, "SKOR_LAMA": 0.0, "ORIG_FID": 163 }, "geometry": { "type": "Point", "coordinates": [ 694272.879945855587721, 9201496.988601205870509 ] } },
{ "type": "Feature", "properties": { "LOKASI": "Jl. Tambaksari", "KECAMATAN": "Tambaksari", "KELURAHAN": "Ploso", "RAYON": "Rayon Gubeng", "LUAS_GENAN": 0.650954, "TINGGI_GEN": 25.0, "LAMA_GENAN": 16.0, "SKOR_LUAS": 75.0, "SKOR_TINGG": 50.0, "SKOR_LAMA": 0.0, "ORIG_FID": 164 }, "geometry": { "type": "Point", "coordinates": [ 693786.09624101233203, 9198040.742747973650694 ] } },
{ "type": "Feature", "properties": { "LOKASI": "Jl. Bulak Cumpat (kampung)", "KECAMATAN": "Bulak", "KELURAHAN": "Bulak", "RAYON": "Rayon Gubeng", "LUAS_GENAN": 0.13453, "TINGGI_GEN": 9.0, "LAMA_GENAN": 5.0, "SKOR_LUAS": 50.0, "SKOR_TINGG": 25.0, "SKOR_LAMA": 0.0, "ORIG_FID": 165 }, "geometry": { "type": "Point", "coordinates": [ 696265.577578994794749, 9200188.8723019734025 ] } },
{ "type": "Feature", "properties": { "LOKASI": "Jl. Bulak Tinjang (kampung)", "KECAMATAN": "Semampir", "KELURAHAN": "Wonokusumo", "RAYON": "Rayon Gubeng", "LUAS_GENAN": 0.131661, "TINGGI_GEN": 4.0, "LAMA_GENAN": 5.0, "SKOR_LUAS": 50.0, "SKOR_TINGG": 0.0, "SKOR_LAMA": 0.0, "ORIG_FID": 166 }, "geometry": { "type": "Point", "coordinates": [ 697298.812181330984458, 9200746.039898425340652 ] } },
{ "type": "Feature", "properties": { "LOKASI": "Jl. Menur", "KECAMATAN": "Mulyorejo", "KELURAHAN": "Manyar Sabrangan", "RAYON": "Rayon Gubeng", "LUAS_GENAN": 0.218262, "TINGGI_GEN": 4.0, "LAMA_GENAN": 5.0, "SKOR_LUAS": 50.0, "SKOR_TINGG": 0.0, "SKOR_LAMA": 0.0, "ORIG_FID": 167 }, "geometry": { "type": "Point", "coordinates": [ 694577.45918183226604, 9195416.669976223260164 ] } },
{ "type": "Feature", "properties": { "LOKASI": "Jl. Kedung Tomas", "KECAMATAN": "Sukolilo", "KELURAHAN": "Menur Pumpungan", "RAYON": "Rayon Gubeng", "LUAS_GENAN": 0.185574, "TINGGI_GEN": 9.0, "LAMA_GENAN": 16.0, "SKOR_LUAS": 50.0, "SKOR_TINGG": 25.0, "SKOR_LAMA": 0.0, "ORIG_FID": 168 }, "geometry": { "type": "Point", "coordinates": [ 695307.277363508939743, 9194013.052086316049099 ] } },
{ "type": "Feature", "properties": { "LOKASI": "Jl. Ambengan (Sisi Barat SPBU)", "KECAMATAN": "Genteng", "KELURAHAN": "Ketabang", "RAYON": "Rayon Gubeng", "LUAS_GENAN": 0.440674, "TINGGI_GEN": 4.0, "LAMA_GENAN": 13.0, "SKOR_LUAS": 50.0, "SKOR_TINGG": 0.0, "SKOR_LAMA": 0.0, "ORIG_FID": 169 }, "geometry": { "type": "Point", "coordinates": [ 692674.37442922370974, 9197598.420442797243595 ] } },
{ "type": "Feature", "properties": { "LOKASI": "Jl. Biliton", "KECAMATAN": "Gubeng", "KELURAHAN": "Gubeng", "RAYON": "Rayon Gubeng", "LUAS_GENAN": 0.558512, "TINGGI_GEN": 4.0, "LAMA_GENAN": 13.0, "SKOR_LUAS": 75.0, "SKOR_TINGG": 0.0, "SKOR_LAMA": 0.0, "ORIG_FID": 170 }, "geometry": { "type": "Point", "coordinates": [ 693191.324135513859801, 9195632.545599412173033 ] } },
{ "type": "Feature", "properties": { "LOKASI": "Jl. Dharmahusada", "KECAMATAN": "Gubeng", "KELURAHAN": "Mojo", "RAYON": "Rayon Gubeng", "LUAS_GENAN": 1.218797, "TINGGI_GEN": 4.0, "LAMA_GENAN": 13.0, "SKOR_LUAS": 75.0, "SKOR_TINGG": 0.0, "SKOR_LAMA": 0.0, "ORIG_FID": 171 }, "geometry": { "type": "Point", "coordinates": [ 694879.821456802892499, 9196463.332491675391793 ] } },
{ "type": "Feature", "properties": { "LOKASI": "Jl. Pucang Adi", "KECAMATAN": "Gubeng", "KELURAHAN": "Kertajaya", "RAYON": "Rayon Gubeng", "LUAS_GENAN": 0.495194, "TINGGI_GEN": 14.0, "LAMA_GENAN": 13.0, "SKOR_LUAS": 50.0, "SKOR_TINGG": 50.0, "SKOR_LAMA": 0.0, "ORIG_FID": 172 }, "geometry": { "type": "Point", "coordinates": [ 693931.668417486245744, 9194580.697256170213223 ] } },
{ "type": "Feature", "properties": { "LOKASI": "Jl. Gubeng Masjid", "KECAMATAN": "Tambaksari", "KELURAHAN": "Pacar Keling", "RAYON": "Rayon Gubeng", "LUAS_GENAN": 0.179322, "TINGGI_GEN": 4.0, "LAMA_GENAN": 5.0, "SKOR_LUAS": 50.0, "SKOR_TINGG": 0.0, "SKOR_LAMA": 0.0, "ORIG_FID": 173 }, "geometry": { "type": "Point", "coordinates": [ 693548.065676146768965, 9196429.674294846132398 ] } },
{ "type": "Feature", "properties": { "LOKASI": "Jl. Ploso/Gresikan", "KECAMATAN": "Tambaksari", "KELURAHAN": "Ploso", "RAYON": "Rayon Gubeng", "LUAS_GENAN": 0.25874, "TINGGI_GEN": 10.0, "LAMA_GENAN": 16.0, "SKOR_LUAS": 50.0, "SKOR_TINGG": 25.0, "SKOR_LAMA": 0.0, "ORIG_FID": 174 }, "geometry": { "type": "Point", "coordinates": [ 694667.436118466896005, 9197713.286372950300574 ] } },
{ "type": "Feature", "properties": { "LOKASI": "Jl. Wonosari Lor Baru", "KECAMATAN": "Semampir", "KELURAHAN": "Wonokusumo", "RAYON": "Rayon Gubeng", "LUAS_GENAN": 0.406587, "TINGGI_GEN": 9.0, "LAMA_GENAN": 16.0, "SKOR_LUAS": 50.0, "SKOR_TINGG": 25.0, "SKOR_LAMA": 0.0, "ORIG_FID": 175 }, "geometry": { "type": "Point", "coordinates": [ 693679.824814115650952, 9201889.549666505306959 ] } },
{ "type": "Feature", "properties": { "LOKASI": "Komplek TNI AU/AL(Jl. Wiratno)", "KECAMATAN": "Bulak", "KELURAHAN": "Komplek Kenjeran", "RAYON": "Rayon Gubeng", "LUAS_GENAN": 0.260588, "TINGGI_GEN": 10.0, "LAMA_GENAN": 13.0, "SKOR_LUAS": 50.0, "SKOR_TINGG": 25.0, "SKOR_LAMA": 0.0, "ORIG_FID": 176 }, "geometry": { "type": "Point", "coordinates": [ 697935.791590100154281, 9198288.062855172902346 ] } },
{ "type": "Feature", "properties": { "LOKASI": "Jl. Kertajaya Indah", "KECAMATAN": "Mulyorejo", "KELURAHAN": "Manyar Sabrangan", "RAYON": "Rayon Gubeng", "LUAS_GENAN": 10.6, "TINGGI_GEN": 10.0, "LAMA_GENAN": 16.0, "SKOR_LUAS": 100.0, "SKOR_TINGG": 25.0, "SKOR_LAMA": 0.0, "ORIG_FID": 177 }, "geometry": { "type": "Point", "coordinates": [ 696507.076735005597584, 9194874.899953532963991 ] } },
{ "type": "Feature", "properties": { "LOKASI": "Jl. Kapasan", "KECAMATAN": "Simokerto", "KELURAHAN": "Kapasan", "RAYON": "Rayon Gubeng", "LUAS_GENAN": 0.665774, "TINGGI_GEN": 4.0, "LAMA_GENAN": 13.0, "SKOR_LUAS": 75.0, "SKOR_TINGG": 0.0, "SKOR_LAMA": 0.0, "ORIG_FID": 178 }, "geometry": { "type": "Point", "coordinates": [ 693011.681266961037181, 9199415.99266504496336 ] } },
{ "type": "Feature", "properties": { "LOKASI": "Jl. Waspada", "KECAMATAN": "Pabean Cantikan", "KELURAHAN": "Bongkaran", "RAYON": "Rayon Gubeng", "LUAS_GENAN": 0.512739, "TINGGI_GEN": 4.0, "LAMA_GENAN": 5.0, "SKOR_LUAS": 75.0, "SKOR_TINGG": 0.0, "SKOR_LAMA": 0.0, "ORIG_FID": 179 }, "geometry": { "type": "Point", "coordinates": [ 692448.905007132794708, 9199242.435656547546387 ] } },
{ "type": "Feature", "properties": { "LOKASI": "Jl. Ambengan", "KECAMATAN": "Genteng", "KELURAHAN": "Ketabang", "RAYON": "Rayon Gubeng", "LUAS_GENAN": 0.375899, "TINGGI_GEN": 3.0, "LAMA_GENAN": 16.0, "SKOR_LUAS": 50.0, "SKOR_TINGG": 0.0, "SKOR_LAMA": 0.0, "ORIG_FID": 180 }, "geometry": { "type": "Point", "coordinates": [ 693389.850911194225773, 9197571.014013033360243 ] } },
{ "type": "Feature", "properties": { "LOKASI": "Jl. Raden Saleh dan sekitarnya", "KECAMATAN": "Bubutan", "KELURAHAN": "Bubutan", "RAYON": "Rayon Genteng", "LUAS_GENAN": 0.7873, "TINGGI_GEN": 25.0, "LAMA_GENAN": 29.0, "SKOR_LUAS": 75.0, "SKOR_TINGG": 50.0, "SKOR_LAMA": 0.0, "ORIG_FID": 181 }, "geometry": { "type": "Point", "coordinates": [ 691334.967198547325097, 9198171.645224647596478 ] } },
{ "type": "Feature", "properties": { "LOKASI": "Perempatan Jalan Dupak,Jalan Demak", "KECAMATAN": "Bubutan", "KELURAHAN": "Gundih", "RAYON": "Rayon Genteng", "LUAS_GENAN": 1.063949, "TINGGI_GEN": 4.0, "LAMA_GENAN": 48.0, "SKOR_LUAS": 75.0, "SKOR_TINGG": 0.0, "SKOR_LAMA": 25.0, "ORIG_FID": 182 }, "geometry": { "type": "Point", "coordinates": [ 690015.108975708251819, 9198782.987198732793331 ] } },
{ "type": "Feature", "properties": { "LOKASI": "Jalan Raya Dupak,PGS s/d Pom Bensin", "KECAMATAN": "Bubutan", "KELURAHAN": "Gundih", "RAYON": "Rayon Genteng", "LUAS_GENAN": 1.062551, "TINGGI_GEN": 9.0, "LAMA_GENAN": 48.0, "SKOR_LUAS": 75.0, "SKOR_TINGG": 25.0, "SKOR_LAMA": 25.0, "ORIG_FID": 183 }, "geometry": { "type": "Point", "coordinates": [ 691245.903369477018714, 9198719.410124879330397 ] } },
{ "type": "Feature", "properties": { "LOKASI": "Jl. Semarang", "KECAMATAN": "Bubutan", "KELURAHAN": "Tembok Dukuh", "RAYON": "Rayon Genteng", "LUAS_GENAN": 0.483196, "TINGGI_GEN": 25.0, "LAMA_GENAN": 48.0, "SKOR_LUAS": 50.0, "SKOR_TINGG": 50.0, "SKOR_LAMA": 25.0, "ORIG_FID": 184 }, "geometry": { "type": "Point", "coordinates": [ 691368.374662554939277, 9198549.051274651661515 ] } },
{ "type": "Feature", "properties": { "LOKASI": "Jalan Pasar Krembangan", "KECAMATAN": "Krembangan", "KELURAHAN": "Krembangan Selatan", "RAYON": "Rayon Genteng", "LUAS_GENAN": 10.2, "TINGGI_GEN": 9.0, "LAMA_GENAN": 15.0, "SKOR_LUAS": 100.0, "SKOR_TINGG": 25.0, "SKOR_LAMA": 0.0, "ORIG_FID": 185 }, "geometry": { "type": "Point", "coordinates": [ 691318.622705552610569, 9199574.168651340529323 ] } },
{ "type": "Feature", "properties": { "LOKASI": "Jl. Tanjung Sadari", "KECAMATAN": "Krembangan", "KELURAHAN": "Perak Barat", "RAYON": "Rayon Genteng", "LUAS_GENAN": 0.285382, "TINGGI_GEN": 25.0, "LAMA_GENAN": 48.0, "SKOR_LUAS": 50.0, "SKOR_TINGG": 50.0, "SKOR_LAMA": 25.0, "ORIG_FID": 186 }, "geometry": { "type": "Point", "coordinates": [ 690593.064646102953702, 9201069.89297366887331 ] } },
{ "type": "Feature", "properties": { "LOKASI": "Jl. Rajawali", "KECAMATAN": "Krembangan", "KELURAHAN": "Perak Barat", "RAYON": "Rayon Genteng", "LUAS_GENAN": 0.477132, "TINGGI_GEN": 18.0, "LAMA_GENAN": 30.0, "SKOR_LUAS": 50.0, "SKOR_TINGG": 50.0, "SKOR_LAMA": 0.0, "ORIG_FID": 187 }, "geometry": { "type": "Point", "coordinates": [ 690958.700748007744551, 9200069.432198772206903 ] } },
{ "type": "Feature", "properties": { "LOKASI": "Jalan Dr. Soetomo", "KECAMATAN": "Tegalsari", "KELURAHAN": "dr soetomo", "RAYON": "Rayon Genteng", "LUAS_GENAN": 0.853354, "TINGGI_GEN": 25.0, "LAMA_GENAN": 39.0, "SKOR_LUAS": 75.0, "SKOR_TINGG": 50.0, "SKOR_LAMA": 25.0, "ORIG_FID": 188 }, "geometry": { "type": "Point", "coordinates": [ 691216.553963544894941, 9194374.11286892183125 ] } },
{ "type": "Feature", "properties": { "LOKASI": "Jl. Imam Bonjol", "KECAMATAN": "Tegalsari", "KELURAHAN": "dr soetomo", "RAYON": "Rayon Genteng", "LUAS_GENAN": 0.537663, "TINGGI_GEN": 25.0, "LAMA_GENAN": 39.0, "SKOR_LUAS": 75.0, "SKOR_TINGG": 50.0, "SKOR_LAMA": 25.0, "ORIG_FID": 189 }, "geometry": { "type": "Point", "coordinates": [ 691578.117142541683279, 9195009.091653287410736 ] } },
{ "type": "Feature", "properties": { "LOKASI": "Jl. Kartini", "KECAMATAN": "Tegalsari", "KELURAHAN": "dr soetomo", "RAYON": "Rayon Genteng", "LUAS_GENAN": 0.819624, "TINGGI_GEN": 18.0, "LAMA_GENAN": 39.0, "SKOR_LUAS": 75.0, "SKOR_TINGG": 50.0, "SKOR_LAMA": 25.0, "ORIG_FID": 190 }, "geometry": { "type": "Point", "coordinates": [ 691876.162428256473504, 9195004.787929318845272 ] } },
{ "type": "Feature", "properties": { "LOKASI": "Jl. Teuku Umar", "KECAMATAN": "Tegalsari", "KELURAHAN": "dr soetomo", "RAYON": "Rayon Genteng", "LUAS_GENAN": 0.440461, "TINGGI_GEN": 4.0, "LAMA_GENAN": 39.0, "SKOR_LUAS": 50.0, "SKOR_TINGG": 0.0, "SKOR_LAMA": 25.0, "ORIG_FID": 191 }, "geometry": { "type": "Point", "coordinates": [ 691875.755965147749521, 9195160.247709311544895 ] } },
{ "type": "Feature", "properties": { "LOKASI": "Jl. Prapanca", "KECAMATAN": "Wonokromo", "KELURAHAN": "Darmo", "RAYON": "Rayon Genteng", "LUAS_GENAN": 0.493794, "TINGGI_GEN": 10.0, "LAMA_GENAN": 39.0, "SKOR_LUAS": 50.0, "SKOR_TINGG": 25.0, "SKOR_LAMA": 25.0, "ORIG_FID": 192 }, "geometry": { "type": "Point", "coordinates": [ 691143.603360364446416, 9194595.317023748531938 ] } },
{ "type": "Feature", "properties": { "LOKASI": "Jl. Ciliwung", "KECAMATAN": "Wonokromo", "KELURAHAN": "Darmo", "RAYON": "Rayon Genteng", "LUAS_GENAN": 0.252993, "TINGGI_GEN": 18.0, "LAMA_GENAN": 15.0, "SKOR_LUAS": 50.0, "SKOR_TINGG": 50.0, "SKOR_LAMA": 0.0, "ORIG_FID": 193 }, "geometry": { "type": "Point", "coordinates": [ 691401.894698598305695, 9193276.935362264513969 ] } },
{ "type": "Feature", "properties": { "LOKASI": "Jl. Kanwa", "KECAMATAN": "Wonokromo", "KELURAHAN": "Darmo", "RAYON": "Rayon Genteng", "LUAS_GENAN": 0.147748, "TINGGI_GEN": 9.0, "LAMA_GENAN": 15.0, "SKOR_LUAS": 50.0, "SKOR_TINGG": 25.0, "SKOR_LAMA": 0.0, "ORIG_FID": 194 }, "geometry": { "type": "Point", "coordinates": [ 691172.132442149799317, 9194461.570801462978125 ] } },
{ "type": "Feature", "properties": { "LOKASI": "Jl. Jambi", "KECAMATAN": "Wonokromo", "KELURAHAN": "Darmo", "RAYON": "Rayon Genteng", "LUAS_GENAN": 0.171961, "TINGGI_GEN": 4.0, "LAMA_GENAN": 15.0, "SKOR_LUAS": 50.0, "SKOR_TINGG": 0.0, "SKOR_LAMA": 0.0, "ORIG_FID": 195 }, "geometry": { "type": "Point", "coordinates": [ 691371.066437626956031, 9193616.732539033517241 ] } },
{ "type": "Feature", "properties": { "LOKASI": "Jl. Mangkunegoro", "KECAMATAN": "Wonokromo", "KELURAHAN": "Darmo", "RAYON": "Rayon Genteng", "LUAS_GENAN": 0.235893, "TINGGI_GEN": 18.0, "LAMA_GENAN": 39.0, "SKOR_LUAS": 50.0, "SKOR_TINGG": 50.0, "SKOR_LAMA": 25.0, "ORIG_FID": 196 }, "geometry": { "type": "Point", "coordinates": [ 690940.025124053354375, 9194970.574667753651738 ] } },
{ "type": "Feature", "properties": { "LOKASI": "Jl. Demak", "KECAMATAN": "Bubutan", "KELURAHAN": "Gundih", "RAYON": "Rayon Genteng", "LUAS_GENAN": 1.828212, "TINGGI_GEN": 25.0, "LAMA_GENAN": 48.0, "SKOR_LUAS": 100.0, "SKOR_TINGG": 50.0, "SKOR_LAMA": 25.0, "ORIG_FID": 197 }, "geometry": { "type": "Point", "coordinates": [ 689981.657330986228772, 9198298.40606857649982 ] } },
{ "type": "Feature", "properties": { "LOKASI": "Jl. Ikan Duyung", "KECAMATAN": "Krembangan", "KELURAHAN": "Perak Barat", "RAYON": "Rayon Genteng", "LUAS_GENAN": 0.383856, "TINGGI_GEN": 4.0, "LAMA_GENAN": 30.0, "SKOR_LUAS": 50.0, "SKOR_TINGG": 0.0, "SKOR_LAMA": 0.0, "ORIG_FID": 198 }, "geometry": { "type": "Point", "coordinates": [ 691002.818927528336644, 9201065.640120334923267 ] } },
{ "type": "Feature", "properties": { "LOKASI": "Jalan WR Supratman", "KECAMATAN": "Tegalsari", "KELURAHAN": "dr soetomo", "RAYON": "Rayon Genteng", "LUAS_GENAN": 0.793079, "TINGGI_GEN": 25.0, "LAMA_GENAN": 39.0, "SKOR_LUAS": 75.0, "SKOR_TINGG": 50.0, "SKOR_LAMA": 25.0, "ORIG_FID": 199 }, "geometry": { "type": "Point", "coordinates": [ 691671.191457878681831, 9194914.566412819549441 ] } },
{ "type": "Feature", "properties": { "LOKASI": "Jl. Mojopahit", "KECAMATAN": "Tegalsari", "KELURAHAN": "Keputran", "RAYON": "Rayon Genteng", "LUAS_GENAN": 0.377837, "TINGGI_GEN": 9.0, "LAMA_GENAN": 15.0, "SKOR_LUAS": 50.0, "SKOR_TINGG": 25.0, "SKOR_LAMA": 0.0, "ORIG_FID": 200 }, "geometry": { "type": "Point", "coordinates": [ 692259.486762627726421, 9194682.670971957966685 ] } },
{ "type": "Feature", "properties": { "LOKASI": "Jl. Tidar", "KECAMATAN": "Sawahan", "KELURAHAN": "Petemon", "RAYON": "Rayon Genteng", "LUAS_GENAN": 1.138739, "TINGGI_GEN": 4.0, "LAMA_GENAN": 30.0, "SKOR_LUAS": 75.0, "SKOR_TINGG": 0.0, "SKOR_LAMA": 0.0, "ORIG_FID": 201 }, "geometry": { "type": "Point", "coordinates": [ 690855.356818898697384, 9197435.50746119953692 ] } },
{ "type": "Feature", "properties": { "LOKASI": "Jl. Kranggan", "KECAMATAN": "Sawahan", "KELURAHAN": "Sawahan", "RAYON": "Rayon Genteng", "LUAS_GENAN": 0.636107, "TINGGI_GEN": 9.0, "LAMA_GENAN": 15.0, "SKOR_LUAS": 75.0, "SKOR_TINGG": 25.0, "SKOR_LAMA": 0.0, "ORIG_FID": 202 }, "geometry": { "type": "Point", "coordinates": [ 691234.014406548230909, 9197581.153480377048254 ] } },
{ "type": "Feature", "properties": { "LOKASI": "Jl. Patemon Barat", "KECAMATAN": "Sawahan", "KELURAHAN": "Petemon", "RAYON": "Rayon Genteng", "LUAS_GENAN": 0.539814, "TINGGI_GEN": 9.0, "LAMA_GENAN": 48.0, "SKOR_LUAS": 75.0, "SKOR_TINGG": 25.0, "SKOR_LAMA": 25.0, "ORIG_FID": 203 }, "geometry": { "type": "Point", "coordinates": [ 689916.798061724170111, 9196280.941691294312477 ] } },
{ "type": "Feature", "properties": { "LOKASI": "Jl. Simo Kwagean", "KECAMATAN": "Sawahan", "KELURAHAN": "Petemon", "RAYON": "Rayon Genteng", "LUAS_GENAN": 0.332774, "TINGGI_GEN": 9.0, "LAMA_GENAN": 30.0, "SKOR_LUAS": 50.0, "SKOR_TINGG": 25.0, "SKOR_LAMA": 0.0, "ORIG_FID": 204 }, "geometry": { "type": "Point", "coordinates": [ 689636.855163022992201, 9196685.843092927709222 ] } },
{ "type": "Feature", "properties": { "LOKASI": "Jl. Bromo", "KECAMATAN": "Sawahan", "KELURAHAN": "Sawahan", "RAYON": "Rayon Genteng", "LUAS_GENAN": 0.292684, "TINGGI_GEN": 9.0, "LAMA_GENAN": 30.0, "SKOR_LUAS": 50.0, "SKOR_TINGG": 25.0, "SKOR_LAMA": 0.0, "ORIG_FID": 205 }, "geometry": { "type": "Point", "coordinates": [ 690512.488262129365467, 9196832.757603405043483 ] } },
{ "type": "Feature", "properties": { "LOKASI": "Jl. Kedungdoro", "KECAMATAN": "Tegalsari", "KELURAHAN": "Kedungdoro", "RAYON": "Rayon Genteng", "LUAS_GENAN": 0.740625, "TINGGI_GEN": 9.0, "LAMA_GENAN": 30.0, "SKOR_LUAS": 75.0, "SKOR_TINGG": 25.0, "SKOR_LAMA": 0.0, "ORIG_FID": 206 }, "geometry": { "type": "Point", "coordinates": [ 690962.110359573853202, 9196355.423483582213521 ] } },
{ "type": "Feature", "properties": { "LOKASI": "Jl. Kebalen Timur", "KECAMATAN": "Pabean Cantikan", "KELURAHAN": "Krembangan Utara", "RAYON": "Rayon Genteng", "LUAS_GENAN": 0.481382, "TINGGI_GEN": 10.0, "LAMA_GENAN": 30.0, "SKOR_LUAS": 50.0, "SKOR_TINGG": 25.0, "SKOR_LAMA": 0.0, "ORIG_FID": 207 }, "geometry": { "type": "Point", "coordinates": [ 691660.492573569063097, 9200824.434404589235783 ] } },
{ "type": "Feature", "properties": { "LOKASI": "Jl. Koblen dan sekitarnya", "KECAMATAN": "Bubutan", "KELURAHAN": "Bubutan", "RAYON": "Rayon Genteng", "LUAS_GENAN": 0.363654, "TINGGI_GEN": 10.0, "LAMA_GENAN": 39.0, "SKOR_LUAS": 50.0, "SKOR_TINGG": 25.0, "SKOR_LAMA": 25.0, "ORIG_FID": 208 }, "geometry": { "type": "Point", "coordinates": [ 691425.078575715073384, 9198049.633702103048563 ] } },
{ "type": "Feature", "properties": { "LOKASI": "Jl. Pawiyatan", "KECAMATAN": "Bubutan", "KELURAHAN": "Bubutan", "RAYON": "Rayon Genteng", "LUAS_GENAN": 0.837182, "TINGGI_GEN": 25.0, "LAMA_GENAN": 39.0, "SKOR_LUAS": 75.0, "SKOR_TINGG": 50.0, "SKOR_LAMA": 25.0, "ORIG_FID": 209 }, "geometry": { "type": "Point", "coordinates": [ 691246.30807547736913, 9198030.934436609968543 ] } },
{ "type": "Feature", "properties": { "LOKASI": "Jl. Johor dan sekitarnya", "KECAMATAN": "Bubutan", "KELURAHAN": "Perak Timur", "RAYON": "Rayon Genteng", "LUAS_GENAN": 1.1452, "TINGGI_GEN": 10.0, "LAMA_GENAN": 30.0, "SKOR_LUAS": 75.0, "SKOR_TINGG": 25.0, "SKOR_LAMA": 0.0, "ORIG_FID": 210 }, "geometry": { "type": "Point", "coordinates": [ 691495.755691716447473, 9201152.419206600636244 ] } },
{ "type": "Feature", "properties": { "LOKASI": "Jl. Jakarta", "KECAMATAN": "Semampir", "KELURAHAN": "Ampel", "RAYON": "Rayon Genteng", "LUAS_GENAN": 0.509306, "TINGGI_GEN": 10.0, "LAMA_GENAN": 30.0, "SKOR_LUAS": 75.0, "SKOR_TINGG": 25.0, "SKOR_LAMA": 0.0, "ORIG_FID": 211 }, "geometry": { "type": "Point", "coordinates": [ 691561.241694055614062, 9201286.292447553947568 ] } },
{ "type": "Feature", "properties": { "LOKASI": "Jl. Embong Wungu", "KECAMATAN": "Genteng", "KELURAHAN": "Embong Kaliasin", "RAYON": "Rayon Genteng", "LUAS_GENAN": 0.411011, "TINGGI_GEN": 18.0, "LAMA_GENAN": 15.0, "SKOR_LUAS": 50.0, "SKOR_TINGG": 50.0, "SKOR_LAMA": 0.0, "ORIG_FID": 212 }, "geometry": { "type": "Point", "coordinates": [ 692413.361447501927614, 9196476.705729372799397 ] } },
{ "type": "Feature", "properties": { "LOKASI": "Taman Apsari dan sekitarnya", "KECAMATAN": "Genteng", "KELURAHAN": "Embong Kaliasin", "RAYON": "Rayon Genteng", "LUAS_GENAN": 0.463462, "TINGGI_GEN": 18.0, "LAMA_GENAN": 15.0, "SKOR_LUAS": 50.0, "SKOR_TINGG": 50.0, "SKOR_LAMA": 0.0, "ORIG_FID": 213 }, "geometry": { "type": "Point", "coordinates": [ 692397.048861465416849, 9196651.084812628105283 ] } },
{ "type": "Feature", "properties": { "LOKASI": "Jl. Pacuan Kuda", "KECAMATAN": "Sawahan", "KELURAHAN": "Petemon", "RAYON": "Rayon Genteng", "LUAS_GENAN": 0.350495, "TINGGI_GEN": 4.0, "LAMA_GENAN": 30.0, "SKOR_LUAS": 50.0, "SKOR_TINGG": 0.0, "SKOR_LAMA": 0.0, "ORIG_FID": 214 }, "geometry": { "type": "Point", "coordinates": [ 689615.118037473410368, 9197421.124669322744012 ] } },
{ "type": "Feature", "properties": { "LOKASI": "Jl. Kemayoran Baru", "KECAMATAN": "Krembangan", "KELURAHAN": "Krembangan Selatan", "RAYON": "Rayon Genteng", "LUAS_GENAN": 1.03155, "TINGGI_GEN": 25.0, "LAMA_GENAN": 30.0, "SKOR_LUAS": 75.0, "SKOR_TINGG": 50.0, "SKOR_LAMA": 0.0, "ORIG_FID": 215 }, "geometry": { "type": "Point", "coordinates": [ 691114.863540413090959, 9199096.228928104043007 ] } },
{ "type": "Feature", "properties": { "LOKASI": "Jl. Kalimas Baru", "KECAMATAN": "Pabean Cantikan", "KELURAHAN": "Perak Timur", "RAYON": "Rayon Genteng", "LUAS_GENAN": 0.376611, "TINGGI_GEN": 10.0, "LAMA_GENAN": 30.0, "SKOR_LUAS": 50.0, "SKOR_TINGG": 25.0, "SKOR_LAMA": 0.0, "ORIG_FID": 216 }, "geometry": { "type": "Point", "coordinates": [ 691681.066939926706254, 9201175.515536045655608 ] } },
{ "type": "Feature", "properties": { "LOKASI": "JL. Brawijaya", "KECAMATAN": "Wonokromo", "KELURAHAN": "Sawunggaling", "RAYON": "Rayon Wiyung", "LUAS_GENAN": 0.747965, "TINGGI_GEN": 9.0, "LAMA_GENAN": 3.0, "SKOR_LUAS": 75.0, "SKOR_TINGG": 25.0, "SKOR_LAMA": 0.0, "ORIG_FID": 217 }, "geometry": { "type": "Point", "coordinates": [ 690689.72188879956957, 9193144.506274295970798 ] } },
{ "type": "Feature", "properties": { "LOKASI": "Kp. Pucang Jajar", "KECAMATAN": "Gubeng", "KELURAHAN": "Kertajaya", "RAYON": "Rayon Gubeng", "LUAS_GENAN": 1.119931, "TINGGI_GEN": 9.0, "LAMA_GENAN": 3.0, "SKOR_LUAS": 75.0, "SKOR_TINGG": 25.0, "SKOR_LAMA": 0.0, "ORIG_FID": 218 }, "geometry": { "type": "Point", "coordinates": [ 694172.401343369507231, 9194238.869967736303806 ] } },
{ "type": "Feature", "properties": { "LOKASI": "Kp. Manyar Sabrangan", "KECAMATAN": "Mulyorejo", "KELURAHAN": "Manyar Sabrangan", "RAYON": "Rayon Gubeng", "LUAS_GENAN": 0.329705, "TINGGI_GEN": 9.0, "LAMA_GENAN": 3.0, "SKOR_LUAS": 50.0, "SKOR_TINGG": 25.0, "SKOR_LAMA": 0.0, "ORIG_FID": 219 }, "geometry": { "type": "Point", "coordinates": [ 695074.732104950468056, 9194583.820817487314343 ] } },
{ "type": "Feature", "properties": { "LOKASI": "Kp. Tenggumung Wetan", "KECAMATAN": "Semampir", "KELURAHAN": "Wonokusumo", "RAYON": "Rayon Gubeng", "LUAS_GENAN": 0.42161, "TINGGI_GEN": 9.0, "LAMA_GENAN": 3.0, "SKOR_LUAS": 50.0, "SKOR_TINGG": 25.0, "SKOR_LAMA": 0.0, "ORIG_FID": 220 }, "geometry": { "type": "Point", "coordinates": [ 694057.150715516414493, 9201163.013428144156933 ] } },
{ "type": "Feature", "properties": { "LOKASI": "Jl. Tembaan", "KECAMATAN": "Bubutan", "KELURAHAN": "Bubutan", "RAYON": "Rayon Genteng", "LUAS_GENAN": 1.415229, "TINGGI_GEN": 9.0, "LAMA_GENAN": 3.0, "SKOR_LUAS": 75.0, "SKOR_TINGG": 25.0, "SKOR_LAMA": 0.0, "ORIG_FID": 221 }, "geometry": { "type": "Point", "coordinates": [ 691701.97684678947553, 9198594.646657079458237 ] } },
{ "type": "Feature", "properties": { "LOKASI": "Jl. Untung Suropati", "KECAMATAN": "Tegalsari", "KELURAHAN": "dr. soetomo", "RAYON": "Rayon Genteng", "LUAS_GENAN": 1.353338, "TINGGI_GEN": 9.0, "LAMA_GENAN": 3.0, "SKOR_LUAS": 75.0, "SKOR_TINGG": 25.0, "SKOR_LAMA": 0.0, "ORIG_FID": 222 }, "geometry": { "type": "Point", "coordinates": [ 691600.937984979012981, 9194572.515493847429752 ] } },
{ "type": "Feature", "properties": { "LOKASI": "Pasar Krembangan dan sekitarnya", "KECAMATAN": "KREMBANGAN", "KELURAHAN": "KREMBANGAN SELATAN", "RAYON": "Rayon Genteng", "LUAS_GENAN": 0.768931, "TINGGI_GEN": 9.0, "LAMA_GENAN": 3.0, "SKOR_LUAS": 75.0, "SKOR_TINGG": 25.0, "SKOR_LAMA": 0.0, "ORIG_FID": 223 }, "geometry": { "type": "Point", "coordinates": [ 691238.688743083737791, 9199605.466112967580557 ] } },
{ "type": "Feature", "properties": { "LOKASI": "Simokatrungan", "KECAMATAN": "Sawahan", "KELURAHAN": "Banyuurip", "RAYON": "Rayon Tandes", "LUAS_GENAN": 1.144456, "TINGGI_GEN": 9.0, "LAMA_GENAN": 3.0, "SKOR_LUAS": 75.0, "SKOR_TINGG": 25.0, "SKOR_LAMA": 0.0, "ORIG_FID": 224 }, "geometry": { "type": "Point", "coordinates": [ 689266.655308886896819, 9196618.31281398050487 ] } },
{ "type": "Feature", "properties": { "LOKASI": "Jl. Patemon Gg IV", "KECAMATAN": "SAWAHAN", "KELURAHAN": "PETEMON", "RAYON": "Rayon Genteng", "LUAS_GENAN": 1.18916, "TINGGI_GEN": 9.0, "LAMA_GENAN": 3.0, "SKOR_LUAS": 75.0, "SKOR_TINGG": 25.0, "SKOR_LAMA": 0.0, "ORIG_FID": 225 }, "geometry": { "type": "Point", "coordinates": [ 689694.995146310073324, 9196504.780386844649911 ] } },
{ "type": "Feature", "properties": { "LOKASI": "Jl. Patemon Gg III", "KECAMATAN": "SAWAHAN", "KELURAHAN": "PETEMON", "RAYON": "Rayon Genteng", "LUAS_GENAN": 1.740933, "TINGGI_GEN": 9.0, "LAMA_GENAN": 3.0, "SKOR_LUAS": 100.0, "SKOR_TINGG": 25.0, "SKOR_LAMA": 0.0, "ORIG_FID": 226 }, "geometry": { "type": "Point", "coordinates": [ 689741.26663808489684, 9196671.159746853634715 ] } },
{ "type": "Feature", "properties": { "LOKASI": "Ketintang Baru (Timur Rel)", "KECAMATAN": "Gayungan", "KELURAHAN": "Dukuh Menanggal", "RAYON": "Rayon Jambangan", "LUAS_GENAN": 2.071641, "TINGGI_GEN": 9.0, "LAMA_GENAN": 3.0, "SKOR_LUAS": 100.0, "SKOR_TINGG": 25.0, "SKOR_LAMA": 0.0, "ORIG_FID": 227 }, "geometry": { "type": "Point", "coordinates": [ 690898.876165489898995, 9191003.482896745204926 ] } },
{ "type": "Feature", "properties": { "LOKASI": "Ketintang Baru (Barat Jl. A Yani)", "KECAMATAN": "Gayungan", "KELURAHAN": "Dukuh Menanggal", "RAYON": "Rayon Jambangan", "LUAS_GENAN": 2.906881, "TINGGI_GEN": 9.0, "LAMA_GENAN": 3.0, "SKOR_LUAS": 100.0, "SKOR_TINGG": 25.0, "SKOR_LAMA": 0.0, "ORIG_FID": 228 }, "geometry": { "type": "Point", "coordinates": [ 691221.729911510250531, 9191124.698220163583755 ] } },
{ "type": "Feature", "properties": { "LOKASI": "Jl. Lidah Wetan 1 dan sekitarnya", "KECAMATAN": "LAKARSANTRI", "KELURAHAN": "LIDAH WETAN", "RAYON": "Rayon Wiyung", "LUAS_GENAN": 8.6, "TINGGI_GEN": 9.0, "LAMA_GENAN": 3.0, "SKOR_LUAS": 100.0, "SKOR_TINGG": 25.0, "SKOR_LAMA": 0.0, "ORIG_FID": 229 }, "geometry": { "type": "Point", "coordinates": [ 683735.51981557928957, 9192055.982119323685765 ] } },
{ "type": "Feature", "properties": { "LOKASI": "JL. Raya Lidah Wetan", "KECAMATAN": "LAKARSANTRI", "KELURAHAN": "LIDAH WETAN", "RAYON": "Rayon Wiyung", "LUAS_GENAN": 0.517799, "TINGGI_GEN": 9.0, "LAMA_GENAN": 3.0, "SKOR_LUAS": 75.0, "SKOR_TINGG": 25.0, "SKOR_LAMA": 0.0, "ORIG_FID": 230 }, "geometry": { "type": "Point", "coordinates": [ 683702.363456318038516, 9192017.42985126003623 ] } },
{ "type": "Feature", "properties": { "LOKASI": "Griya babatan Mukti dan Sekitarnya", "KECAMATAN": "WIYUNG", "KELURAHAN": "BABATAN", "RAYON": "Rayon Wiyung", "LUAS_GENAN": 8.1, "TINGGI_GEN": 9.0, "LAMA_GENAN": 3.0, "SKOR_LUAS": 100.0, "SKOR_TINGG": 25.0, "SKOR_LAMA": 0.0, "ORIG_FID": 231 }, "geometry": { "type": "Point", "coordinates": [ 685177.325417300569825, 9191280.455364961177111 ] } },
{ "type": "Feature", "properties": { "LOKASI": "Jl. Kesatrian", "KECAMATAN": "WONOKROMO", "KELURAHAN": "SAWUNGGALING", "RAYON": "Rayon Wiyung", "LUAS_GENAN": 0.739912, "TINGGI_GEN": 9.0, "LAMA_GENAN": 3.0, "SKOR_LUAS": 75.0, "SKOR_TINGG": 25.0, "SKOR_LAMA": 0.0, "ORIG_FID": 232 }, "geometry": { "type": "Point", "coordinates": [ 690420.741578669752926, 9192952.47956177406013 ] } },
{ "type": "Feature", "properties": { "LOKASI": "Jl. Cisadane", "KECAMATAN": "WONOKROMO", "KELURAHAN": "DARMO", "RAYON": "Rayon Genteng", "LUAS_GENAN": 0.579843, "TINGGI_GEN": 9.0, "LAMA_GENAN": 3.0, "SKOR_LUAS": 75.0, "SKOR_TINGG": 25.0, "SKOR_LAMA": 0.0, "ORIG_FID": 233 }, "geometry": { "type": "Point", "coordinates": [ 691311.663842925103381, 9193583.277244504541159 ] } },
{ "type": "Feature", "properties": { "LOKASI": "Jl. Embong Gayam", "KECAMATAN": "GENTENG", "KELURAHAN": "EMBONG KALIASIN", "RAYON": "Rayon Genteng", "LUAS_GENAN": 0.325076, "TINGGI_GEN": 9.0, "LAMA_GENAN": 3.0, "SKOR_LUAS": 50.0, "SKOR_TINGG": 25.0, "SKOR_LAMA": 0.0, "ORIG_FID": 234 }, "geometry": { "type": "Point", "coordinates": [ 692403.096864562248811, 9196215.761385990306735 ] } },
{ "type": "Feature", "properties": { "LOKASI": "Jl. Keputih I", "KECAMATAN": "Sukolilo", "KELURAHAN": "Keputih", "RAYON": "Rayon Jambangan", "LUAS_GENAN": 0.324674, "TINGGI_GEN": 9.0, "LAMA_GENAN": 3.0, "SKOR_LUAS": 50.0, "SKOR_TINGG": 25.0, "SKOR_LAMA": 0.0, "ORIG_FID": 235 }, "geometry": { "type": "Point", "coordinates": [ 698475.794499159208499, 9193982.55180049687624 ] } },
{ "type": "Feature", "properties": { "LOKASI": "Kp. Kejawan Putih Tambak", "KECAMATAN": "MULYOREJO", "KELURAHAN": "KEJAWAN PUTIH TAMBAK", "RAYON": "Rayon Gubeng", "LUAS_GENAN": 1.189222, "TINGGI_GEN": 9.0, "LAMA_GENAN": 3.0, "SKOR_LUAS": 75.0, "SKOR_TINGG": 25.0, "SKOR_LAMA": 0.0, "ORIG_FID": 236 }, "geometry": { "type": "Point", "coordinates": [ 698995.358293259865604, 9194933.508873548358679 ] } },
{ "type": "Feature", "properties": { "LOKASI": "Jl. Arif Rahman Hakim", "KECAMATAN": "SUKOLILO", "KELURAHAN": "KLAMPIS NGASEM", "RAYON": "Rayon Gubeng", "LUAS_GENAN": 1.130102, "TINGGI_GEN": 9.0, "LAMA_GENAN": 3.0, "SKOR_LUAS": 75.0, "SKOR_TINGG": 25.0, "SKOR_LAMA": 0.0, "ORIG_FID": 237 }, "geometry": { "type": "Point", "coordinates": [ 697169.01067506428808, 9193803.90169552154839 ] } },
{ "type": "Feature", "properties": { "LOKASI": "Jl. Dharmahusada Indah", "KECAMATAN": "GUBENG", "KELURAHAN": "MOJO", "RAYON": "Rayon Gubeng", "LUAS_GENAN": 0.200037, "TINGGI_GEN": 9.0, "LAMA_GENAN": 3.0, "SKOR_LUAS": 50.0, "SKOR_TINGG": 25.0, "SKOR_LAMA": 0.0, "ORIG_FID": 238 }, "geometry": { "type": "Point", "coordinates": [ 695852.483044877881184, 9196129.18112226575613 ] } },
{ "type": "Feature", "properties": { "LOKASI": "Jl. Kanwa", "KECAMATAN": "WONOKROMO", "KELURAHAN": "DARMO", "RAYON": "Rayon Genteng", "LUAS_GENAN": 0.334177, "TINGGI_GEN": 9.0, "LAMA_GENAN": 3.0, "SKOR_LUAS": 50.0, "SKOR_TINGG": 25.0, "SKOR_LAMA": 0.0, "ORIG_FID": 239 }, "geometry": { "type": "Point", "coordinates": [ 691075.830486677354202, 9194576.427371587604284 ] } },
{ "type": "Feature", "properties": { "LOKASI": "Per. Rungkut Harapan", "KECAMATAN": "Rungkut", "KELURAHAN": "Rungkut Kidul", "RAYON": "Rayon Jambangan", "LUAS_GENAN": 0.851371, "TINGGI_GEN": 9.0, "LAMA_GENAN": 3.0, "SKOR_LUAS": 75.0, "SKOR_TINGG": 25.0, "SKOR_LAMA": 0.0, "ORIG_FID": 240 }, "geometry": { "type": "Point", "coordinates": [ 696286.546717609278858, 9190060.423755405470729 ] } },
{ "type": "Feature", "properties": { "LOKASI": "TANJUNGSARI I", "KECAMATAN": "SUKOMANUNGGAL", "KELURAHAN": "TANJUNGSARI", "RAYON": "Rayon Tandes", "LUAS_GENAN": 19.98, "TINGGI_GEN": 9.0, "LAMA_GENAN": 15.0, "SKOR_LUAS": 100.0, "SKOR_TINGG": 25.0, "SKOR_LAMA": 0.0, "ORIG_FID": 241 }, "geometry": { "type": "Point", "coordinates": [ 686842.225711810169742, 9196796.718410218134522 ] } },
{ "type": "Feature", "properties": { "LOKASI": "Jl. Karangrejo", "KECAMATAN": "Wonokromo", "KELURAHAN": "Wonokromo", "RAYON": "Rayon Jambangan", "LUAS_GENAN": 15.83, "TINGGI_GEN": 9.0, "LAMA_GENAN": 20.0, "SKOR_LUAS": 100.0, "SKOR_TINGG": 25.0, "SKOR_LAMA": 0.0, "ORIG_FID": 242 }, "geometry": { "type": "Point", "coordinates": [ 691145.455174968461506, 9192267.475632967427373 ] } },
{ "type": "Feature", "properties": { "LOKASI": "Kp. Tambakdono", "KECAMATAN": "Benowo", "KELURAHAN": "Tambakdono", "RAYON": "Rayon Tandes", "LUAS_GENAN": 16.41, "TINGGI_GEN": 4.0, "LAMA_GENAN": 15.0, "SKOR_LUAS": 100.0, "SKOR_TINGG": 0.0, "SKOR_LAMA": 0.0, "ORIG_FID": 243 }, "geometry": { "type": "Point", "coordinates": [ 677507.806708521908149, 9202211.475902812555432 ] } }
]
}
