{
"type": "FeatureCollection",
"name": "CH_2022",
"crs": { "type": "name", "properties": { "name": "urn:ogc:def:crs:OGC:1.3:CRS84" } },
"features": [
{ "type": "Feature", "properties": { "FID": 0, "OBJECTID": 1, "Id": 1, "gridcode": 4, "Shape_Leng": 0.0142490633719, "Shape_Area": 1.1730487547199999e-05 }, "geometry": { "type": "Polygon", "coordinates": [ [ [ 112.718644562919962, -7.202788423039976 ], [ 112.718865793364671, -7.202351107044649 ], [ 112.721057518235398, -7.201908646155289 ], [ 112.721937295120142, -7.201471330159961 ], [ 112.720351230796041, -7.199106119612281 ], [ 112.717448817189847, -7.198568169187638 ], [ 112.717804377602988, -7.200154237279946 ], [ 112.717582926088539, -7.20114205694 ], [ 112.717825178248972, -7.202222690689837 ], [ 112.718644562919962, -7.202788423039976 ] ] ] } },
{ "type": "Feature", "properties": { "FID": 1, "OBJECTID": 2, "Id": 2, "gridcode": 4, "Shape_Leng": 0.0037266198795700002, "Shape_Area": 5.9215099397800004e-07 }, "geometry": { "type": "Polygon", "coordinates": [ [ [ 112.784499206920032, -7.217276444719914 ], [ 112.78423543061308, -7.215779875928547 ], [ 112.783643305559281, -7.216910174988755 ], [ 112.784499206920032, -7.217276444719914 ] ] ] } },
{ "type": "Feature", "properties": { "FID": 2, "OBJECTID": 3, "Id": 3, "gridcode": 4, "Shape_Leng": 0.0026341857601399998, "Shape_Area": 4.3368341368400001e-07 }, "geometry": { "type": "Polygon", "coordinates": [ [ [ 112.785157753360181, -7.217934991159893 ], [ 112.785157753360181, -7.217276444719914 ], [ 112.784499206920032, -7.217276444719914 ], [ 112.784499206920032, -7.217934991159893 ], [ 112.785157753360181, -7.217934991159893 ] ] ] } },
{ "type": "Feature", "properties": { "FID": 3, "OBJECTID": 4, "Id": 4, "gridcode": 4, "Shape_Leng": 0.0026341857598000001, "Shape_Area": 4.3368341357200002e-07 }, "geometry": { "type": "Polygon", "coordinates": [ [ [ 112.78581629979999, -7.218593537599929 ], [ 112.78581629979999, -7.217934991159893 ], [ 112.785157753360181, -7.217934991159893 ], [ 112.785157753360181, -7.218593537599929 ], [ 112.78581629979999, -7.218593537599929 ] ] ] } },
{ "type": "Feature", "properties": { "FID": 4, "OBJECTID": 5, "Id": 5, "gridcode": 4, "Shape_Leng": 0.214272298926, "Shape_Area": 0.0013085412247300001 }, "geometry": { "type": "Polygon", "coordinates": [ [ [ 112.732474038160035, -7.204105515919991 ], [ 112.733486346310201, -7.204410299393999 ], [ 112.739370075296051, -7.206692616353052 ], [ 112.742464588393887, -7.205556221548022 ], [ 112.744654223151315, -7.207108757391381 ], [ 112.747042288032048, -7.205776371765921 ], [ 112.751037288222847, -7.210615349372347 ], [ 112.7532672279998, -7.215910372347992 ], [ 112.755690463054748, -7.224812872949485 ], [ 112.757282466113907, -7.225523252689868 ], [ 112.759387390994561, -7.230240502554977 ], [ 112.764323263686947, -7.235969583260555 ], [ 112.771311717992376, -7.239071843845409 ], [ 112.775101877039788, -7.239376387408583 ], [ 112.781657456840207, -7.238518642125882 ], [ 112.786130560380002, -7.236522659372213 ], [ 112.790668155970707, -7.23301230418258 ], [ 112.792047992441553, -7.23141070469012 ], [ 112.794377403520116, -7.23110591995993 ], [ 112.794090515384255, -7.230734251607032 ], [ 112.792688652335755, -7.230160495432926 ], [ 112.791471121194718, -7.227185678998751 ], [ 112.788502436931708, -7.225410160482454 ], [ 112.787420341107577, -7.219040206349462 ], [ 112.78581629979999, -7.218593537599929 ], [ 112.787438167361643, -7.221192035681725 ], [ 112.785874521511346, -7.222191054530072 ], [ 112.778948971575119, -7.219842046128065 ], [ 112.778874189735916, -7.218911506121117 ], [ 112.779956345851929, -7.213950230514001 ], [ 112.778866231227767, -7.213011036132173 ], [ 112.780067724769424, -7.208620944252289 ], [ 112.775119502321445, -7.207496796204282 ], [ 112.774316235638594, -7.203093206513984 ], [ 112.772950145681534, -7.202483639565969 ], [ 112.771677447610159, -7.201006403693668 ], [ 112.764567867224741, -7.195965458849514 ], [ 112.760271900779799, -7.195620272067629 ], [ 112.757803587610283, -7.197166288554001 ], [ 112.754118597432353, -7.199779077659173 ], [ 112.75201572247056, -7.19994804648104 ], [ 112.74968048319181, -7.198292281152021 ], [ 112.746222260248828, -7.196749154900374 ], [ 112.748583937450121, -7.194714457635371 ], [ 112.747545703857554, -7.194403866058281 ], [ 112.74432787408, -7.194662422420492 ], [ 112.742470306059317, -7.194513164911257 ], [ 112.73612053206989, -7.195898175165951 ], [ 112.722949603269853, -7.198154960462716 ], [ 112.724516967109935, -7.199435372106961 ], [ 112.732120276450132, -7.198824438546524 ], [ 112.73151070698998, -7.199849453805939 ], [ 112.730262165803993, -7.200925134213605 ], [ 112.732169253429902, -7.201776113633969 ], [ 112.732474038160035, -7.204105515919991 ] ] ] } },
{ "type": "Feature", "properties": { "FID": 5, "OBJECTID": 6, "Id": 6, "gridcode": 5, "Shape_Leng": 0.32605394924499997, "Shape_Area": 0.0027138399160100001 }, "geometry": { "type": "Polygon", "coordinates": [ [ [ 112.614594225399969, -7.250862313159985 ], [ 112.617068256235029, -7.24976405915271 ], [ 112.62482618371007, -7.248581889109857 ], [ 112.625435753170223, -7.247874365690109 ], [ 112.632078660513343, -7.246662622554936 ], [ 112.631966048127424, -7.245261116232371 ], [ 112.635362926749963, -7.24397206402989 ], [ 112.639089186615024, -7.242402790951814 ], [ 112.645837217609142, -7.237118035154936 ], [ 112.650187215490291, -7.232068982329452 ], [ 112.653753250090176, -7.227459426050075 ], [ 112.65887731336079, -7.221718791942351 ], [ 112.662526857027274, -7.220264392189904 ], [ 112.664594777860316, -7.224898708271894 ], [ 112.66604789892574, -7.227503172722493 ], [ 112.670384597456632, -7.231239441014395 ], [ 112.674715251741986, -7.232069251130042 ], [ 112.679719510326436, -7.229277196506473 ], [ 112.681412200570207, -7.225483786730024 ], [ 112.682119723989899, -7.224874217269871 ], [ 112.682424508720032, -7.224520455560025 ], [ 112.680095559878055, -7.223151283188258 ], [ 112.680184349495107, -7.220911003380024 ], [ 112.677724386729778, -7.221670028495737 ], [ 112.676609190747286, -7.224033019554213 ], [ 112.668554110470154, -7.220231495516146 ], [ 112.667619769572184, -7.218251711139885 ], [ 112.664960472307826, -7.213666992540027 ], [ 112.662084823204282, -7.208558502120013 ], [ 112.660081288912011, -7.207612951985197 ], [ 112.661150346650174, -7.200901979678179 ], [ 112.663657271646684, -7.198579190012936 ], [ 112.664309160875291, -7.19516470840432 ], [ 112.665259418789105, -7.197178225059929 ], [ 112.666277565187897, -7.195501796939425 ], [ 112.665321976480413, -7.19207001027047 ], [ 112.660075832510643, -7.193730946478752 ], [ 112.659058665852172, -7.195886238974083 ], [ 112.653106636387861, -7.19651967830589 ], [ 112.646885283777578, -7.197821311696202 ], [ 112.639130596983136, -7.198749269835446 ], [ 112.632469451392467, -7.200335943985294 ], [ 112.628190949451096, -7.202002016687572 ], [ 112.614905393516779, -7.209032060979951 ], [ 112.610301120299937, -7.208398621020024 ], [ 112.597935835309841, -7.202581942715199 ], [ 112.592549565672243, -7.202368452220981 ], [ 112.592365651724322, -7.207008512346135 ], [ 112.594186735870608, -7.207867957101882 ], [ 112.597826640083099, -7.212340515503911 ], [ 112.594521112534039, -7.214765045574779 ], [ 112.596866888734326, -7.21661245192729 ], [ 112.598173264759794, -7.215202514811494 ], [ 112.601081470140116, -7.216575018301114 ], [ 112.600448030180132, -7.217618271180072 ], [ 112.597778751494729, -7.219341963932379 ], [ 112.597837846179914, -7.220832895447359 ], [ 112.596834812279553, -7.221915440947271 ], [ 112.593563619927181, -7.214984085420042 ], [ 112.592047422567134, -7.216861773292578 ], [ 112.591783675228498, -7.223515990358919 ], [ 112.592862192880034, -7.223558737193628 ], [ 112.596908266444302, -7.22339836622325 ], [ 112.597788737939936, -7.226179374900028 ], [ 112.598498528579967, -7.226837032037054 ], [ 112.59839520112007, -7.229443940814804 ], [ 112.599118384060148, -7.229472604506725 ], [ 112.599788594437086, -7.229446040976597 ], [ 112.600422923699966, -7.230130653539959 ], [ 112.602788125455163, -7.231246889554882 ], [ 112.604450624616447, -7.232787277871239 ], [ 112.604250074234301, -7.237847037502604 ], [ 112.605032748780218, -7.238691759772223 ], [ 112.607008388100098, -7.240522286953251 ], [ 112.605480678631466, -7.242251267792483 ], [ 112.603232858589195, -7.244333985220237 ], [ 112.602003627084741, -7.246657020448595 ], [ 112.605559542723086, -7.248538629795519 ], [ 112.606362394899975, -7.248570453778882 ], [ 112.614238340918973, -7.248258278287892 ], [ 112.614594225399969, -7.250862313159985 ] ], [ [ 112.663985208400163, -7.194227319319964 ], [ 112.663182293419027, -7.194001879602069 ], [ 112.663759767583201, -7.193424404024938 ], [ 112.663985208400163, -7.194227319319964 ] ] ] } },
{ "type": "Feature", "properties": { "FID": 6, "OBJECTID": 7, "Id": 7, "gridcode": 4, "Shape_Leng": 0.22296373649199999, "Shape_Area": 0.0015716736544099999 }, "geometry": { "type": "Polygon", "coordinates": [ [ [ 112.63237497928003, -7.26205760263997 ], [ 112.640060883262436, -7.263913135814903 ], [ 112.644235537727582, -7.263664316880693 ], [ 112.649619955749813, -7.260738379452221 ], [ 112.650466486771279, -7.257099984731099 ], [ 112.651538634460621, -7.256142024549035 ], [ 112.658266146169808, -7.252225267947153 ], [ 112.664999782513974, -7.24963668785449 ], [ 112.675085734357594, -7.247754143985787 ], [ 112.676149797931203, -7.246563241691035 ], [ 112.682985754360743, -7.244680175294036 ], [ 112.689367000631819, -7.241212551866056 ], [ 112.694589098251072, -7.23536795221105 ], [ 112.695943230348917, -7.2347464449889 ], [ 112.697482588681623, -7.232326051181758 ], [ 112.700267272641668, -7.225082278996467 ], [ 112.700863809040129, -7.221886269799995 ], [ 112.697840048284206, -7.222155243756163 ], [ 112.694192127470046, -7.223808571038603 ], [ 112.692302705320117, -7.2233850040692 ], [ 112.690985612440045, -7.223680267730742 ], [ 112.688761108967014, -7.223181584805673 ], [ 112.685532687942782, -7.225283889508262 ], [ 112.682424508720032, -7.224520455560025 ], [ 112.682119723989899, -7.224874217269871 ], [ 112.681412200570207, -7.225483786730024 ], [ 112.679719510326436, -7.229277196506473 ], [ 112.674715251741986, -7.232069251130042 ], [ 112.670384597456632, -7.231239441014395 ], [ 112.66604789892574, -7.227503172722493 ], [ 112.664594777860316, -7.224898708271894 ], [ 112.662526857027274, -7.220264392189904 ], [ 112.65887731336079, -7.221718791942351 ], [ 112.653753250090176, -7.227459426050075 ], [ 112.650187215490291, -7.232068982329452 ], [ 112.645837217609142, -7.237118035154936 ], [ 112.639089186615024, -7.242402790951814 ], [ 112.635362926749963, -7.24397206402989 ], [ 112.631966048127424, -7.245261116232371 ], [ 112.632078660513343, -7.246662622554936 ], [ 112.625435753170223, -7.247874365690109 ], [ 112.62482618371007, -7.248581889109857 ], [ 112.617068256235029, -7.24976405915271 ], [ 112.614594225399969, -7.250862313159985 ], [ 112.614918657696762, -7.252027385473923 ], [ 112.617978962775851, -7.253279900889652 ], [ 112.617395057494377, -7.25723117952964 ], [ 112.620935204333705, -7.258680080174202 ], [ 112.622891472424158, -7.2598601148851 ], [ 112.626662863159481, -7.261342728653744 ], [ 112.629551588031404, -7.259600232418904 ], [ 112.631429554752913, -7.260368841407114 ], [ 112.63237497928003, -7.26205760263997 ] ] ] } },
{ "type": "Feature", "properties": { "FID": 7, "OBJECTID": 8, "Id": 8, "gridcode": 1, "Shape_Leng": 0.038310403042700003, "Shape_Area": 0.000111245882302 }, "geometry": { "type": "Polygon", "coordinates": [ [ [ 112.82730472551998, -7.330546432399956 ], [ 112.827591613655841, -7.330174764047058 ], [ 112.830040924882724, -7.328284196354275 ], [ 112.831455790847031, -7.324827249586406 ], [ 112.82976722053786, -7.320531956399066 ], [ 112.825099816858483, -7.318405718392853 ], [ 112.821266549225925, -7.319912659873523 ], [ 112.819115280104256, -7.323084205701605 ], [ 112.819874071589538, -7.328218880316342 ], [ 112.82247423271815, -7.330225871334619 ], [ 112.82730472551998, -7.330546432399956 ] ] ] } },
{ "type": "Feature", "properties": { "FID": 8, "OBJECTID": 9, "Id": 9, "gridcode": 1, "Shape_Leng": 0.29060647007700002, "Shape_Area": 0.0047521476342600004 }, "geometry": { "type": "Polygon", "coordinates": [ [ [ 112.728522759520047, -7.339766082560004 ], [ 112.728833513131235, -7.339418289731043 ], [ 112.733346248432895, -7.338024787135396 ], [ 112.739173554410968, -7.334858175180273 ], [ 112.743321534811116, -7.329540093131072 ], [ 112.744675666908961, -7.328918585908923 ], [ 112.745965045691605, -7.326891246432695 ], [ 112.749248452771099, -7.317686257211108 ], [ 112.750941122917766, -7.315263012107664 ], [ 112.753258214386847, -7.30923557778965 ], [ 112.756794967304245, -7.304172328774541 ], [ 112.762480085291827, -7.300862453626735 ], [ 112.771216175701852, -7.299501106618891 ], [ 112.780371434296967, -7.297049052118439 ], [ 112.785900647926496, -7.294044433985846 ], [ 112.790411715157234, -7.288995624839458 ], [ 112.792239177508804, -7.285013929023023 ], [ 112.793856523190698, -7.278062604373247 ], [ 112.79265695898448, -7.271312372731074 ], [ 112.790107141448175, -7.266620118811261 ], [ 112.785428262243386, -7.262439580878265 ], [ 112.778613950543559, -7.259819985716263 ], [ 112.768346992885995, -7.260431921626719 ], [ 112.756998783488598, -7.263988173893779 ], [ 112.75129453292584, -7.263648188843604 ], [ 112.740517266088546, -7.257555378196002 ], [ 112.736437566069299, -7.255682928167175 ], [ 112.733639155692799, -7.25584972020647 ], [ 112.72756237259614, -7.254925347540848 ], [ 112.722060953452797, -7.255253249124053 ], [ 112.715508870572421, -7.257193512272977 ], [ 112.714382530669013, -7.25845411682883 ], [ 112.710184889982543, -7.261500481958251 ], [ 112.706844467026372, -7.266103318222179 ], [ 112.70463741800836, -7.270912050734808 ], [ 112.703731524757245, -7.281524766375526 ], [ 112.703911003180679, -7.284536036695272 ], [ 112.707823514239976, -7.29173598433124 ], [ 112.710431252028911, -7.295954224691059 ], [ 112.712777172992105, -7.299983631360988 ], [ 112.713960659404506, -7.305070253469125 ], [ 112.712313358782694, -7.310632999347661 ], [ 112.711052759251061, -7.311759339251125 ], [ 112.709988610264418, -7.315205483751186 ], [ 112.709114159148953, -7.321505044780395 ], [ 112.711254626002869, -7.329496974497488 ], [ 112.714274146240655, -7.334381297763173 ], [ 112.719369038363766, -7.337621616354909 ], [ 112.72426072726887, -7.338759743291064 ], [ 112.726857873811127, -7.339455328948873 ], [ 112.728522759520047, -7.339766082560004 ] ] ] } },
{ "type": "Feature", "properties": { "FID": 9, "OBJECTID": 10, "Id": 10, "gridcode": 3, "Shape_Leng": 0.65962411772200003, "Shape_Area": 0.0057939351957700001 }, "geometry": { "type": "Polygon", "coordinates": [ [ [ 112.692302705320117, -7.344375907639972 ], [ 112.695772293253526, -7.343331293172866 ], [ 112.700510047330226, -7.339412320850101 ], [ 112.702930770229841, -7.337896104492017 ], [ 112.704156541240081, -7.336473350359995 ], [ 112.700011153384139, -7.330838324749095 ], [ 112.698539140910839, -7.323651450369312 ], [ 112.696767458455497, -7.314576108458596 ], [ 112.695289949386392, -7.313156539739396 ], [ 112.691229904470561, -7.305802808004387 ], [ 112.687160353558966, -7.301567153383928 ], [ 112.6840606955667, -7.299269395462204 ], [ 112.684850878944758, -7.296960805126901 ], [ 112.68006464027053, -7.294638769736252 ], [ 112.677559448661214, -7.292031323357435 ], [ 112.672317273896738, -7.290753379905652 ], [ 112.665696121818542, -7.286822891862982 ], [ 112.662450065463986, -7.282544982790341 ], [ 112.661031200148273, -7.277008614542467 ], [ 112.66100424472188, -7.275687798648278 ], [ 112.661934450612193, -7.270922863051283 ], [ 112.664886971667897, -7.266419523210232 ], [ 112.669147391115416, -7.262980392647762 ], [ 112.674004990072945, -7.260477989530614 ], [ 112.689986618713192, -7.259695669198891 ], [ 112.697801240509079, -7.252821161233953 ], [ 112.701186500413087, -7.250526453068801 ], [ 112.703175303427088, -7.24988108037121 ], [ 112.709615726028233, -7.245829586831803 ], [ 112.715472564903962, -7.24351951934915 ], [ 112.716795676908077, -7.242142401030321 ], [ 112.726882975267017, -7.241319976651198 ], [ 112.735147152278728, -7.240475339794841 ], [ 112.739317882757405, -7.242623895788768 ], [ 112.740712450506862, -7.241978523091177 ], [ 112.742764218181378, -7.240921553844316 ], [ 112.745980822027036, -7.241965349348789 ], [ 112.762063368970075, -7.247740342204622 ], [ 112.770606485658163, -7.248988762807187 ], [ 112.792665841965572, -7.248538569503751 ], [ 112.796677130971489, -7.249222775098133 ], [ 112.798657955380122, -7.249182349494845 ], [ 112.800638558718902, -7.2492227700738 ], [ 112.802938507240128, -7.248886673839934 ], [ 112.802557724787789, -7.2479180822167 ], [ 112.802662873560166, -7.247206594615761 ], [ 112.801897048040018, -7.246615474424118 ], [ 112.802047998427838, -7.245593941639981 ], [ 112.801902032156022, -7.244606121979871 ], [ 112.801999343004127, -7.243947575540005 ], [ 112.801772646109271, -7.242413497757752 ], [ 112.799937486513954, -7.242684689947168 ], [ 112.799269012036234, -7.241051387054711 ], [ 112.797092581167135, -7.239371463584121 ], [ 112.797474850815433, -7.236784707316303 ], [ 112.795046782373674, -7.233509751127201 ], [ 112.794377403520116, -7.23110591995993 ], [ 112.792047992441553, -7.23141070469012 ], [ 112.790668155970707, -7.23301230418258 ], [ 112.786130560380002, -7.236522659372213 ], [ 112.781657456840207, -7.238518642125882 ], [ 112.775101877039788, -7.239376387408583 ], [ 112.771311717992376, -7.239071843845409 ], [ 112.764323263686947, -7.235969583260555 ], [ 112.759387390994561, -7.230240502554977 ], [ 112.757282466113907, -7.225523252689868 ], [ 112.755690463054748, -7.224812872949485 ], [ 112.7532672279998, -7.215910372347992 ], [ 112.751037288222847, -7.210615349372347 ], [ 112.747042288032048, -7.205776371765921 ], [ 112.744654223151315, -7.207108757391381 ], [ 112.742464588393887, -7.205556221548022 ], [ 112.739370075296051, -7.206692616353052 ], [ 112.733486346310201, -7.204410299393999 ], [ 112.732474038160035, -7.204105515919991 ], [ 112.732175222310957, -7.20644088583083 ], [ 112.73009631331081, -7.207342489576831 ], [ 112.730258618640732, -7.208934805399508 ], [ 112.728824750733452, -7.209080957570734 ], [ 112.725267197170069, -7.202489607190842 ], [ 112.724571511025829, -7.203537129477695 ], [ 112.727187649462167, -7.209672703289016 ], [ 112.725208784534857, -7.208959762406266 ], [ 112.72223611096922, -7.202489607190842 ], [ 112.721937295120142, -7.201471330159961 ], [ 112.721057518235398, -7.201908646155289 ], [ 112.718865793364671, -7.202351107044649 ], [ 112.718644562919962, -7.202788423039976 ], [ 112.719175511967933, -7.204597758934938 ], [ 112.720260471649112, -7.207099432270923 ], [ 112.721577564529071, -7.208193493490853 ], [ 112.720858967529011, -7.210045365199448 ], [ 112.718973836140094, -7.206989138604456 ], [ 112.717687200630962, -7.20907507159086 ], [ 112.715650646569088, -7.209672703289016 ], [ 112.714956588301675, -7.21586185760475 ], [ 112.710234439733881, -7.217630636008323 ], [ 112.711198886300963, -7.221962938267723 ], [ 112.707089542849076, -7.223502178529031 ], [ 112.706451887492676, -7.224269820337383 ], [ 112.704930656872648, -7.220762180787631 ], [ 112.701223539630973, -7.22158745395086 ], [ 112.700863809040129, -7.221886269799995 ], [ 112.700267272641668, -7.225082278996467 ], [ 112.697482588681623, -7.232326051181758 ], [ 112.695943230348917, -7.2347464449889 ], [ 112.694589098251072, -7.23536795221105 ], [ 112.689367000631819, -7.241212551866056 ], [ 112.682985754360743, -7.244680175294036 ], [ 112.676149797931203, -7.246563241691035 ], [ 112.675085734357594, -7.247754143985787 ], [ 112.664999782513974, -7.24963668785449 ], [ 112.658266146169808, -7.252225267947153 ], [ 112.651538634460621, -7.256142024549035 ], [ 112.650466486771279, -7.257099984731099 ], [ 112.649619955749813, -7.260738379452221 ], [ 112.644235537727582, -7.263664316880693 ], [ 112.640060883262436, -7.263913135814903 ], [ 112.63237497928003, -7.26205760263997 ], [ 112.632892757097807, -7.263374695519985 ], [ 112.632003310927075, -7.265637212927118 ], [ 112.631394866912615, -7.274805811066926 ], [ 112.626618747199927, -7.276760574376453 ], [ 112.628165021496216, -7.27884617575836 ], [ 112.626176195872972, -7.282143269059929 ], [ 112.62813682255296, -7.285393606127002 ], [ 112.628423700640155, -7.290375099559867 ], [ 112.639918911317523, -7.288976009930821 ], [ 112.639961753613989, -7.290056849677399 ], [ 112.637948145578775, -7.293345482040024 ], [ 112.643926276336856, -7.29616681332152 ], [ 112.650847530487681, -7.302579702700768 ], [ 112.657141559750926, -7.310313533581905 ], [ 112.657054317621373, -7.312514704156513 ], [ 112.659767425252539, -7.317642013131888 ], [ 112.66291273915499, -7.324306650618439 ], [ 112.664314481620067, -7.324251091791666 ], [ 112.66602649536253, -7.327878694293702 ], [ 112.668609815001787, -7.330666794784918 ], [ 112.671722013673048, -7.332949519969247 ], [ 112.673813192039802, -7.335206470440198 ], [ 112.682375682469569, -7.337917367374587 ], [ 112.691035825400377, -7.343008601799738 ], [ 112.692302705320117, -7.344375907639972 ] ] ] } },
{ "type": "Feature", "properties": { "FID": 10, "OBJECTID": 11, "Id": 11, "gridcode": 3, "Shape_Leng": 0.014488021680300001, "Shape_Area": 4.3368341366899997e-06 }, "geometry": { "type": "Polygon", "coordinates": [ [ [ 112.731815491720226, -7.34832718627996 ], [ 112.731815491720226, -7.347668639839924 ], [ 112.725230027319981, -7.347668639839924 ], [ 112.725230027319981, -7.34832718627996 ], [ 112.731815491720226, -7.34832718627996 ] ] ] } },
{ "type": "Feature", "properties": { "FID": 11, "OBJECTID": 12, "Id": 12, "gridcode": 2, "Shape_Leng": 0.86011281916000004, "Shape_Area": 0.0095166782792399998 }, "geometry": { "type": "Polygon", "coordinates": [ [ [ 112.731815491720226, -7.34832718627996 ], [ 112.732827799869938, -7.348022401549883 ], [ 112.73343736933009, -7.346656331690099 ], [ 112.73612053206989, -7.346046762229832 ], [ 112.736730101530156, -7.345339238810084 ], [ 112.742047450029872, -7.344729669349817 ], [ 112.742864061281693, -7.341135156957478 ], [ 112.747266844570049, -7.342095483589901 ], [ 112.753122939847913, -7.342705053050054 ], [ 112.754943418407606, -7.336658496205871 ], [ 112.761754856201492, -7.338144204949913 ], [ 112.766413678358504, -7.338753774410122 ], [ 112.767023227721552, -7.341436937149865 ], [ 112.767864136539288, -7.342046506610018 ], [ 112.77037052393473, -7.339137330281915 ], [ 112.774267238561606, -7.340778390709886 ], [ 112.776950421398624, -7.341387960170039 ], [ 112.777559970761558, -7.342095483589901 ], [ 112.778926060718618, -7.342705053050054 ], [ 112.779535610081439, -7.344729669349817 ], [ 112.78392858591576, -7.345727678311789 ], [ 112.788614438863874, -7.344006892123048 ], [ 112.789984889922493, -7.34411701496299 ], [ 112.792706538881475, -7.346046762229832 ], [ 112.79495572176836, -7.346656331690099 ], [ 112.797571237190027, -7.345197040771211 ], [ 112.79997504826008, -7.345390185319673 ], [ 112.800968856898294, -7.345310328926871 ], [ 112.812643445513004, -7.34628071422901 ], [ 112.819600548120093, -7.343192370984582 ], [ 112.823682720100123, -7.343520378078267 ], [ 112.825945408333723, -7.343338568374634 ], [ 112.825589928309569, -7.33891435137707 ], [ 112.82634140439859, -7.336168565629919 ], [ 112.826950953761639, -7.333485402890119 ], [ 112.829962224081441, -7.329845008493237 ], [ 112.832808676915761, -7.325300459256709 ], [ 112.837560730180485, -7.322324027506625 ], [ 112.835726394572021, -7.319736959731529 ], [ 112.839715516319643, -7.319009288826237 ], [ 112.842335533523737, -7.317547495800738 ], [ 112.845200335140476, -7.310620207452814 ], [ 112.846254535992216, -7.307118765390044 ], [ 112.845941019010297, -7.303216755139999 ], [ 112.846126215099275, -7.300911842599987 ], [ 112.846002154822031, -7.299368002582185 ], [ 112.846886252613672, -7.296960563959999 ], [ 112.846045584962781, -7.294671347366261 ], [ 112.84610147539388, -7.293975781805727 ], [ 112.84538657628616, -7.293359881714196 ], [ 112.845591387284003, -7.290810968553842 ], [ 112.844731707641472, -7.290070314829791 ], [ 112.843906595256158, -7.285546968184008 ], [ 112.842402316660241, -7.282850792479792 ], [ 112.841183177739822, -7.280118652760166 ], [ 112.839447780855835, -7.277008252792086 ], [ 112.832219325281471, -7.274265200269895 ], [ 112.83160977591865, -7.273557676849975 ], [ 112.829585139521441, -7.272948107389823 ], [ 112.82897559015862, -7.271582037530095 ], [ 112.828268046641483, -7.270972468069772 ], [ 112.827658497278549, -7.269662469516504 ], [ 112.83605990831029, -7.267132995413874 ], [ 112.83174671852862, -7.261625537049213 ], [ 112.828286315034916, -7.263082853413948 ], [ 112.825872776899473, -7.261371573220856 ], [ 112.818092772603904, -7.25902918937237 ], [ 112.81579849150512, -7.257749120637357 ], [ 112.814133796720057, -7.257882882858667 ], [ 112.811303703040835, -7.257655477536161 ], [ 112.809870829947272, -7.254444375310641 ], [ 112.806326862119477, -7.25574582751176 ], [ 112.806646810219149, -7.251763825212379 ], [ 112.804577095707145, -7.251930129893424 ], [ 112.80391374602641, -7.249726894327182 ], [ 112.802938507240128, -7.248886673839934 ], [ 112.800638558718902, -7.2492227700738 ], [ 112.798657955380122, -7.249182349494845 ], [ 112.796677130971489, -7.249222775098133 ], [ 112.792665841965572, -7.248538569503751 ], [ 112.770606485658163, -7.248988762807187 ], [ 112.762063368970075, -7.247740342204622 ], [ 112.745980822027036, -7.241965349348789 ], [ 112.742764218181378, -7.240921553844316 ], [ 112.740712450506862, -7.241978523091177 ], [ 112.739317882757405, -7.242623895788768 ], [ 112.735147152278728, -7.240475339794841 ], [ 112.726882975267017, -7.241319976651198 ], [ 112.716795676908077, -7.242142401030321 ], [ 112.715472564903962, -7.24351951934915 ], [ 112.709615726028233, -7.245829586831803 ], [ 112.703175303427088, -7.24988108037121 ], [ 112.701186500413087, -7.250526453068801 ], [ 112.697801240509079, -7.252821161233953 ], [ 112.689986618713192, -7.259695669198891 ], [ 112.674004990072945, -7.260477989530614 ], [ 112.669147391115416, -7.262980392647762 ], [ 112.664886971667897, -7.266419523210232 ], [ 112.661934450612193, -7.270922863051283 ], [ 112.66100424472188, -7.275687798648278 ], [ 112.661031200148273, -7.277008614542467 ], [ 112.662450065463986, -7.282544982790341 ], [ 112.665696121818542, -7.286822891862982 ], [ 112.672317273896738, -7.290753379905652 ], [ 112.677559448661214, -7.292031323357435 ], [ 112.68006464027053, -7.294638769736252 ], [ 112.684850878944758, -7.296960805126901 ], [ 112.6840606955667, -7.299269395462204 ], [ 112.687160353558966, -7.301567153383928 ], [ 112.691229904470561, -7.305802808004387 ], [ 112.695289949386392, -7.313156539739396 ], [ 112.696767458455497, -7.314576108458596 ], [ 112.698539140910839, -7.323651450369312 ], [ 112.700011153384139, -7.330838324749095 ], [ 112.704156541240081, -7.336473350359995 ], [ 112.707995335614328, -7.337487487358942 ], [ 112.715570538960719, -7.339768202819073 ], [ 112.716552419885716, -7.341968639844254 ], [ 112.719121440337062, -7.342742122413711 ], [ 112.720776860244882, -7.344663579568191 ], [ 112.723509010013004, -7.345882708439888 ], [ 112.724522503900175, -7.347059070379771 ], [ 112.725230027319981, -7.347668639839924 ], [ 112.731815491720226, -7.347668639839924 ], [ 112.731815491720226, -7.34832718627996 ] ], [ [ 112.728522759520047, -7.339766082560004 ], [ 112.726857873811127, -7.339455328948873 ], [ 112.72426072726887, -7.338759743291064 ], [ 112.719369038363766, -7.337621616354909 ], [ 112.714274146240655, -7.334381297763173 ], [ 112.711254626002869, -7.329496974497488 ], [ 112.709114159148953, -7.321505044780395 ], [ 112.709988610264418, -7.315205483751186 ], [ 112.711052759251061, -7.311759339251125 ], [ 112.712313358782694, -7.310632999347661 ], [ 112.713960659404506, -7.305070253469125 ], [ 112.712777172992105, -7.299983631360988 ], [ 112.710431252028911, -7.295954224691059 ], [ 112.707823514239976, -7.29173598433124 ], [ 112.703911003180679, -7.284536036695272 ], [ 112.703731524757245, -7.281524766375526 ], [ 112.70463741800836, -7.270912050734808 ], [ 112.706844467026372, -7.266103318222179 ], [ 112.710184889982543, -7.261500481958251 ], [ 112.714382530669013, -7.25845411682883 ], [ 112.715508870572421, -7.257193512272977 ], [ 112.722060953452797, -7.255253249124053 ], [ 112.72756237259614, -7.254925347540848 ], [ 112.733639155692799, -7.25584972020647 ], [ 112.736437566069299, -7.255682928167175 ], [ 112.740517266088546, -7.257555378196002 ], [ 112.75129453292584, -7.263648188843604 ], [ 112.756998783488598, -7.263988173893779 ], [ 112.768346992885995, -7.260431921626719 ], [ 112.778613950543559, -7.259819985716263 ], [ 112.785428262243386, -7.262439580878265 ], [ 112.790107141448175, -7.266620118811261 ], [ 112.79265695898448, -7.271312372731074 ], [ 112.793856523190698, -7.278062604373247 ], [ 112.792239177508804, -7.285013929023023 ], [ 112.790411715157234, -7.288995624839458 ], [ 112.785900647926496, -7.294044433985846 ], [ 112.780371434296967, -7.297049052118439 ], [ 112.771216175701852, -7.299501106618891 ], [ 112.762480085291827, -7.300862453626735 ], [ 112.756794967304245, -7.304172328774541 ], [ 112.753258214386847, -7.30923557778965 ], [ 112.750941122917766, -7.315263012107664 ], [ 112.749248452771099, -7.317686257211108 ], [ 112.745965045691605, -7.326891246432695 ], [ 112.744675666908961, -7.328918585908923 ], [ 112.743321534811116, -7.329540093131072 ], [ 112.739173554410968, -7.334858175180273 ], [ 112.733346248432895, -7.338024787135396 ], [ 112.728833513131235, -7.339418289731043 ], [ 112.728522759520047, -7.339766082560004 ] ], [ [ 112.82730472551998, -7.330546432399956 ], [ 112.82247423271815, -7.330225871334619 ], [ 112.819874071589538, -7.328218880316342 ], [ 112.819115280104256, -7.323084205701605 ], [ 112.821266549225925, -7.319912659873523 ], [ 112.825099816858483, -7.318405718392853 ], [ 112.82976722053786, -7.320531956399066 ], [ 112.831455790847031, -7.324827249586406 ], [ 112.830040924882724, -7.328284196354275 ], [ 112.827591613655841, -7.330174764047058 ], [ 112.82730472551998, -7.330546432399956 ] ] ] } },
{ "type": "Feature", "properties": { "FID": 12, "OBJECTID": 13, "Id": 13, "gridcode": 4, "Shape_Leng": 0.215353485623, "Shape_Area": 0.0012686008589600001 }, "geometry": { "type": "Polygon", "coordinates": [ [ [ 112.662009569080055, -7.351619918480026 ], [ 112.668231886358058, -7.351102725994565 ], [ 112.673798807438629, -7.351550030319345 ], [ 112.6784604884283, -7.350533220387263 ], [ 112.682383158643802, -7.347751912764011 ], [ 112.691849653184022, -7.344901762036784 ], [ 112.692302705320117, -7.344375907639972 ], [ 112.691035825400377, -7.343008601799738 ], [ 112.682375682469569, -7.337917367374587 ], [ 112.673813192039802, -7.335206470440198 ], [ 112.671722013673048, -7.332949519969247 ], [ 112.668609815001787, -7.330666794784918 ], [ 112.66602649536253, -7.327878694293702 ], [ 112.664314481620067, -7.324251091791666 ], [ 112.66291273915499, -7.324306650618439 ], [ 112.659767425252539, -7.317642013131888 ], [ 112.657054317621373, -7.312514704156513 ], [ 112.657141559750926, -7.310313533581905 ], [ 112.650847530487681, -7.302579702700768 ], [ 112.643926276336856, -7.29616681332152 ], [ 112.637948145578775, -7.293345482040024 ], [ 112.639961753613989, -7.290056849677399 ], [ 112.639918911317523, -7.288976009930821 ], [ 112.628423700640155, -7.290375099559867 ], [ 112.628012171918954, -7.29694047676611 ], [ 112.626504366256995, -7.299715202542529 ], [ 112.628709767300961, -7.301685707017043 ], [ 112.629392998178901, -7.311137832028919 ], [ 112.636015504309057, -7.311759339251125 ], [ 112.636963084265403, -7.312819870734188 ], [ 112.643222475931225, -7.313772017788835 ], [ 112.64871957416733, -7.314507235208737 ], [ 112.648451481977645, -7.319005219134624 ], [ 112.651125033211201, -7.321394017564501 ], [ 112.649844979549016, -7.327601493028908 ], [ 112.648527886668944, -7.331272214164528 ], [ 112.649149393891321, -7.335504050308884 ], [ 112.653712156253619, -7.338815402603984 ], [ 112.656062513683196, -7.343140600488084 ], [ 112.655734858291112, -7.348637939891091 ], [ 112.655424104680151, -7.348985732719996 ], [ 112.656737469521545, -7.349381156013408 ], [ 112.661704784350036, -7.351266156770123 ], [ 112.662009569080055, -7.351619918480026 ] ] ] } },
{ "type": "Feature", "properties": { "FID": 13, "OBJECTID": 14, "Id": 14, "gridcode": 5, "Shape_Leng": 0.024287959218200001, "Shape_Area": 3.0408975541499999e-05 }, "geometry": { "type": "Polygon", "coordinates": [ [ [ 112.655424104680151, -7.348985732719996 ], [ 112.654897345907216, -7.356438302693334 ], [ 112.655875137043267, -7.357199043611047 ], [ 112.658670889559517, -7.354070023547933 ], [ 112.660619523210016, -7.353175666113827 ], [ 112.662009569080055, -7.351619918480026 ], [ 112.661704784350036, -7.351266156770123 ], [ 112.656737469521545, -7.349381156013408 ], [ 112.655424104680151, -7.348985732719996 ] ] ] } }
]
}
