{
"type": "FeatureCollection",
"name": "CH_2024 ",
"crs": { "type": "name", "properties": { "name": "urn:ogc:def:crs:OGC:1.3:CRS84" } },
"features": [
{ "type": "Feature", "properties": { "FID": 0, "OBJECTID": 1, "Id": 1, "gridcode": 5, "Shape_Leng": 0.0024694358498599999, "Shape_Area": 2.7772576242500002e-07 }, "geometry": { "type": "Polygon", "coordinates": [ [ [ 112.743010781200041, -7.194885865759943 ], [ 112.742681507980024, -7.194042414954993 ], [ 112.742352234760119, -7.194885865759943 ], [ 112.743010781200041, -7.194885865759943 ] ] ] } },
{ "type": "Feature", "properties": { "FID": 1, "OBJECTID": 2, "Id": 2, "gridcode": 5, "Shape_Leng": 0.014743855934000001, "Shape_Area": 8.9229995435500002e-06 }, "geometry": { "type": "Polygon", "coordinates": [ [ [ 112.746962059840143, -7.197520051519973 ], [ 112.746536390196752, -7.196412639450614 ], [ 112.747986305752079, -7.195251564917839 ], [ 112.748571999688238, -7.194191055573128 ], [ 112.743010781200041, -7.194885865759943 ], [ 112.743606272542138, -7.195748355875992 ], [ 112.745913938404101, -7.197251076307623 ], [ 112.746962059840143, -7.197520051519973 ] ] ] } },
{ "type": "Feature", "properties": { "FID": 2, "OBJECTID": 3, "Id": 3, "gridcode": 5, "Shape_Leng": 0.0112287848085, "Shape_Area": 4.9202222758300003e-06 }, "geometry": { "type": "Polygon", "coordinates": [ [ [ 112.751571884920054, -7.200154237279946 ], [ 112.749927458203956, -7.198023801462341 ], [ 112.746962059840143, -7.197520051519973 ], [ 112.747557551181899, -7.198382541635908 ], [ 112.749865217044203, -7.19988526206771 ], [ 112.751571884920054, -7.200154237279946 ] ] ] } },
{ "type": "Feature", "properties": { "FID": 3, "OBJECTID": 4, "Id": 4, "gridcode": 5, "Shape_Leng": 0.0037266198795700002, "Shape_Area": 5.9215099397800004e-07 }, "geometry": { "type": "Polygon", "coordinates": [ [ [ 112.784499206920032, -7.217276444719914 ], [ 112.78423543061308, -7.215779875928547 ], [ 112.783643305559281, -7.216910174988755 ], [ 112.784499206920032, -7.217276444719914 ] ] ] } },
{ "type": "Feature", "properties": { "FID": 4, "OBJECTID": 5, "Id": 5, "gridcode": 5, "Shape_Leng": 0.0026341857601399998, "Shape_Area": 4.3368341368400001e-07 }, "geometry": { "type": "Polygon", "coordinates": [ [ [ 112.785157753360181, -7.217934991159893 ], [ 112.785157753360181, -7.217276444719914 ], [ 112.784499206920032, -7.217276444719914 ], [ 112.784499206920032, -7.217934991159893 ], [ 112.785157753360181, -7.217934991159893 ] ] ] } },
{ "type": "Feature", "properties": { "FID": 5, "OBJECTID": 6, "Id": 6, "gridcode": 4, "Shape_Leng": 0.0088925699845300004, "Shape_Area": 2.9791985981900001e-06 }, "geometry": { "type": "Polygon", "coordinates": [ [ [ 112.710742005639986, -7.218593537599929 ], [ 112.711027145315597, -7.218180554340961 ], [ 112.712127027199472, -7.218427124896209 ], [ 112.713376191400016, -7.216617898279992 ], [ 112.709775328279079, -7.217729820924148 ], [ 112.710742005639986, -7.218593537599929 ] ] ] } },
{ "type": "Feature", "properties": { "FID": 6, "OBJECTID": 7, "Id": 7, "gridcode": 5, "Shape_Leng": 0.0026341857598000001, "Shape_Area": 4.3368341357200002e-07 }, "geometry": { "type": "Polygon", "coordinates": [ [ [ 112.78581629979999, -7.218593537599929 ], [ 112.78581629979999, -7.217934991159893 ], [ 112.785157753360181, -7.217934991159893 ], [ 112.785157753360181, -7.218593537599929 ], [ 112.78581629979999, -7.218593537599929 ] ] ] } },
{ "type": "Feature", "properties": { "FID": 7, "OBJECTID": 8, "Id": 8, "gridcode": 5, "Shape_Leng": 0.156700218876, "Shape_Area": 0.0011556652957 }, "geometry": { "type": "Polygon", "coordinates": [ [ [ 112.752230431359976, -7.200154237279946 ], [ 112.752547153852106, -7.20049606373999 ], [ 112.755431268919097, -7.201409181949941 ], [ 112.754573327688149, -7.22305470840206 ], [ 112.755864987507948, -7.225495721979883 ], [ 112.757666142569178, -7.231184756417747 ], [ 112.7616161651315, -7.236570073791484 ], [ 112.767015429991602, -7.240285420853922 ], [ 112.773403901221172, -7.24195938046779 ], [ 112.782937771766569, -7.241217877635222 ], [ 112.790020863986342, -7.23787506813153 ], [ 112.795035949960038, -7.233740105720017 ], [ 112.794212867396368, -7.23078432388661 ], [ 112.792688652335755, -7.230160495432926 ], [ 112.791471121194718, -7.227185678998751 ], [ 112.788502436931708, -7.225410160482454 ], [ 112.787420341107577, -7.219040206349462 ], [ 112.78581629979999, -7.218593537599929 ], [ 112.787438167361643, -7.221192035681725 ], [ 112.785874521511346, -7.222191054530072 ], [ 112.778948971575119, -7.219842046128065 ], [ 112.778874189735916, -7.218911506121117 ], [ 112.779956345851929, -7.213950230514001 ], [ 112.778866231227767, -7.213011036132173 ], [ 112.780067724769424, -7.208620944252289 ], [ 112.775119502321445, -7.207496796204282 ], [ 112.774316235638594, -7.203093206513984 ], [ 112.772950145681534, -7.202483639565969 ], [ 112.771677447610159, -7.201006403693668 ], [ 112.764567867224741, -7.195965458849514 ], [ 112.760271900779799, -7.195620272067629 ], [ 112.757803587610283, -7.197166288554001 ], [ 112.754592490408982, -7.199443075631279 ], [ 112.752230431359976, -7.200154237279946 ] ] ] } },
{ "type": "Feature", "properties": { "FID": 8, "OBJECTID": 9, "Id": 9, "gridcode": 4, "Shape_Leng": 0.31910207972, "Shape_Area": 0.00139443438559 }, "geometry": { "type": "Polygon", "coordinates": [ [ [ 112.71535183072001, -7.214642258959998 ], [ 112.718684857891276, -7.212601468148193 ], [ 112.724671454612576, -7.21103280677994 ], [ 112.730087571010245, -7.212579954050227 ], [ 112.736291670137803, -7.216586262708233 ], [ 112.738742780068151, -7.22220298977993 ], [ 112.740693317932141, -7.228813560660058 ], [ 112.741376965827953, -7.229447000619928 ], [ 112.744293095801936, -7.23562600582818 ], [ 112.746551141572581, -7.238063047688513 ], [ 112.747961375122713, -7.238007152233024 ], [ 112.755341695509628, -7.244626741750722 ], [ 112.759830123196707, -7.247001788642535 ], [ 112.763946078641084, -7.248444418947315 ], [ 112.770345663645799, -7.249783342456908 ], [ 112.785637514731434, -7.250389450167063 ], [ 112.799660687193978, -7.249172431505826 ], [ 112.803597053680051, -7.24954522027997 ], [ 112.802556659633979, -7.247925387564294 ], [ 112.802662873560166, -7.247206594615761 ], [ 112.801897048040018, -7.246615474424118 ], [ 112.802047998427838, -7.245593941639981 ], [ 112.801902032156022, -7.244606121979871 ], [ 112.801999343004127, -7.243947575540005 ], [ 112.801772646109271, -7.242413497757752 ], [ 112.799937486513954, -7.242684689947168 ], [ 112.799269012036234, -7.241051387054711 ], [ 112.797092581167135, -7.239371463584121 ], [ 112.797474850815433, -7.236784707316303 ], [ 112.795460564498285, -7.234067856573859 ], [ 112.795035949960038, -7.233740105720017 ], [ 112.790020863986342, -7.23787506813153 ], [ 112.782937771766569, -7.241217877635222 ], [ 112.773403901221172, -7.24195938046779 ], [ 112.767015429991602, -7.240285420853922 ], [ 112.7616161651315, -7.236570073791484 ], [ 112.757666142569178, -7.231184756417747 ], [ 112.755864987507948, -7.225495721979883 ], [ 112.754573327688149, -7.22305470840206 ], [ 112.755431268919097, -7.201409181949941 ], [ 112.752547153852106, -7.20049606373999 ], [ 112.752230431359976, -7.200154237279946 ], [ 112.751571884920054, -7.200154237279946 ], [ 112.749865217044203, -7.19988526206771 ], [ 112.747557551181899, -7.198382541635908 ], [ 112.746962059840143, -7.197520051519973 ], [ 112.745913938404101, -7.197251076307623 ], [ 112.743606272542138, -7.195748355875992 ], [ 112.743010781200041, -7.194885865759943 ], [ 112.742352234760119, -7.194885865759943 ], [ 112.739370256171242, -7.195196617486943 ], [ 112.736114563189176, -7.195892206913015 ], [ 112.722943634388912, -7.198165386535265 ], [ 112.724455509742597, -7.199369585668023 ], [ 112.732126245331187, -7.198912389103668 ], [ 112.731504738108924, -7.199843485552947 ], [ 112.73029483387154, -7.200924525015978 ], [ 112.73278479177111, -7.202067330841373 ], [ 112.732163284549074, -7.206428950580914 ], [ 112.730127785592344, -7.207363177175864 ], [ 112.730224292550474, -7.208982449680889 ], [ 112.72883467877125, -7.209065274185207 ], [ 112.725238548550806, -7.202477671940983 ], [ 112.724619985574691, -7.203556592400957 ], [ 112.727168828394611, -7.209684638538874 ], [ 112.725213155684969, -7.208938064921028 ], [ 112.721153211255114, -7.200092239799233 ], [ 112.719754141723456, -7.198526392672932 ], [ 112.717636053149022, -7.19914853358631 ], [ 112.71769599317463, -7.200154237279946 ], [ 112.717626376326848, -7.201322299686751 ], [ 112.720272409411223, -7.207087497021064 ], [ 112.721589502291295, -7.208264307380603 ], [ 112.72085690756137, -7.209982175700986 ], [ 112.718973836140094, -7.207021330618545 ], [ 112.717675262868966, -7.209063136341001 ], [ 112.715662584331199, -7.209684638538874 ], [ 112.71535183072001, -7.214642258959998 ] ] ] } },
{ "type": "Feature", "properties": { "FID": 9, "OBJECTID": 10, "Id": 10, "gridcode": 5, "Shape_Leng": 0.3242013985, "Shape_Area": 0.0029324384976700001 }, "geometry": { "type": "Polygon", "coordinates": [ [ [ 112.615911318280041, -7.25217940604 ], [ 112.617873786369728, -7.251507690881908 ], [ 112.623955400341288, -7.250320441260897 ], [ 112.626112203740945, -7.249209360188786 ], [ 112.631936859394955, -7.248261162242216 ], [ 112.632697668141077, -7.24591662798872 ], [ 112.636499455955459, -7.24441711746357 ], [ 112.641921596501447, -7.241623892175539 ], [ 112.65465657591858, -7.230640432655036 ], [ 112.657182859584168, -7.229414807349713 ], [ 112.660451761478726, -7.229481520145896 ], [ 112.666942080508761, -7.23341741685897 ], [ 112.670568401811693, -7.234847720017797 ], [ 112.677557157575507, -7.234053899038997 ], [ 112.681867091603976, -7.231132395564771 ], [ 112.685058694480063, -7.225179001999948 ], [ 112.680136126161869, -7.22362051109252 ], [ 112.680106543021338, -7.222874089459992 ], [ 112.680184349495107, -7.220911003380024 ], [ 112.677724386729778, -7.221670028495737 ], [ 112.676609190747286, -7.224033019554213 ], [ 112.668554110470154, -7.220231495516146 ], [ 112.667619769572184, -7.218251711139885 ], [ 112.664960472307826, -7.213666992540027 ], [ 112.662084823204282, -7.208558502120013 ], [ 112.660081288912011, -7.207612951985197 ], [ 112.661150346650174, -7.200901979678179 ], [ 112.663657271646684, -7.198579190012936 ], [ 112.664309160875291, -7.19516470840432 ], [ 112.665259418789105, -7.197178225059929 ], [ 112.666277565187897, -7.195501796939425 ], [ 112.665321976480413, -7.19207001027047 ], [ 112.660075832510643, -7.193730946478752 ], [ 112.659058665852172, -7.195886238974083 ], [ 112.653106636387861, -7.19651967830589 ], [ 112.646885283777578, -7.197821311696202 ], [ 112.639130596983136, -7.198749269835446 ], [ 112.632469451392467, -7.200335943985294 ], [ 112.628190949451096, -7.202002016687572 ], [ 112.614905393516779, -7.209032060979951 ], [ 112.610301120299937, -7.208398621020024 ], [ 112.597935835309841, -7.202581942715199 ], [ 112.592549565672243, -7.202368452220981 ], [ 112.592365651724322, -7.207008512346135 ], [ 112.594186735870608, -7.207867957101882 ], [ 112.597826640083099, -7.212340515503911 ], [ 112.594521112534039, -7.214765045574779 ], [ 112.596866888734326, -7.21661245192729 ], [ 112.598173264759794, -7.215202514811494 ], [ 112.601081470140116, -7.216575018301114 ], [ 112.600448030180132, -7.217618271180072 ], [ 112.597778751494729, -7.219341963932379 ], [ 112.597837846179914, -7.220832895447359 ], [ 112.596834812279553, -7.221915440947271 ], [ 112.593563619927181, -7.214984085420042 ], [ 112.592047422567134, -7.216861773292578 ], [ 112.591783675228498, -7.223515990358919 ], [ 112.592862192880034, -7.223558737193628 ], [ 112.596908266444302, -7.22339836622325 ], [ 112.597788737939936, -7.226179374900028 ], [ 112.598498528579967, -7.226837032037054 ], [ 112.59839520112007, -7.229443940814804 ], [ 112.599118384060148, -7.229472604506725 ], [ 112.599788594437086, -7.229446040976597 ], [ 112.600422923699966, -7.230130653539959 ], [ 112.602788125455163, -7.231246889554882 ], [ 112.604450624616447, -7.232787277871239 ], [ 112.604250074234301, -7.237847037502604 ], [ 112.605032748780218, -7.238691759772223 ], [ 112.607008388100098, -7.240522286953251 ], [ 112.605480678631466, -7.242251267792483 ], [ 112.603232858589195, -7.244333985220237 ], [ 112.602003627084741, -7.246657020448595 ], [ 112.605559542723086, -7.248538629795519 ], [ 112.606362394899975, -7.248570453778882 ], [ 112.614222911260981, -7.24825889125384 ], [ 112.614910945379961, -7.251862688572203 ], [ 112.615911318280041, -7.25217940604 ] ], [ [ 112.663985208400163, -7.194227319319964 ], [ 112.663182293419027, -7.194001879602069 ], [ 112.663759767583201, -7.193424404024938 ], [ 112.663985208400163, -7.194227319319964 ] ] ] } },
{ "type": "Feature", "properties": { "FID": 10, "OBJECTID": 11, "Id": 11, "gridcode": 4, "Shape_Leng": 0.241179717328, "Shape_Area": 0.00171983973792 }, "geometry": { "type": "Polygon", "coordinates": [ [ [ 112.631716432840108, -7.267325974159917 ], [ 112.632728740989933, -7.267630758890107 ], [ 112.635376512486005, -7.269108041865138 ], [ 112.638620699796661, -7.274287583573653 ], [ 112.645097362750448, -7.270140909494103 ], [ 112.649613454291739, -7.266604106333432 ], [ 112.650460517890224, -7.261045294490089 ], [ 112.651324704339004, -7.259496389967182 ], [ 112.657999892877797, -7.254703237841795 ], [ 112.665162213451595, -7.251507278888369 ], [ 112.674446526489305, -7.249398048173646 ], [ 112.676802375490297, -7.248532912130088 ], [ 112.680827591884963, -7.247798664402183 ], [ 112.686705713740366, -7.24618992536432 ], [ 112.692875356145919, -7.242747659632016 ], [ 112.699197154773742, -7.237334025243683 ], [ 112.700178332295195, -7.237412861701443 ], [ 112.704639668899517, -7.231646013253112 ], [ 112.70748734766596, -7.22526420928358 ], [ 112.708107819880183, -7.22320336268001 ], [ 112.707077605087079, -7.223490240767035 ], [ 112.70644844081562, -7.224305359798507 ], [ 112.704985321372078, -7.220730487436299 ], [ 112.701235477393084, -7.221599391712914 ], [ 112.697857954927258, -7.222173147887077 ], [ 112.694295748851914, -7.223729842603461 ], [ 112.692302705320117, -7.22343531751568 ], [ 112.690985612440045, -7.223629954284263 ], [ 112.688733153702742, -7.223297093706492 ], [ 112.686088909272939, -7.224892123912809 ], [ 112.685058694480063, -7.225179001999948 ], [ 112.681867091603976, -7.231132395564771 ], [ 112.677557157575507, -7.234053899038997 ], [ 112.670568401811693, -7.234847720017797 ], [ 112.666942080508761, -7.23341741685897 ], [ 112.660451761478726, -7.229481520145896 ], [ 112.657182859584168, -7.229414807349713 ], [ 112.65465657591858, -7.230640432655036 ], [ 112.641921596501447, -7.241623892175539 ], [ 112.636499455955459, -7.24441711746357 ], [ 112.632697668141077, -7.24591662798872 ], [ 112.631936859394955, -7.248261162242216 ], [ 112.626112203740945, -7.249209360188786 ], [ 112.623955400341288, -7.250320441260897 ], [ 112.617873786369728, -7.251507690881908 ], [ 112.615911318280041, -7.25217940604 ], [ 112.61619819636735, -7.252551074392898 ], [ 112.617978962775851, -7.253279900889652 ], [ 112.617395057494377, -7.25723117952964 ], [ 112.620935204333705, -7.258680080174202 ], [ 112.622891472424158, -7.2598601148851 ], [ 112.626662863159481, -7.261342728653744 ], [ 112.629551588031404, -7.259600232418904 ], [ 112.631765075703129, -7.26050616586457 ], [ 112.632892757097807, -7.263374695519985 ], [ 112.632003310927075, -7.265637212927118 ], [ 112.631716432840108, -7.267325974159917 ] ] ] } },
{ "type": "Feature", "properties": { "FID": 11, "OBJECTID": 12, "Id": 12, "gridcode": 4, "Shape_Leng": 0.0046032557474000001, "Shape_Area": 9.50339452955e-07 }, "geometry": { "type": "Polygon", "coordinates": [ [ [ 112.636984804360054, -7.275887077879986 ], [ 112.637591148212778, -7.274344699936648 ], [ 112.636039379832937, -7.275157331934281 ], [ 112.636984804360054, -7.275887077879986 ] ] ] } },
{ "type": "Feature", "properties": { "FID": 12, "OBJECTID": 13, "Id": 13, "gridcode": 1, "Shape_Leng": 0.123208850777, "Shape_Area": 0.0011764195202300001 }, "geometry": { "type": "Polygon", "coordinates": [ [ [ 112.731815491720226, -7.295643471079984 ], [ 112.732126245331187, -7.295295678251023 ], [ 112.735786073761346, -7.292968055827146 ], [ 112.739372758277796, -7.290025246763776 ], [ 112.740194564666695, -7.290074223743488 ], [ 112.743243276149201, -7.285709655361586 ], [ 112.745297174131224, -7.278040979740354 ], [ 112.744304259820296, -7.270887984286958 ], [ 112.740544769164785, -7.264161417147932 ], [ 112.734648107603107, -7.259145220801656 ], [ 112.733461857820203, -7.259074518702789 ], [ 112.732790067297287, -7.259114557433975 ], [ 112.729301145816635, -7.257862695178574 ], [ 112.72268600783832, -7.257468417427958 ], [ 112.716481667543803, -7.259384277500317 ], [ 112.710478309722248, -7.263741103419648 ], [ 112.70651519380624, -7.271034181677123 ], [ 112.705926093387575, -7.280917950237551 ], [ 112.709028504701678, -7.287677507000126 ], [ 112.716468503850024, -7.293781873562125 ], [ 112.719054395936269, -7.294709723050744 ], [ 112.720300143605755, -7.29463547378856 ], [ 112.724729193990129, -7.295422552142497 ], [ 112.729461361033259, -7.295140497393618 ], [ 112.731815491720226, -7.295643471079984 ] ] ] } },
{ "type": "Feature", "properties": { "FID": 13, "OBJECTID": 14, "Id": 14, "gridcode": 5, "Shape_Leng": 0.0024694364352299998, "Shape_Area": 2.7772586590299998e-07 }, "geometry": { "type": "Polygon", "coordinates": [ [ [ 112.629082247080078, -7.306180214119991 ], [ 112.629925698199145, -7.305850940899916 ], [ 112.629082247080078, -7.305521667679955 ], [ 112.629082247080078, -7.306180214119991 ] ] ] } },
{ "type": "Feature", "properties": { "FID": 14, "OBJECTID": 15, "Id": 15, "gridcode": 5, "Shape_Leng": 0.016090043560299999, "Shape_Area": 1.0689618515799999e-05 }, "geometry": { "type": "Polygon", "coordinates": [ [ [ 112.63500916504006, -7.311448585639937 ], [ 112.634787934595579, -7.311011269644609 ], [ 112.629082247080078, -7.308155853439985 ], [ 112.629082247080078, -7.311448585639937 ], [ 112.63500916504006, -7.311448585639937 ] ] ] } },
{ "type": "Feature", "properties": { "FID": 15, "OBJECTID": 16, "Id": 16, "gridcode": 5, "Shape_Leng": 0.00263418575992, "Shape_Area": 4.3368341360900001e-07 }, "geometry": { "type": "Polygon", "coordinates": [ [ [ 112.636984804360054, -7.312765678520009 ], [ 112.636984804360054, -7.312107132079973 ], [ 112.636326257920132, -7.312107132079973 ], [ 112.636326257920132, -7.312765678520009 ], [ 112.636984804360054, -7.312765678520009 ] ] ] } },
{ "type": "Feature", "properties": { "FID": 16, "OBJECTID": 17, "Id": 17, "gridcode": 2, "Shape_Leng": 0.037359895053800003, "Shape_Area": 0.00010589783100200001 }, "geometry": { "type": "Polygon", "coordinates": [ [ [ 112.826646179080058, -7.330546432399956 ], [ 112.826933067215691, -7.330174764047058 ], [ 112.829666814714756, -7.328539752889014 ], [ 112.831158110492311, -7.324896012301394 ], [ 112.82999098323512, -7.320893154088651 ], [ 112.826297471826706, -7.318684125492268 ], [ 112.822133906014756, -7.319299402569357 ], [ 112.819212590952247, -7.323084115264066 ], [ 112.819899132850878, -7.327729914408053 ], [ 112.823110953552941, -7.330209029845435 ], [ 112.826646179080058, -7.330546432399956 ] ] ] } },
{ "type": "Feature", "properties": { "FID": 17, "OBJECTID": 18, "Id": 18, "gridcode": 1, "Shape_Leng": 0.0676388594436, "Shape_Area": 0.00035443440296200002 }, "geometry": { "type": "Polygon", "coordinates": [ [ [ 112.727205666639975, -7.334497711039944 ], [ 112.727498513608225, -7.334132011568101 ], [ 112.729583431683864, -7.333253470663806 ], [ 112.732193400266851, -7.331719267273797 ], [ 112.733862546591126, -7.329634881775007 ], [ 112.73529415355847, -7.326237442941931 ], [ 112.736059617328124, -7.320905343066215 ], [ 112.733207356390494, -7.316053125145174 ], [ 112.727597412138266, -7.312472831551929 ], [ 112.721386138295088, -7.3132454197941 ], [ 112.716986731343241, -7.316459099490942 ], [ 112.714623265487376, -7.322067958492198 ], [ 112.715183174661547, -7.326569318754878 ], [ 112.71790728553276, -7.331203541887135 ], [ 112.722843570218856, -7.334201799242408 ], [ 112.727205666639975, -7.334497711039944 ] ] ] } },
{ "type": "Feature", "properties": { "FID": 18, "OBJECTID": 19, "Id": 19, "gridcode": 2, "Shape_Leng": 0.56130184841399999, "Shape_Area": 0.0056956527302699997 }, "geometry": { "type": "Polygon", "coordinates": [ [ [ 112.716010377160046, -7.339766082560004 ], [ 112.721799840030371, -7.341370656444326 ], [ 112.729708868622424, -7.342317075784933 ], [ 112.736296583913713, -7.340008113650526 ], [ 112.741597422528912, -7.335943225299104 ], [ 112.745303143012052, -7.33020460845205 ], [ 112.746509047898371, -7.329087272113213 ], [ 112.7491978780605, -7.31779907308146 ], [ 112.750489638366503, -7.315357881140585 ], [ 112.752912843275453, -7.3091350413344 ], [ 112.756677046734239, -7.303664762868266 ], [ 112.762651313797505, -7.299806876113848 ], [ 112.766401740596507, -7.298619480787863 ], [ 112.767693711923584, -7.297935832892051 ], [ 112.78060456230935, -7.295691433149045 ], [ 112.78619404756887, -7.293732343908232 ], [ 112.791764380156565, -7.290321660992333 ], [ 112.795708463983601, -7.284213918093599 ], [ 112.796752576019685, -7.277659604419341 ], [ 112.796627711852352, -7.274509487275907 ], [ 112.795173455292684, -7.268959493097725 ], [ 112.790414528771407, -7.263328014650142 ], [ 112.785021795515036, -7.260157659583513 ], [ 112.777170486203204, -7.257969115101616 ], [ 112.76210862796006, -7.25856610871233 ], [ 112.757538515031115, -7.258384967241966 ], [ 112.753459548561295, -7.256955309707109 ], [ 112.749163340949394, -7.25468196993495 ], [ 112.745986790907864, -7.252496123507797 ], [ 112.743063707288115, -7.250608535231208 ], [ 112.740034771492219, -7.249887049252209 ], [ 112.738084233627887, -7.249203391307731 ], [ 112.729594022930542, -7.247360449055236 ], [ 112.714824931266548, -7.247945841532783 ], [ 112.711264463602902, -7.249829857524503 ], [ 112.709083088812122, -7.250520484187746 ], [ 112.70682330463012, -7.251312531584915 ], [ 112.695645650480287, -7.258156536960144 ], [ 112.690643788492366, -7.259740134347794 ], [ 112.688914249954337, -7.260655317549265 ], [ 112.678673559392564, -7.259588138903268 ], [ 112.674048369970706, -7.259771460924412 ], [ 112.671571048212286, -7.261082338732137 ], [ 112.668886644467648, -7.262349213627601 ], [ 112.66550305263479, -7.264139641785619 ], [ 112.661565852113085, -7.26914639242807 ], [ 112.660375758732243, -7.275787099123079 ], [ 112.661897346078376, -7.28159406166742 ], [ 112.665087923995088, -7.28623072661469 ], [ 112.669612009214575, -7.289152162260791 ], [ 112.677497961147992, -7.291350368492033 ], [ 112.678257164626757, -7.292169743114584 ], [ 112.686717611307927, -7.293326007812084 ], [ 112.687923646826334, -7.294627635864003 ], [ 112.690022904284547, -7.295618359575542 ], [ 112.692909843014036, -7.297145981118661 ], [ 112.698847623533538, -7.303554479250465 ], [ 112.701542322090404, -7.309264276651845 ], [ 112.703177835679412, -7.317830836773112 ], [ 112.704498365187874, -7.320326411852079 ], [ 112.705131810172134, -7.3243027919479 ], [ 112.706011476522008, -7.328507325988426 ], [ 112.707132550947904, -7.329546062012071 ], [ 112.707765995932164, -7.330888256347919 ], [ 112.709967508159821, -7.33504873723291 ], [ 112.715186078713032, -7.338876437929287 ], [ 112.716010377160046, -7.339766082560004 ] ], [ [ 112.731815491720226, -7.295643471079984 ], [ 112.729461361033259, -7.295140497393618 ], [ 112.724729193990129, -7.295422552142497 ], [ 112.720300143605755, -7.29463547378856 ], [ 112.719054395936269, -7.294709723050744 ], [ 112.716468503850024, -7.293781873562125 ], [ 112.709028504701678, -7.287677507000126 ], [ 112.705926093387575, -7.280917950237551 ], [ 112.70651519380624, -7.271034181677123 ], [ 112.710478309722248, -7.263741103419648 ], [ 112.716481667543803, -7.259384277500317 ], [ 112.72268600783832, -7.257468417427958 ], [ 112.729301145816635, -7.257862695178574 ], [ 112.732790067297287, -7.259114557433975 ], [ 112.733461857820203, -7.259074518702789 ], [ 112.734648107603107, -7.259145220801656 ], [ 112.740544769164785, -7.264161417147932 ], [ 112.744304259820296, -7.270887984286958 ], [ 112.745297174131224, -7.278040979740354 ], [ 112.743243276149201, -7.285709655361586 ], [ 112.740194564666695, -7.290074223743488 ], [ 112.739372758277796, -7.290025246763776 ], [ 112.735786073761346, -7.292968055827146 ], [ 112.732126245331187, -7.295295678251023 ], [ 112.731815491720226, -7.295643471079984 ] ], [ [ 112.727205666639975, -7.334497711039944 ], [ 112.722843570218856, -7.334201799242408 ], [ 112.71790728553276, -7.331203541887135 ], [ 112.715183174661547, -7.326569318754878 ], [ 112.714623265487376, -7.322067958492198 ], [ 112.716986731343241, -7.316459099490942 ], [ 112.721386138295088, -7.3132454197941 ], [ 112.727597412138266, -7.312472831551929 ], [ 112.733207356390494, -7.316053125145174 ], [ 112.736059617328124, -7.320905343066215 ], [ 112.73529415355847, -7.326237442941931 ], [ 112.733862546591126, -7.329634881775007 ], [ 112.732193400266851, -7.331719267273797 ], [ 112.729583431683864, -7.333253470663806 ], [ 112.727498513608225, -7.334132011568101 ], [ 112.727205666639975, -7.334497711039944 ] ] ] } },
{ "type": "Feature", "properties": { "FID": 19, "OBJECTID": 20, "Id": 20, "gridcode": 4, "Shape_Leng": 0.14821958702599999, "Shape_Area": 0.00092806865911100004 }, "geometry": { "type": "Polygon", "coordinates": [ [ [ 112.76013298864018, -7.33779044324001 ], [ 112.761145306838557, -7.338095227970086 ], [ 112.766359234929041, -7.338514175085834 ], [ 112.767023227721552, -7.341436937149865 ], [ 112.767864136539288, -7.342046506610018 ], [ 112.77037052393473, -7.339137330281915 ], [ 112.774267238561606, -7.340778390709886 ], [ 112.776950421398624, -7.341387960170039 ], [ 112.777559970761558, -7.342095483589901 ], [ 112.778926060718618, -7.342705053050054 ], [ 112.779535610081439, -7.344729669349817 ], [ 112.78392858591576, -7.345727678311789 ], [ 112.788614438863874, -7.344006892123048 ], [ 112.789984889922493, -7.34411701496299 ], [ 112.792706538881475, -7.346046762229832 ], [ 112.79495572176836, -7.346656331690099 ], [ 112.797571237190027, -7.345197040771211 ], [ 112.79997504826008, -7.345390185319673 ], [ 112.800968856898294, -7.345310328926871 ], [ 112.811471314042706, -7.34618329284632 ], [ 112.813975952977898, -7.34598203906063 ], [ 112.814792343160093, -7.345034454080007 ], [ 112.810890302764051, -7.343859639627794 ], [ 112.805712730585242, -7.3416791591643 ], [ 112.799017917089259, -7.336932280939493 ], [ 112.795166622230454, -7.332462091499906 ], [ 112.789790891241182, -7.320414799524258 ], [ 112.784829263932693, -7.316140116059103 ], [ 112.778538204037091, -7.313332923187602 ], [ 112.771247406816428, -7.313918737707183 ], [ 112.767262143739686, -7.316744440139018 ], [ 112.765825914406378, -7.318411476252891 ], [ 112.763474697819788, -7.323680671759746 ], [ 112.762154670742461, -7.326046599527842 ], [ 112.761114899710719, -7.335116585523451 ], [ 112.76013298864018, -7.33779044324001 ] ] ] } },
{ "type": "Feature", "properties": { "FID": 20, "OBJECTID": 21, "Id": 21, "gridcode": 4, "Shape_Leng": 0.23460823574100001, "Shape_Area": 0.00233242268324 }, "geometry": { "type": "Polygon", "coordinates": [ [ [ 112.684400148040027, -7.347010093399945 ], [ 112.689346330617923, -7.345703410891531 ], [ 112.695745503629269, -7.343353450382608 ], [ 112.700510047330226, -7.339412320850101 ], [ 112.702534663629876, -7.338144204949913 ], [ 112.702839448360123, -7.33779044324001 ], [ 112.701180531532259, -7.335498081427829 ], [ 112.699887917093406, -7.333496365935787 ], [ 112.699159120742706, -7.333525255721838 ], [ 112.697405324833198, -7.331632427089232 ], [ 112.694595067132127, -7.329571163467847 ], [ 112.690542377806878, -7.318105324910221 ], [ 112.688009602732222, -7.314424595347759 ], [ 112.68650227940384, -7.312090391076993 ], [ 112.682975866517495, -7.309503845830193 ], [ 112.67944849901221, -7.307839130947912 ], [ 112.677497961147992, -7.306496936612064 ], [ 112.67010009586852, -7.304511851588131 ], [ 112.668278316012334, -7.302545657971962 ], [ 112.664411003651139, -7.301039701256343 ], [ 112.660661044112885, -7.299055410073436 ], [ 112.654930476211348, -7.294660987237876 ], [ 112.651213169667926, -7.290648994828473 ], [ 112.647752640566409, -7.285931026486935 ], [ 112.645919540938394, -7.284232568334517 ], [ 112.642913681801133, -7.278892771214942 ], [ 112.64052262243149, -7.276887448267871 ], [ 112.63740195277262, -7.280255504932541 ], [ 112.634587318897161, -7.282863403499391 ], [ 112.632096416427089, -7.282764675795988 ], [ 112.627765154200006, -7.284448181599998 ], [ 112.628734451739092, -7.287149602684565 ], [ 112.627987374434042, -7.296986107555142 ], [ 112.626504366256995, -7.299715202542529 ], [ 112.6286797018264, -7.301658847052579 ], [ 112.629082247080078, -7.305521667679955 ], [ 112.629925698199145, -7.305850940899916 ], [ 112.629082247080078, -7.306180214119991 ], [ 112.629082247080078, -7.308155853439985 ], [ 112.634787934595579, -7.311011269644609 ], [ 112.63500916504006, -7.311448585639937 ], [ 112.636326257920132, -7.311448585639937 ], [ 112.636326257920132, -7.312107132079973 ], [ 112.636984804360054, -7.312107132079973 ], [ 112.636984804360054, -7.312765678520009 ], [ 112.643204569288059, -7.313789924431831 ], [ 112.648947919035891, -7.314508280265329 ], [ 112.648390205485498, -7.318992045392235 ], [ 112.651107126568149, -7.321167722614632 ], [ 112.649955705306297, -7.327377921255447 ], [ 112.649131487248042, -7.32952218648802 ], [ 112.648838640280019, -7.331204978839992 ], [ 112.650541213342876, -7.332267650679398 ], [ 112.653026498633608, -7.332067954429988 ], [ 112.659461278934259, -7.337578346991904 ], [ 112.664055558797145, -7.340141659826429 ], [ 112.671640408820167, -7.342927037141351 ], [ 112.678826991789947, -7.344022145930069 ], [ 112.680753654130058, -7.345388215789797 ], [ 112.684095363310007, -7.346656331690099 ], [ 112.684400148040027, -7.347010093399945 ] ] ] } },
{ "type": "Feature", "properties": { "FID": 21, "OBJECTID": 22, "Id": 22, "gridcode": 3, "Shape_Leng": 1.08008863964, "Shape_Area": 0.0089325744076200007 }, "geometry": { "type": "Polygon", "coordinates": [ [ [ 112.716010377160046, -7.339766082560004 ], [ 112.716404001750334, -7.341923953625724 ], [ 112.719121440337062, -7.342742122413711 ], [ 112.720776860244882, -7.344663579568191 ], [ 112.723509010013004, -7.345882708439888 ], [ 112.72587763081151, -7.348631971010036 ], [ 112.732827799869938, -7.348022401549883 ], [ 112.73343736933009, -7.346656331690099 ], [ 112.73612053206989, -7.346046762229832 ], [ 112.736730101530156, -7.345339238810084 ], [ 112.742047450029872, -7.344729669349817 ], [ 112.742864061281693, -7.341135156957478 ], [ 112.750061486713662, -7.342705053050054 ], [ 112.75331036673083, -7.342082530917139 ], [ 112.754943418407606, -7.336658496205871 ], [ 112.76013298864018, -7.33779044324001 ], [ 112.761114899710719, -7.335116585523451 ], [ 112.762154670742461, -7.326046599527842 ], [ 112.763474697819788, -7.323680671759746 ], [ 112.765825914406378, -7.318411476252891 ], [ 112.767262143739686, -7.316744440139018 ], [ 112.771247406816428, -7.313918737707183 ], [ 112.778538204037091, -7.313332923187602 ], [ 112.784829263932693, -7.316140116059103 ], [ 112.789790891241182, -7.320414799524258 ], [ 112.795166622230454, -7.332462091499906 ], [ 112.799017917089259, -7.336932280939493 ], [ 112.805712730585242, -7.3416791591643 ], [ 112.810890302764051, -7.343859639627794 ], [ 112.814792343160093, -7.345034454080007 ], [ 112.815804661358584, -7.344729669349817 ], [ 112.819920797678151, -7.343218105503468 ], [ 112.823682720100123, -7.343520378078267 ], [ 112.825945408333723, -7.343338568374634 ], [ 112.825589928309569, -7.33891435137707 ], [ 112.82634140439859, -7.336168565629919 ], [ 112.826950953761639, -7.333485402890119 ], [ 112.829962224081441, -7.329845008493237 ], [ 112.832808676915761, -7.325300459256709 ], [ 112.837560730180485, -7.322324027506625 ], [ 112.835726394572021, -7.319736959731529 ], [ 112.839715516319643, -7.319009288826237 ], [ 112.842335533523737, -7.317547495800738 ], [ 112.845200335140476, -7.310620207452814 ], [ 112.846254535992216, -7.307118765390044 ], [ 112.845941019010297, -7.303216755139999 ], [ 112.846126215099275, -7.300911842599987 ], [ 112.846002154822031, -7.299368002582185 ], [ 112.846886252613672, -7.296960563959999 ], [ 112.846045584962781, -7.294671347366261 ], [ 112.84610147539388, -7.293975781805727 ], [ 112.84538657628616, -7.293359881714196 ], [ 112.845591387284003, -7.290810968553842 ], [ 112.844731707641472, -7.290070314829791 ], [ 112.843906595256158, -7.285546968184008 ], [ 112.842402316660241, -7.282850792479792 ], [ 112.841183177739822, -7.280118652760166 ], [ 112.839447780855835, -7.277008252792086 ], [ 112.832219325281471, -7.274265200269895 ], [ 112.83160977591865, -7.273557676849975 ], [ 112.829585139521441, -7.272948107389823 ], [ 112.82897559015862, -7.271582037530095 ], [ 112.828268046641483, -7.270972468069772 ], [ 112.827658497278549, -7.269662469516504 ], [ 112.83605990831029, -7.267132995413874 ], [ 112.83174671852862, -7.261625537049213 ], [ 112.828286315034916, -7.263082853413948 ], [ 112.825872776899473, -7.261371573220856 ], [ 112.818092772603904, -7.25902918937237 ], [ 112.81579849150512, -7.257749120637357 ], [ 112.814133796720057, -7.257882882858667 ], [ 112.811303703040835, -7.257655477536161 ], [ 112.809870829947272, -7.254444375310641 ], [ 112.806326862119477, -7.25574582751176 ], [ 112.806646810219149, -7.251763825212379 ], [ 112.804577095707145, -7.251930129893424 ], [ 112.803950825438619, -7.249850005010046 ], [ 112.803597053680051, -7.24954522027997 ], [ 112.799660687193978, -7.249172431505826 ], [ 112.785637514731434, -7.250389450167063 ], [ 112.770345663645799, -7.249783342456908 ], [ 112.763946078641084, -7.248444418947315 ], [ 112.759830123196707, -7.247001788642535 ], [ 112.755341695509628, -7.244626741750722 ], [ 112.747961375122713, -7.238007152233024 ], [ 112.746551141572581, -7.238063047688513 ], [ 112.744293095801936, -7.23562600582818 ], [ 112.741376965827953, -7.229447000619928 ], [ 112.740693317932141, -7.228813560660058 ], [ 112.738742780068151, -7.22220298977993 ], [ 112.736291670137803, -7.216586262708233 ], [ 112.730087571010245, -7.212579954050227 ], [ 112.724671454612576, -7.21103280677994 ], [ 112.718684857891276, -7.212601468148193 ], [ 112.71535183072001, -7.214642258959998 ], [ 112.714688139385999, -7.215954206945923 ], [ 112.713376191400016, -7.216617898279992 ], [ 112.712127027199472, -7.218427124896209 ], [ 112.711027145315597, -7.218180554340961 ], [ 112.710742005639986, -7.218593537599929 ], [ 112.711162851945119, -7.22196196355145 ], [ 112.708107819880183, -7.22320336268001 ], [ 112.70748734766596, -7.22526420928358 ], [ 112.704639668899517, -7.231646013253112 ], [ 112.700178332295195, -7.237412861701443 ], [ 112.699197154773742, -7.237334025243683 ], [ 112.692875356145919, -7.242747659632016 ], [ 112.686705713740366, -7.24618992536432 ], [ 112.680827591884963, -7.247798664402183 ], [ 112.676802375490297, -7.248532912130088 ], [ 112.674446526489305, -7.249398048173646 ], [ 112.665162213451595, -7.251507278888369 ], [ 112.657999892877797, -7.254703237841795 ], [ 112.651324704339004, -7.259496389967182 ], [ 112.650460517890224, -7.261045294490089 ], [ 112.649613454291739, -7.266604106333432 ], [ 112.645097362750448, -7.270140909494103 ], [ 112.638620699796661, -7.274287583573653 ], [ 112.635376512486005, -7.269108041865138 ], [ 112.632728740989933, -7.267630758890107 ], [ 112.631716432840108, -7.267325974159917 ], [ 112.631408224042389, -7.274800344617063 ], [ 112.626618747199927, -7.276760574376453 ], [ 112.628165021496216, -7.27884617575836 ], [ 112.62616118323308, -7.282168159494745 ], [ 112.627393485847165, -7.284161303512917 ], [ 112.627765154200006, -7.284448181599998 ], [ 112.632096416427089, -7.282764675795988 ], [ 112.634587318897161, -7.282863403499391 ], [ 112.63740195277262, -7.280255504932541 ], [ 112.64052262243149, -7.276887448267871 ], [ 112.642913681801133, -7.278892771214942 ], [ 112.645919540938394, -7.284232568334517 ], [ 112.647752640566409, -7.285931026486935 ], [ 112.651213169667926, -7.290648994828473 ], [ 112.654930476211348, -7.294660987237876 ], [ 112.660661044112885, -7.299055410073436 ], [ 112.664411003651139, -7.301039701256343 ], [ 112.668278316012334, -7.302545657971962 ], [ 112.67010009586852, -7.304511851588131 ], [ 112.677497961147992, -7.306496936612064 ], [ 112.67944849901221, -7.307839130947912 ], [ 112.682975866517495, -7.309503845830193 ], [ 112.68650227940384, -7.312090391076993 ], [ 112.688009602732222, -7.314424595347759 ], [ 112.690542377806878, -7.318105324910221 ], [ 112.694595067132127, -7.329571163467847 ], [ 112.697405324833198, -7.331632427089232 ], [ 112.699159120742706, -7.333525255721838 ], [ 112.699887917093406, -7.333496365935787 ], [ 112.701180531532259, -7.335498081427829 ], [ 112.702839448360123, -7.33779044324001 ], [ 112.704831979412461, -7.336546785683709 ], [ 112.712363883250191, -7.338802751389835 ], [ 112.716010377160046, -7.339766082560004 ], [ 112.715186078713032, -7.338876437929287 ], [ 112.709967508159821, -7.33504873723291 ], [ 112.707765995932164, -7.330888256347919 ], [ 112.707132550947904, -7.329546062012071 ], [ 112.706011476522008, -7.328507325988426 ], [ 112.705131810172134, -7.3243027919479 ], [ 112.704498365187874, -7.320326411852079 ], [ 112.703177835679412, -7.317830836773112 ], [ 112.701542322090404, -7.309264276651845 ], [ 112.698847623533538, -7.303554479250465 ], [ 112.692909843014036, -7.297145981118661 ], [ 112.690022904284547, -7.295618359575542 ], [ 112.687923646826334, -7.294627635864003 ], [ 112.686717611307927, -7.293326007812084 ], [ 112.678257164626757, -7.292169743114584 ], [ 112.677497961147992, -7.291350368492033 ], [ 112.669612009214575, -7.289152162260791 ], [ 112.665087923995088, -7.28623072661469 ], [ 112.661897346078376, -7.28159406166742 ], [ 112.660375758732243, -7.275787099123079 ], [ 112.661565852113085, -7.26914639242807 ], [ 112.66550305263479, -7.264139641785619 ], [ 112.668886644467648, -7.262349213627601 ], [ 112.671571048212286, -7.261082338732137 ], [ 112.674048369970706, -7.259771460924412 ], [ 112.678673559392564, -7.259588138903268 ], [ 112.688914249954337, -7.260655317549265 ], [ 112.690643788492366, -7.259740134347794 ], [ 112.695645650480287, -7.258156536960144 ], [ 112.70682330463012, -7.251312531584915 ], [ 112.709083088812122, -7.250520484187746 ], [ 112.711264463602902, -7.249829857524503 ], [ 112.714824931266548, -7.247945841532783 ], [ 112.729594022930542, -7.247360449055236 ], [ 112.738084233627887, -7.249203391307731 ], [ 112.740034771492219, -7.249887049252209 ], [ 112.743063707288115, -7.250608535231208 ], [ 112.745986790907864, -7.252496123507797 ], [ 112.749163340949394, -7.25468196993495 ], [ 112.753459548561295, -7.256955309707109 ], [ 112.757538515031115, -7.258384967241966 ], [ 112.76210862796006, -7.25856610871233 ], [ 112.777170486203204, -7.257969115101616 ], [ 112.785021795515036, -7.260157659583513 ], [ 112.790414528771407, -7.263328014650142 ], [ 112.795173455292684, -7.268959493097725 ], [ 112.796627711852352, -7.274509487275907 ], [ 112.796752576019685, -7.277659604419341 ], [ 112.795708463983601, -7.284213918093599 ], [ 112.791764380156565, -7.290321660992333 ], [ 112.78619404756887, -7.293732343908232 ], [ 112.78060456230935, -7.295691433149045 ], [ 112.767693711923584, -7.297935832892051 ], [ 112.766401740596507, -7.298619480787863 ], [ 112.762651313797505, -7.299806876113848 ], [ 112.756677046734239, -7.303664762868266 ], [ 112.752912843275453, -7.3091350413344 ], [ 112.750489638366503, -7.315357881140585 ], [ 112.7491978780605, -7.31779907308146 ], [ 112.746509047898371, -7.329087272113213 ], [ 112.745303143012052, -7.33020460845205 ], [ 112.741597422528912, -7.335943225299104 ], [ 112.736296583913713, -7.340008113650526 ], [ 112.729708868622424, -7.342317075784933 ], [ 112.721799840030371, -7.341370656444326 ], [ 112.716010377160046, -7.339766082560004 ] ], [ [ 112.636984804360054, -7.275887077879986 ], [ 112.636039379832937, -7.275157331934281 ], [ 112.637591148212778, -7.274344699936648 ], [ 112.636984804360054, -7.275887077879986 ] ], [ [ 112.826646179080058, -7.330546432399956 ], [ 112.823110953552941, -7.330209029845435 ], [ 112.819899132850878, -7.327729914408053 ], [ 112.819212590952247, -7.323084115264066 ], [ 112.822133906014756, -7.319299402569357 ], [ 112.826297471826706, -7.318684125492268 ], [ 112.82999098323512, -7.320893154088651 ], [ 112.831158110492311, -7.324896012301394 ], [ 112.829666814714756, -7.328539752889014 ], [ 112.826933067215691, -7.330174764047058 ], [ 112.826646179080058, -7.330546432399956 ] ] ] } },
{ "type": "Feature", "properties": { "FID": 22, "OBJECTID": 23, "Id": 23, "gridcode": 5, "Shape_Leng": 0.10206719252099999, "Shape_Area": 0.00031963177831800002 }, "geometry": { "type": "Polygon", "coordinates": [ [ [ 112.648838640280019, -7.331204978839992 ], [ 112.649131487248042, -7.335521956951879 ], [ 112.653491629212681, -7.338586716082375 ], [ 112.656360430180712, -7.343467070142765 ], [ 112.654647014655666, -7.357181136968052 ], [ 112.656448350592086, -7.356595443031836 ], [ 112.658415669653664, -7.354138705873879 ], [ 112.660399629231961, -7.353302710831883 ], [ 112.662578059776706, -7.351711411176097 ], [ 112.668265760260169, -7.351003948048117 ], [ 112.673898288788564, -7.35170454796787 ], [ 112.67888749453823, -7.35027806579734 ], [ 112.682058809248247, -7.347961486808117 ], [ 112.684400148040027, -7.347010093399945 ], [ 112.684095363310007, -7.346656331690099 ], [ 112.680753654130058, -7.345388215789797 ], [ 112.678826991789947, -7.344022145930069 ], [ 112.671640408820167, -7.342927037141351 ], [ 112.664055558797145, -7.340141659826429 ], [ 112.659461278934259, -7.337578346991904 ], [ 112.653026498633608, -7.332067954429988 ], [ 112.650541213342876, -7.332267650679398 ], [ 112.648838640280019, -7.331204978839992 ] ] ] } }
]
}
