{
"type": "FeatureCollection",
"name": "pu2025",
"crs": { "type": "name", "properties": { "name": "urn:ogc:def:crs:OGC:1.3:CRS84" } },
"features": [
{ "type": "Feature", "properties": { "OBJECTID": 1, "Nama_Jalan": "Jl. Patemon Barat, Petemon, Sawahan", "Luas__ha_": "0.390313977", "Tinggi__cm": "8.5", "Lama__meni": "35.5", "result_num": "0", "osm_id": "1159369572", "display_na": "Jalan Patemon Barat, RW 01, Kupang Krajan, Sawahan, Surabaya, Jawa, 60263, Indonesia", "category": "highway", "type": "residential", "latlong": "-7.266480199999999,112.7134004" }, "geometry": { "type": "Point", "coordinates": [ 112.713400400008481, -7.266480200400906 ] } },
{ "type": "Feature", "properties": { "OBJECTID": 2, "Nama_Jalan": "Jl. Koblen, Bubutan, Bubutan", "Luas__ha_": "0.257254175", "Tinggi__cm": "10", "Lama__meni": "39", "result_num": "0", "osm_id": "455433680", "display_na": "Jalan Koblen Kidul, RW 01, Bubutan, Surabaya, Jawa, 60179, Indonesia", "category": "highway", "type": "residential", "latlong": "-7.2539359,112.7321741" }, "geometry": { "type": "Point", "coordinates": [ 112.73217410025461, -7.253935899821897 ] } },
{ "type": "Feature", "properties": { "OBJECTID": 3, "Nama_Jalan": "Jl. Jakarta, Ampel, Semampir", "Luas__ha_": "0.438506474", "Tinggi__cm": "10", "Lama__meni": "30", "result_num": "0", "osm_id": "137460686", "display_na": "Jalan Jakarta, RW 15, Ujung, Semampir, Surabaya, Jawa, 60151, Indonesia", "category": "highway", "type": "trunk", "latlong": "-7.2224037999999995,112.73948809999999" }, "geometry": { "type": "Point", "coordinates": [ 112.739488100295603, -7.222403800095265 ] } },
{ "type": "Feature", "properties": { "OBJECTID": 4, "Nama_Jalan": "Taman Apsari, Embong Kaliasin, Genteng", "Luas__ha_": "0.374161531", "Tinggi__cm": "16.5", "Lama__meni": "15", "result_num": "0", "osm_id": "280320641", "display_na": "Taman Apsari, RW 02, Embong Kaliasin, Genteng, Surabaya, Jawa, 60271, Indonesia", "category": "leisure", "type": "park", "latlong": "-7.263798599999999,112.7427858" }, "geometry": { "type": "Point", "coordinates": [ 112.742785800024762, -7.263798600125256 ] } },
{ "type": "Feature", "properties": { "OBJECTID": 5, "Nama_Jalan": "Pasar Krembangan, Krembangan, Krembangan", "Luas__ha_": "0.603830584", "Tinggi__cm": "7", "Lama__meni": "3", "result_num": "0", "osm_id": "451492077", "display_na": "Pasar Krembangan, Jalan Krembangan Besar, RW 12, Krembangan Selatan, Krembangan, Surabaya, Jawa, 60175, Indonesia", "category": "amenity", "type": "marketplace", "latlong": "-7.23680755,112.73253794680551" }, "geometry": { "type": "Point", "coordinates": [ 112.732537947068636, -7.23680754972861 ] } },
{ "type": "Feature", "properties": { "OBJECTID": 6, "Nama_Jalan": "Jl. Dharmahusada Indah, Mojo, Gubeng", "Luas__ha_": "0,144136522", "Tinggi__cm": "9", "Lama__meni": "3", "result_num": "0", "osm_id": "156236341", "display_na": "Jalan Dharmahusada Indah Barat II, RW 04, Mojo, Gubeng, Surabaya, Jawa, 60285, Indonesia", "category": "highway", "type": "residential", "latlong": "-7.2725257,112.772516" }, "geometry": { "type": "Point", "coordinates": [ 112.772516000113342, -7.272525700400706 ] } },
{ "type": "Feature", "properties": { "OBJECTID": 7, "Nama_Jalan": "Kp. Manyar Sabrangan, Manyar Sabrangan, Mulyorejo", "Luas__ha_": "0,279105041", "Tinggi__cm": "7,5", "Lama__meni": "3", "result_num": "0", "osm_id": "8225338", "display_na": "Manyar Sabrangan, Mulyorejo, Surabaya, Jawa, Indonesia", "category": "boundary", "type": "administrative", "latlong": "-7.283114599999999,112.7660008" }, "geometry": { "type": "Point", "coordinates": [ 112.766000800396682, -7.283114599658973 ] } },
{ "type": "Feature", "properties": { "OBJECTID": 8, "Nama_Jalan": "Jl. Raden Saleh, Bubutan, Bubutan", "Luas__ha_": "0,728300419", "Tinggi__cm": "25", "Lama__meni": "22", "result_num": "0", "osm_id": "156488708", "display_na": "Jalan Raden Saleh, RW 11, Bubutan, Surabaya, Jawa, 60179, Indonesia", "category": "highway", "type": "unclassified", "latlong": "-7.2507953999999994,112.7328836" }, "geometry": { "type": "Point", "coordinates": [ 112.732883599698425, -7.250795399787819 ] } },
{ "type": "Feature", "properties": { "OBJECTID": 9, "Nama_Jalan": "Jl. Dupak, Gundih, Bubutan", "Luas__ha_": "0,939648899", "Tinggi__cm": "3", "Lama__meni": "35,5", "result_num": "0", "osm_id": "747530107", "display_na": "Jalan Raya Dupak, RW 03, Gundih, Bubutan, Surabaya, Jawa, 60174, Indonesia", "category": "highway", "type": "secondary", "latlong": "-7.2460089,112.7329305" }, "geometry": { "type": "Point", "coordinates": [ 112.732930500242446, -7.246008900290462 ] } },
{ "type": "Feature", "properties": { "OBJECTID": 10, "Nama_Jalan": "Jl. Raya Dupak, Gundih, Bubutan", "Luas__ha_": "0,926251061", "Tinggi__cm": "8", "Lama__meni": "37,5", "result_num": "0", "osm_id": "557566179", "display_na": "Jalan Raya Dupak, RW 01, Gundih, Bubutan, Surabaya, Jawa, 60172, Indonesia", "category": "highway", "type": "secondary", "latlong": "-7.2454049,112.7301246" }, "geometry": { "type": "Point", "coordinates": [ 112.730124600170257, -7.245404900315862 ] } },
{ "type": "Feature", "properties": { "OBJECTID": 11, "Nama_Jalan": "Jl. Pasar Krembangan, Krembangan, Krembangan", "Luas__ha_": "0,269066667", "Tinggi__cm": "7,5", "Lama__meni": "15", "result_num": "0", "osm_id": "160153127", "display_na": "Jalan Krembangan Pasar, RW 12, Krembangan Selatan, Krembangan, Surabaya, Jawa, 60175, Indonesia", "category": "highway", "type": "residential", "latlong": "-7.2370657,112.7318914" }, "geometry": { "type": "Point", "coordinates": [ 112.731891400168024, -7.237065700121889 ] } },
{ "type": "Feature", "properties": { "OBJECTID": 12, "Nama_Jalan": "Jl. Dharmawangsa, Airlangga, Gubeng", "Luas__ha_": "1.576844067", "Tinggi__cm": "8", "Lama__meni": "15", "result_num": "0", "osm_id": "319633178", "display_na": "Jalan Lapangan Dharmawangsa, RW 01, Airlangga, Gubeng, Surabaya, Jawa, 60286, Indonesia", "category": "highway", "type": "living_street", "latlong": "-7.2676281,112.75536559999999" }, "geometry": { "type": "Point", "coordinates": [ 112.755365600442133, -7.267628099557101 ] } },
{ "type": "Feature", "properties": { "OBJECTID": 13, "Nama_Jalan": "Jl. Bulak Cumpat, Bulak, Bulak", "Luas__ha_": "0.073030209", "Tinggi__cm": "9", "Lama__meni": "5", "result_num": "0", "osm_id": "160145287", "display_na": "Jalan Bulak Cumpat Utara IV, RW 10, Tanah Kali Kedinding, Kenjeran, Surabaya, Jawa Timur, Jawa, 60124, Indonesia", "category": "highway", "type": "living_street", "latlong": "-7.2300116,112.7821917" }, "geometry": { "type": "Point", "coordinates": [ 112.782191699887107, -7.230011599655541 ] } },
{ "type": "Feature", "properties": { "OBJECTID": 14, "Nama_Jalan": "Jl. Ploso, Ploso, Tambaksari", "Luas__ha_": "0.176439738", "Tinggi__cm": "10", "Lama__meni": "15.5", "result_num": "0", "osm_id": "8225118", "display_na": "Ploso, Tambaksari, Surabaya, Jawa, 60133, Indonesia", "category": "boundary", "type": "administrative", "latlong": "-7.2537739,112.77166009999999" }, "geometry": { "type": "Point", "coordinates": [ 112.771660100033614, -7.253773900445083 ] } },
{ "type": "Feature", "properties": { "OBJECTID": 15, "Nama_Jalan": "Jl. Kertajaya Indah, Manyar Sabrangan, Mulyorejo", "Luas__ha_": "6.643238571", "Tinggi__cm": "9.5", "Lama__meni": "15.5", "result_num": "0", "osm_id": "297150516", "display_na": "Jalan Raya Kertajaya Indah, RW 09, Manyar Sabrangan, Mulyorejo, Surabaya, Jawa, 60115, Indonesia", "category": "highway", "type": "secondary", "latlong": "-7.2800942,112.7854931" }, "geometry": { "type": "Point", "coordinates": [ 112.785493100326335, -7.280094199587609 ] } },
{ "type": "Feature", "properties": { "OBJECTID": 16, "Nama_Jalan": "Jl. Karang Tembok, Pegirian, Semampir", "Luas__ha_": "0.252343423", "Tinggi__cm": "9", "Lama__meni": "16", "result_num": "0", "osm_id": "454210959", "display_na": "Jalan Karang Tembok, RW 04, Pegirian, Semampir, Surabaya, Jawa Timur, Jawa, 60151, Indonesia", "category": "highway", "type": "tertiary", "latlong": "-7.2246821,112.74730749999999" }, "geometry": { "type": "Point", "coordinates": [ 112.747307500440797, -7.224682100298651 ] } },
{ "type": "Feature", "properties": { "OBJECTID": 17, "Nama_Jalan": "Kp. Bulak Banteng, Bulak Banteng, Kenjeran", "Luas__ha_": "0.282032163", "Tinggi__cm": "3.5", "Lama__meni": "15.5", "result_num": "0", "osm_id": "321182312", "display_na": "Jalan Dukuh Bulak Banteng, RW 02, Bulak Banteng, Kenjeran, Surabaya, Jawa Timur, Jawa, 60126, Indonesia", "category": "highway", "type": "residential", "latlong": "-7.2113488,112.7640347" }, "geometry": { "type": "Point", "coordinates": [ 112.764034699841545, -7.211348800206906 ] } },
{ "type": "Feature", "properties": { "OBJECTID": 18, "Nama_Jalan": "Jl. Tenggumung Baru, Wonokusumo, Semampir", "Luas__ha_": "0.180090298", "Tinggi__cm": "2", "Lama__meni": "12", "result_num": "0", "osm_id": "160130606", "display_na": "Jalan Tenggumung Baru Mulya II, RW 09, Pegirian, Semampir, Surabaya, Jawa, 60128, Indonesia", "category": "highway", "type": "living_street", "latlong": "-7.226190399999999,112.7574296" }, "geometry": { "type": "Point", "coordinates": [ 112.757429600295836, -7.226190400066855 ] } },
{ "type": "Feature", "properties": { "OBJECTID": 19, "Nama_Jalan": "Jl. Bulaksari, Wonokusumo, Semampir", "Luas__ha_": "0.222920305", "Tinggi__cm": "10", "Lama__meni": "15", "result_num": "0", "osm_id": "577909016", "display_na": "Jalan Bulaksari, RW 06, Wonokusumo, Semampir, Surabaya, Jawa, 60155, Indonesia", "category": "highway", "type": "tertiary", "latlong": "-7.2146339,112.7534306" }, "geometry": { "type": "Point", "coordinates": [ 112.753430600242041, -7.214633900434137 ] } },
{ "type": "Feature", "properties": { "OBJECTID": 20, "Nama_Jalan": "Kp. Karang Empat, Ploso, Tambaksari", "Luas__ha_": "0.488505252", "Tinggi__cm": "8", "Lama__meni": "33", "result_num": "0", "osm_id": "156520397", "display_na": "Jalan Karang Empat XVI, RW 08, Ploso, Tambaksari, Surabaya, Jawa, 60114, Indonesia", "category": "highway", "type": "residential", "latlong": "-7.2525432,112.780315" }, "geometry": { "type": "Point", "coordinates": [ 112.780315000037263, -7.25254319980877 ] } },
{ "type": "Feature", "properties": { "OBJECTID": 21, "Nama_Jalan": "Jl. Flores, Ngagel, Wonokromo", "Luas__ha_": "0.752925057", "Tinggi__cm": "8", "Lama__meni": "15.5", "result_num": "0", "osm_id": "369249676", "display_na": "Jalan Flores, RW 04, Ngagel, Wonokromo, Surabaya, Jawa Timur, Jawa, 60281, Indonesia", "category": "highway", "type": "residential", "latlong": "-7.2787225,112.7491105" }, "geometry": { "type": "Point", "coordinates": [ 112.749110499949666, -7.278722499643607 ] } },
{ "type": "Feature", "properties": { "OBJECTID": 22, "Nama_Jalan": "Jl. Pucang Anom, Kertajaya, Gubeng", "Luas__ha_": "0.549065412", "Tinggi__cm": "2.5", "Lama__meni": "12.5", "result_num": "0", "osm_id": "763934914", "display_na": "Jalan Pucang Anom Timur V, RW 02, Kertajaya, Gubeng, Surabaya, Jawa, 60282, Indonesia", "category": "highway", "type": "residential", "latlong": "-7.286216,112.7594293" }, "geometry": { "type": "Point", "coordinates": [ 112.759429300421971, -7.286215999868432 ] } },
{ "type": "Feature", "properties": { "OBJECTID": 23, "Nama_Jalan": "Jl. Keputih I, Keputih, Sukolilo", "Luas__ha_": "0.255874359", "Tinggi__cm": "7.5", "Lama__meni": "2.5", "result_num": "0", "osm_id": "160222007", "display_na": "Jalan Keputih Tegal Timur I, RW 02, Keputih, Sukolilo, Surabaya, Jawa, 60111, Indonesia", "category": "highway", "type": "residential", "latlong": "-7.2898286,112.8034715" }, "geometry": { "type": "Point", "coordinates": [ 112.803471500409501, -7.289828599909924 ] } },
{ "type": "Feature", "properties": { "OBJECTID": 24, "Nama_Jalan": "Jl. Karangrejo, Wonokromo, Wonokromo", "Luas__ha_": "10.124213", "Tinggi__cm": "8", "Lama__meni": "20", "result_num": "0", "osm_id": "160229650", "display_na": "Jalan Karangrejo VI, RW 01, Wonokromo, Surabaya, Jawa, 60224, Indonesia", "category": "highway", "type": "residential", "latlong": "-7.307175099999999,112.72670169999999" }, "geometry": { "type": "Point", "coordinates": [ 112.726701700423177, -7.307175100350548 ] } },
{ "type": "Feature", "properties": { "OBJECTID": 25, "Nama_Jalan": "Jl. Nambangan, Kedung Cowek, Bulak", "Luas__ha_": "0.75064094", "Tinggi__cm": "14", "Lama__meni": "35", "result_num": "0", "osm_id": "69358313", "display_na": "Jalan Nambangan, RW 01, Tanah Kali Kedinding, Kenjeran, Surabaya, Jawa, 60129, Indonesia", "category": "highway", "type": "tertiary", "latlong": "-7.222088599999999,112.7821742" }, "geometry": { "type": "Point", "coordinates": [ 112.782174199979409, -7.222088600308609 ] } },
{ "type": "Feature", "properties": { "OBJECTID": 26, "Nama_Jalan": "Jl. Raya Gubeng, Gubeng, Gubeng", "Luas__ha_": "0.268556207", "Tinggi__cm": "3.5", "Lama__meni": "4", "result_num": "0", "osm_id": "656016105", "display_na": "Jalan Raya Gubeng, RW 04, Gubeng, Surabaya, Jawa, 60281, Indonesia", "category": "highway", "type": "trunk", "latlong": "-7.2722282,112.7483841" }, "geometry": { "type": "Point", "coordinates": [ 112.748384100445946, -7.272228200171241 ] } },
{ "type": "Feature", "properties": { "OBJECTID": 27, "Nama_Jalan": "Jl. Jawa, Gubeng, Gubeng", "Luas__ha_": "0.182787861", "Tinggi__cm": "4", "Lama__meni": "5", "result_num": "0", "osm_id": "4190983276", "display_na": "KOST JL. GUBENG KERTAJAYA 5F, Jalan Gubeng Airlangga V, RW 02, Airlangga, Gubeng, Surabaya, Jawa, 60286, Indonesia", "category": "building", "type": "residential", "latlong": "-7.273748,112.7543329" }, "geometry": { "type": "Point", "coordinates": [ 112.754332899943392, -7.273747999570503 ] } },
{ "type": "Feature", "properties": { "OBJECTID": 28, "Nama_Jalan": "Jl. Karang Menjangan, Mojo, Gubeng", "Luas__ha_": "0.493641339", "Tinggi__cm": "16.5", "Lama__meni": "15.5", "result_num": "0", "osm_id": "1125334938", "display_na": "Jalan Karang Menjangan, RW 09, Mojo, Gubeng, Surabaya, Jawa, 60286, Indonesia", "category": "highway", "type": "secondary", "latlong": "-7.2728005,112.7616929" }, "geometry": { "type": "Point", "coordinates": [ 112.761692900307139, -7.27280049994306 ] } },
{ "type": "Feature", "properties": { "OBJECTID": 29, "Nama_Jalan": "Jl. Randu, Sidotopo Wetan, Kenjeran", "Luas__ha_": "0.664856664", "Tinggi__cm": "29.5", "Lama__meni": "42", "result_num": "0", "osm_id": "156519497", "display_na": "Jalan Randu Agung I, RW 10, Sidotopo Wetan, Kenjeran, Surabaya, Jawa, 60128, Indonesia", "category": "highway", "type": "residential", "latlong": "-7.2251438,112.7646865" }, "geometry": { "type": "Point", "coordinates": [ 112.764686499682284, -7.225143799646617 ] } },
{ "type": "Feature", "properties": { "OBJECTID": 30, "Nama_Jalan": "Jl. Kedinding Lor, Tanah Kali, Kenjeran", "Luas__ha_": "0.187913664", "Tinggi__cm": "7", "Lama__meni": "40", "result_num": "0", "osm_id": "321383780", "display_na": "Jalan Kedinding Lor Gang Flamboyan, RW 01, Tanah Kali Kedinding, Kenjeran, Surabaya, Jawa, 60126, Indonesia", "category": "highway", "type": "living_street", "latlong": "-7.219854799999999,112.7717442" }, "geometry": { "type": "Point", "coordinates": [ 112.771744200134776, -7.219854800358689 ] } },
{ "type": "Feature", "properties": { "OBJECTID": 31, "Nama_Jalan": "Kp. Pogot, Tanah Kali, Kenjeran", "Luas__ha_": "0.554392651", "Tinggi__cm": "2.5", "Lama__meni": "15", "result_num": "0", "osm_id": "451283931", "display_na": "Jalan Pogot Baru, RW 06, Tanah Kali Kedinding, Kenjeran, Surabaya, Jawa, 60128, Indonesia", "category": "highway", "type": "residential", "latlong": "-7.2338112,112.7647992" }, "geometry": { "type": "Point", "coordinates": [ 112.764799200023162, -7.233811200226683 ] } },
{ "type": "Feature", "properties": { "OBJECTID": 32, "Nama_Jalan": "Kp. Manyar Sabrangan, Manyar Sabrangan, Mulyorejo", "Luas__ha_": "0.315528879", "Tinggi__cm": "7.5", "Lama__meni": "15", "result_num": "0", "osm_id": "8225338", "display_na": "Manyar Sabrangan, Mulyorejo, Surabaya, Jawa, Indonesia", "category": "boundary", "type": "administrative", "latlong": "-7.283114599999999,112.7660008" }, "geometry": { "type": "Point", "coordinates": [ 112.766000800396682, -7.283114599658973 ] } },
{ "type": "Feature", "properties": { "OBJECTID": 33, "Nama_Jalan": "Jl. Siwalankerto, Siwalankerto, Siwalankerto", "Luas__ha_": "0.400472133", "Tinggi__cm": "9", "Lama__meni": "39", "result_num": "0", "osm_id": "8225464", "display_na": "SiwalanKerto, Wonocolo, Surabaya, Jawa, Indonesia", "category": "boundary", "type": "administrative", "latlong": "-7.3367876999999995,112.73567209999999" }, "geometry": { "type": "Point", "coordinates": [ 112.73567209968769, -7.336787699692536 ] } },
{ "type": "Feature", "properties": { "OBJECTID": 34, "Nama_Jalan": "Jl. Keputih Tegal, Keputih, Sukolilo", "Luas__ha_": "7.32009524", "Tinggi__cm": "9", "Lama__meni": "15", "result_num": "0", "osm_id": "69358383", "display_na": "Jalan Keputih Tegal, RW 08, Keputih, Sukolilo, Surabaya, Jawa, 60296, Indonesia", "category": "highway", "type": "secondary", "latlong": "-7.3012577,112.8000553" }, "geometry": { "type": "Point", "coordinates": [ 112.800055299712426, -7.30125769978298 ] } },
{ "type": "Feature", "properties": { "OBJECTID": 35, "Nama_Jalan": "Jl. Ketintang Madya, Ketintang, Ketintang", "Luas__ha_": "0.22256708", "Tinggi__cm": "8", "Lama__meni": "16", "result_num": "0", "osm_id": "138432257", "display_na": "Jalan Ketintang Madya, RW 04, Ketintang, Gayungan, Surabaya, Jawa, 60223, Indonesia", "category": "highway", "type": "tertiary", "latlong": "-7.3121646,112.72391669999999" }, "geometry": { "type": "Point", "coordinates": [ 112.723916699696019, -7.312164600216079 ] } },
{ "type": "Feature", "properties": { "OBJECTID": 36, "Nama_Jalan": "Tanjungsari, Tanjungsari, Sukomanunggal", "Luas__ha_": "16.3264381", "Tinggi__cm": "7", "Lama__meni": "15", "result_num": "0", "osm_id": "8224797", "display_na": "Tanjungsari, Sukomanunggal, Surabaya, Jawa, 60187, Indonesia", "category": "boundary", "type": "administrative", "latlong": "-7.2659721,112.69168189999999" }, "geometry": { "type": "Point", "coordinates": [ 112.6916819002995, -7.26597209963262 ] } },
{ "type": "Feature", "properties": { "OBJECTID": 37, "Nama_Jalan": "Karah Agung, Karah, Jambangan", "Luas__ha_": "0.235257041", "Tinggi__cm": "3", "Lama__meni": "15", "result_num": "0", "osm_id": "160229693", "display_na": "Jalan Karah Agung, RW 10, Karah, Jambangan, Surabaya, Jawa, 60222, Indonesia", "category": "highway", "type": "residential", "latlong": "-7.3115241,112.714484" }, "geometry": { "type": "Point", "coordinates": [ 112.71448400033637, -7.311524100356905 ] } },
{ "type": "Feature", "properties": { "OBJECTID": 38, "Nama_Jalan": "Rungkut Kidul, Rungkut Kidul, Rungkut", "Luas__ha_": "1.01215378", "Tinggi__cm": "3", "Lama__meni": "15", "result_num": "0", "osm_id": "8225605", "display_na": "Rungkut Kidul, Rungkut, Surabaya, Jawa, 60293, Indonesia", "category": "boundary", "type": "administrative", "latlong": "-7.3297753,112.7729238" }, "geometry": { "type": "Point", "coordinates": [ 112.772923800393187, -7.329775299890116 ] } },
{ "type": "Feature", "properties": { "OBJECTID": 39, "Nama_Jalan": "Kp. Dukuh Kupang, Pakis, Sawahan", "Luas__ha_": "3.116457227", "Tinggi__cm": "9.5", "Lama__meni": "16", "result_num": "0", "osm_id": "455679654", "display_na": "Jalan Dukuh Kupang Timur X, RW 08, Pakis, Sawahan, Surabaya, Jawa, 60256, Indonesia", "category": "highway", "type": "tertiary", "latlong": "-7.2827617,112.71845649999999" }, "geometry": { "type": "Point", "coordinates": [ 112.718456500067532, -7.282761700292212 ] } },
{ "type": "Feature", "properties": { "OBJECTID": 40, "Nama_Jalan": "Jl. Jurang Kuping, Benowo, Pakal", "Luas__ha_": "0.203993044", "Tinggi__cm": "15", "Lama__meni": "15.5", "result_num": "0", "osm_id": "320141873", "display_na": "Jalan Jurang Kuping, RW 03, Benowo, Pakal, Surabaya, Jawa, 60196, Indonesia", "category": "highway", "type": "tertiary", "latlong": "-7.2412128,112.6079146" }, "geometry": { "type": "Point", "coordinates": [ 112.607914599579203, -7.241212799630944 ] } },
{ "type": "Feature", "properties": { "OBJECTID": 41, "Nama_Jalan": "Jl. Balongsari, Balongsari, Tandes", "Luas__ha_": "1.026001455", "Tinggi__cm": "15", "Lama__meni": "30.5", "result_num": "0", "osm_id": "160025483", "display_na": "Jalan Balongsari Dalam, RW 02, Balongsari, Tandes, Surabaya, Jawa Timur, Jawa, 60185, Indonesia", "category": "highway", "type": "residential", "latlong": "-7.2623341,112.676787" }, "geometry": { "type": "Point", "coordinates": [ 112.676787000319905, -7.262334100038629 ] } },
{ "type": "Feature", "properties": { "OBJECTID": 42, "Nama_Jalan": "Romokalisari, Romokalisari, Benowo", "Luas__ha_": "0.196861172", "Tinggi__cm": "10", "Lama__meni": "12.5", "result_num": "0", "osm_id": "8225107", "display_na": "Romokalisari, Benowo, Surabaya, Jawa, Indonesia", "category": "boundary", "type": "administrative", "latlong": "-7.2075343,112.63567839999999" }, "geometry": { "type": "Point", "coordinates": [ 112.63567839963855, -7.207534299668168 ] } },
{ "type": "Feature", "properties": { "OBJECTID": 43, "Nama_Jalan": "Jl. Pakal, Pakal, Benowo", "Luas__ha_": "6.125225762", "Tinggi__cm": "14", "Lama__meni": "16", "result_num": "0", "osm_id": "6395526577", "display_na": "Kepolisian Sektor Pakal, Jl. Raya Kauman Baru No. 7, Jalan Raya Kauman Baru, RW 06, Benowo, Pakal, Surabaya, Jawa Timur, Jawa, 60195, Indonesia", "category": "amenity", "type": "police", "latlong": "-7.2322653,112.6124039" }, "geometry": { "type": "Point", "coordinates": [ 112.612403900119944, -7.232265299803714 ] } },
{ "type": "Feature", "properties": { "OBJECTID": 44, "Nama_Jalan": "Griya Babatan Mukti, Babatan, Wiyung", "Luas__ha_": "2.945438095", "Tinggi__cm": "8.5", "Lama__meni": "2.5", "result_num": "0", "osm_id": "655073806", "display_na": "Griya Babatan Mukti, RW 07, Babatan, Wiyung, Surabaya, Jawa, Indonesia", "category": "landuse", "type": "residential", "latlong": "-7.313114,112.675744" }, "geometry": { "type": "Point", "coordinates": [ 112.675743999885754, -7.313114000110943 ] } },
{ "type": "Feature", "properties": { "OBJECTID": 45, "Nama_Jalan": "Jl. Margomulyo, Tandes, Tandes", "Luas__ha_": "1.898512447", "Tinggi__cm": "2", "Lama__meni": "16", "result_num": "0", "osm_id": "229871701", "display_na": "Jalan Margomulyo Indah, Grand Pakuwon, RW 04, Manukan Wetan, Tandes, Surabaya, Jawa, 60184, Indonesia", "category": "highway", "type": "unclassified", "latlong": "-7.2467931,112.66940659999999" }, "geometry": { "type": "Point", "coordinates": [ 112.669406599734884, -7.246793100121408 ] } },
{ "type": "Feature", "properties": { "OBJECTID": 46, "Nama_Jalan": "Jl. Mayjend Sungkono, Dukuh Pakis, Dukuh Pakis", "Luas__ha_": "0.41014657", "Tinggi__cm": "15", "Lama__meni": "15.5", "result_num": "0", "osm_id": "709892758", "display_na": "Jalan Mayjend Sungkono, RW 05, Gunungsari, Dukuh Pakis, Surabaya, Jawa Timur, Jawa, 60256, Indonesia", "category": "highway", "type": "secondary", "latlong": "-7.292072,112.722584" }, "geometry": { "type": "Point", "coordinates": [ 112.722583999751805, -7.292072000122687 ] } },
{ "type": "Feature", "properties": { "OBJECTID": 47, "Nama_Jalan": "Lontar Lidah Kulon, Lidah Kulon, Lakarsantri", "Luas__ha_": "1.12636454", "Tinggi__cm": "3.5", "Lama__meni": "16", "result_num": "0", "osm_id": "160108860", "display_na": "Jalan Citra Lakarsantri 4, Citraland, RW 06, Lidah Kulon, Lakarsantri, Surabaya, Jawa Timur, Jawa, 60217, Indonesia", "category": "highway", "type": "residential", "latlong": "-7.2899656,112.6525094" }, "geometry": { "type": "Point", "coordinates": [ 112.652509399689052, -7.28996559993243 ] } },
{ "type": "Feature", "properties": { "OBJECTID": 48, "Nama_Jalan": "Kp. Babatan, Babatan, Wiyung", "Luas__ha_": "0.166650317", "Tinggi__cm": "23", "Lama__meni": "15", "result_num": "0", "osm_id": "655073806", "display_na": "Griya Babatan Mukti, RW 07, Babatan, Wiyung, Surabaya, Jawa Timur, Jawa, Indonesia", "category": "landuse", "type": "residential", "latlong": "-7.313114,112.675744" }, "geometry": { "type": "Point", "coordinates": [ 112.675743999885754, -7.313114000110943 ] } },
{ "type": "Feature", "properties": { "OBJECTID": 49, "Nama_Jalan": "Jl. Wiyung, Wiyung, Wiyung", "Luas__ha_": "0.136299965", "Tinggi__cm": "23.5", "Lama__meni": "16", "result_num": "0", "osm_id": "8225697", "display_na": "Wiyung, Surabaya, Jawa Timur, Jawa, Indonesia", "category": "boundary", "type": "administrative", "latlong": "-7.3109179,112.693824" }, "geometry": { "type": "Point", "coordinates": [ 112.693823999977667, -7.310917899741241 ] } },
{ "type": "Feature", "properties": { "OBJECTID": 50, "Nama_Jalan": "Jl. Jajar Tunggal, Jajar Tunggal, Wiyung", "Luas__ha_": "0.47120641", "Tinggi__cm": "48.5", "Lama__meni": "36.5", "result_num": "0", "osm_id": "428947803", "display_na": "Jalan Raya Jajar Tunggal Utara, Darmo Sentosa Raya, RW 05, Jajar Tunggal, Wiyung, Surabaya, Jawa Timur, Jawa, 60227, Indonesia", "category": "highway", "type": "residential", "latlong": "-7.3029389,112.7048743" }, "geometry": { "type": "Point", "coordinates": [ 112.70487430000901, -7.302938899610467 ] } },
{ "type": "Feature", "properties": { "OBJECTID": 51, "Nama_Jalan": "Jl. Gajah Mada, Sawunggaling, Wonokromo", "Luas__ha_": "0.166143479", "Tinggi__cm": "25", "Lama__meni": "39.5", "result_num": "0", "osm_id": "464007089", "display_na": "Jalan Gajah Mada Trem, RW 08, Sawunggaling, Wonokromo, Surabaya, Jawa, 60224, Indonesia", "category": "highway", "type": "residential", "latlong": "-7.304580199999999,112.72446079999999" }, "geometry": { "type": "Point", "coordinates": [ 112.724460800325687, -7.304580200116106 ] } },
{ "type": "Feature", "properties": { "OBJECTID": 52, "Nama_Jalan": "Kp. Lidah Kulon, Lidah Kulon, Lakarsantri", "Luas__ha_": "0.076829774", "Tinggi__cm": "29", "Lama__meni": "15.5", "result_num": "0", "osm_id": "8225833", "display_na": "Lidah Kulon, Lakarsantri, Surabaya, Jawa, 60213, Indonesia", "category": "boundary", "type": "administrative", "latlong": "-7.302907299999999,112.6560645" }, "geometry": { "type": "Point", "coordinates": [ 112.656064499776903, -7.302907300131722 ] } },
{ "type": "Feature", "properties": { "OBJECTID": 53, "Nama_Jalan": "Jl. Babatan Indah, Babatan, Wiyung", "Luas__ha_": "3.17262381", "Tinggi__cm": "8", "Lama__meni": "15.5", "result_num": "0", "osm_id": "1115314041", "display_na": "Jalan Babatan Indah, Royal Residence, RW 02, Babatan, Wiyung, Surabaya, Jawa, 60228, Indonesia", "category": "highway", "type": "residential", "latlong": "-7.316330799999999,112.67248509999999" }, "geometry": { "type": "Point", "coordinates": [ 112.672485099607684, -7.316330800426044 ] } },
{ "type": "Feature", "properties": { "OBJECTID": 54, "Nama_Jalan": "Jl. Demak, Gundih, Bubutan, Surabaya", "Luas__ha_": "1.774012198", "Tinggi__cm": "24", "Lama__meni": "43.5", "result_num": "0", "osm_id": "156488754", "display_na": "Jalan Demak Timur, RW 06, Gundih, Bubutan, Surabaya, Jawa Timur, Jawa, 60172, Indonesia", "category": "highway", "type": "residential", "latlong": "-7.2478741,112.7229835" }, "geometry": { "type": "Point", "coordinates": [ 112.722983500188434, -7.247874099609987 ] } },
{ "type": "Feature", "properties": { "OBJECTID": 55, "Nama_Jalan": "Jl. Ikan Duyung, Perak Barat, Krembangan, Surabaya", "Luas__ha_": "0.296455638", "Tinggi__cm": "2.5", "Lama__meni": "24.5", "result_num": "0", "osm_id": "137774809", "display_na": "Jalan Ikan Duyung, RW 06, Perak Barat, Krembangan, Surabaya, Jawa Timur, Jawa, 60177, Indonesia", "category": "highway", "type": "residential", "latlong": "-7.2245308,112.7294026" }, "geometry": { "type": "Point", "coordinates": [ 112.729402600149911, -7.224530800156231 ] } },
{ "type": "Feature", "properties": { "OBJECTID": 56, "Nama_Jalan": "Jl. Mojopahit, Keputran, Tegalsari, Surabaya", "Luas__ha_": "0.262836539", "Tinggi__cm": "8", "Lama__meni": "15", "result_num": "0", "osm_id": "367938218", "display_na": "Jalan Mojopahit, RW 06, Keputran, Tegalsari, Surabaya, Jawa Timur, Jawa, 60265, Indonesia", "category": "highway", "type": "tertiary", "latlong": "-7.28153,112.7430506" }, "geometry": { "type": "Point", "coordinates": [ 112.74305060000529, -7.281529999609745 ] } },
{ "type": "Feature", "properties": { "OBJECTID": 57, "Nama_Jalan": "Jl. Tidar, Petemon, Sawahan, Surabaya", "Luas__ha_": "0.978238893", "Tinggi__cm": "2", "Lama__meni": "25", "result_num": "0", "osm_id": "254757793", "display_na": "Jalan Tidar, RW 04, Petemon, Sawahan, Surabaya, Jawa, 60173, Indonesia", "category": "highway", "type": "tertiary", "latlong": "-7.2566497,112.72224329999999" }, "geometry": { "type": "Point", "coordinates": [ 112.722243299688557, -7.256649700323351 ] } },
{ "type": "Feature", "properties": { "OBJECTID": 58, "Nama_Jalan": "Jl. Kranggan, Sawahan, Sawahan, Surabaya", "Luas__ha_": "0.49101716", "Tinggi__cm": "9", "Lama__meni": "14.5", "result_num": "0", "osm_id": "254757787", "display_na": "Jalan Kranggan, RW 08, Sawahan, Surabaya, Jawa, 60251, Indonesia", "category": "highway", "type": "secondary", "latlong": "-7.2562985,112.7311989" }, "geometry": { "type": "Point", "coordinates": [ 112.731198899709511, -7.25629849977588 ] } },
{ "type": "Feature", "properties": { "OBJECTID": 59, "Nama_Jalan": "Jl. Bromo, Sawahan, Sawahan, Surabaya", "Luas__ha_": "0.238284037", "Tinggi__cm": "8", "Lama__meni": "29.5", "result_num": "0", "osm_id": "458445140", "display_na": "Jalan Bromo I, RW 05, Sawahan, Surabaya, Jawa, 60251, Indonesia", "category": "highway", "type": "residential", "latlong": "-7.2627717999999994,112.7259251" }, "geometry": { "type": "Point", "coordinates": [ 112.725925099863503, -7.26277180007844 ] } },
{ "type": "Feature", "properties": { "OBJECTID": 60, "Nama_Jalan": "Jl. Kedungdoro, Kedungdoro, Tegalsari, Surabaya", "Luas__ha_": "0.629924854", "Tinggi__cm": "7", "Lama__meni": "29", "result_num": "0", "osm_id": "8225428", "display_na": "Kedungdoro, Tegalsari, Surabaya, Jawa, Indonesia", "category": "boundary", "type": "administrative", "latlong": "-7.263497699999999,112.7360526" }, "geometry": { "type": "Point", "coordinates": [ 112.736052600147445, -7.263497699559139 ] } },
{ "type": "Feature", "properties": { "OBJECTID": 61, "Nama_Jalan": "Jl. Pawiyatan, Bubutan, Bubutan, Surabaya", "Luas__ha_": "0.763481919", "Tinggi__cm": "24.5", "Lama__meni": "39", "result_num": "0", "osm_id": "583621639", "display_na": "Jalan Pawiyatan, RW 03, Bubutan, Surabaya, Jawa, 60172, Indonesia", "category": "highway", "type": "residential", "latlong": "-7.2512851,112.7305032" }, "geometry": { "type": "Point", "coordinates": [ 112.730503200362477, -7.251285100426969 ] } },
{ "type": "Feature", "properties": { "OBJECTID": 62, "Nama_Jalan": "Jl. Embong Wungu, Embong Kaliasin, Genteng, Surabaya", "Luas__ha_": "0.295811195", "Tinggi__cm": "18", "Lama__meni": "14.5", "result_num": "0", "osm_id": "151199801", "display_na": "Jalan Embong Wungu, RW 03, Embong Kaliasin, Genteng, Surabaya, Jawa, 68485, Indonesia", "category": "highway", "type": "unclassified", "latlong": "-7.2660256,112.7428973" }, "geometry": { "type": "Point", "coordinates": [ 112.742897299770675, -7.266025600301191 ] } },
{ "type": "Feature", "properties": { "OBJECTID": 63, "Nama_Jalan": "Jl. Pacuan Kuda, Petemon, Sawahan, Surabaya", "Luas__ha_": "0.262594519", "Tinggi__cm": "3.5", "Lama__meni": "25", "result_num": "0", "osm_id": "156488639", "display_na": "Jalan Pacuan Kuda, RW 18, Petemon, Sawahan, Surabaya, Jawa, 60173, Indonesia", "category": "highway", "type": "residential", "latlong": "-7.2609354999999995,112.7168538" }, "geometry": { "type": "Point", "coordinates": [ 112.716853800262697, -7.260935499573577 ] } },
{ "type": "Feature", "properties": { "OBJECTID": 64, "Nama_Jalan": "Jl. Kemayoran Baru, Krembangan, Krembangan, Surabaya", "Luas__ha_": "0.958850147", "Tinggi__cm": "23", "Lama__meni": "29.5", "result_num": "0", "osm_id": "457123364", "display_na": "Jalan Kemayoran Baru, RW 02, Krembangan Selatan, Krembangan, Surabaya, Jawa Timur, Jawa, 60175, Indonesia", "category": "highway", "type": "tertiary", "latlong": "-7.2425257,112.730802" }, "geometry": { "type": "Point", "coordinates": [ 112.730802000112249, -7.242525700100941 ] } },
{ "type": "Feature", "properties": { "OBJECTID": 65, "Nama_Jalan": "Jl. Tembaan, Bubutan, Bubutan, Surabaya", "Luas__ha_": "1.361529388", "Tinggi__cm": "8.5", "Lama__meni": "2.5", "result_num": "0", "osm_id": "704061606", "display_na": "Jalan Tembaan, RW 09, Bubutan, Surabaya, Jawa, 60174, Indonesia", "category": "highway", "type": "secondary", "latlong": "-7.2465724,112.7350132" }, "geometry": { "type": "Point", "coordinates": [ 112.735013199699438, -7.246572400196044 ] } },
{ "type": "Feature", "properties": { "OBJECTID": 66, "Nama_Jalan": "Jl. Untung Suropati, Dr. Soetomo, Tegalsari, Surabaya", "Luas__ha_": "1.320138448", "Tinggi__cm": "9", "Lama__meni": "3", "result_num": "0", "osm_id": "450298097", "display_na": "Jalan Untung Suropati, RW 12, Dr. Sutomo, Tegalsari, Surabaya, Jawa Timur, Jawa, 60264, Indonesia", "category": "highway", "type": "residential", "latlong": "-7.2819427,112.7348337" }, "geometry": { "type": "Point", "coordinates": [ 112.734833700415038, -7.28194270029536 ] } },
{ "type": "Feature", "properties": { "OBJECTID": 67, "Nama_Jalan": "Jl. Cisadane, Darmo, Wonokromo, Surabaya", "Luas__ha_": "0.46504267", "Tinggi__cm": "8.5", "Lama__meni": "3", "result_num": "0", "osm_id": "453452541", "display_na": "Jalan Cisadane, RW 06, Darmo, Wonokromo, Surabaya, Jawa, 60241, Indonesia", "category": "highway", "type": "residential", "latlong": "-7.2912344,112.7320474" }, "geometry": { "type": "Point", "coordinates": [ 112.732047400167403, -7.291234400347264 ] } },
{ "type": "Feature", "properties": { "OBJECTID": 68, "Nama_Jalan": "Jl. Embong Gayam, Embong Kaliasin, Genteng, Surabaya", "Luas__ha_": "0.225676484", "Tinggi__cm": "9", "Lama__meni": "2.5", "result_num": "0", "osm_id": "23783250", "display_na": "Jalan Embong Gayam, RW 09, Embong Kaliasin, Genteng, Surabaya, Jawa, 68485, Indonesia", "category": "highway", "type": "secondary", "latlong": "-7.2683351,112.7426405" }, "geometry": { "type": "Point", "coordinates": [ 112.742640500159041, -7.268335099784963 ] } },
{ "type": "Feature", "properties": { "OBJECTID": 69, "Nama_Jalan": "Jl. Kanwa, Darmo, Wonokromo, Surabaya", "Luas__ha_": "0.089947906", "Tinggi__cm": "8", "Lama__meni": "11", "result_num": "0", "osm_id": "418865870", "display_na": "Jalan Kanwa, RW 09, Darmo, Wonokromo, Surabaya, Jawa, 60241, Indonesia", "category": "highway", "type": "residential", "latlong": "-7.284494899999999,112.7310993" }, "geometry": { "type": "Point", "coordinates": [ 112.731099299792959, -7.28449489981972 ] } },
{ "type": "Feature", "properties": { "OBJECTID": 70, "Nama_Jalan": "Jl. Ambengan, Ketabang, Genteng, Surabaya", "Luas__ha_": "0.267898683", "Tinggi__cm": "2", "Lama__meni": "15.5", "result_num": "0", "osm_id": "35927408", "display_na": "Jalan Ambengan, RW 08, Ketabang, Genteng, Surabaya, Jawa, 60274, Indonesia", "category": "highway", "type": "secondary", "latlong": "-7.2558178,112.7449747" }, "geometry": { "type": "Point", "coordinates": [ 112.744974700422176, -7.255817799551778 ] } },
{ "type": "Feature", "properties": { "OBJECTID": 71, "Nama_Jalan": "Jl. Dharmahusada Indah, Mojo, Gubeng, Surabaya", "Luas__ha_": "0.144136522", "Tinggi__cm": "9", "Lama__meni": "3", "result_num": "0", "osm_id": "156236226", "display_na": "Jalan Dharmahusada Indah Blok B, RW 12, Mojo, Gubeng, Surabaya, Jawa, 60285, Indonesia", "category": "highway", "type": "living_street", "latlong": "-7.2761935,112.7693821" }, "geometry": { "type": "Point", "coordinates": [ 112.76938210020387, -7.276193499930059 ] } },
{ "type": "Feature", "properties": { "OBJECTID": 72, "Nama_Jalan": "Kp. Pucang Jajar, Kertajaya, Gubeng, Surabaya", "Luas__ha_": "1.0675307", "Tinggi__cm": "9", "Lama__meni": "2.5", "result_num": "0", "osm_id": "156261442", "display_na": "Jalan Pucang Jajar Utara, RW 01, Kertajaya, Gubeng, Surabaya, Jawa Timur, Jawa, 60282, Indonesia", "category": "highway", "type": "residential", "latlong": "-7.2832464,112.7612209" }, "geometry": { "type": "Point", "coordinates": [ 112.761220900124499, -7.283246399801442 ] } },
{ "type": "Feature", "properties": { "OBJECTID": 73, "Nama_Jalan": "Kp. Manyar Sabrangan, Manyar Sabrangan, Mulyorejo, Surabaya", "Luas__ha_": "0.279105041", "Tinggi__cm": "7.5", "Lama__meni": "3", "result_num": "0", "osm_id": "156236741", "display_na": "Jalan Manyar Sabrangan VIII B, RW 05, Manyar Sabrangan, Mulyorejo, Surabaya, Jawa Timur, Jawa, 60116, Indonesia", "category": "highway", "type": "living_street", "latlong": "-7.2837955,112.7672053" }, "geometry": { "type": "Point", "coordinates": [ 112.767205300184514, -7.283795499762448 ] } },
{ "type": "Feature", "properties": { "OBJECTID": 74, "Nama_Jalan": "Kp. Tenggumung Wetan, Wonokusumo, Semampir, Surabaya", "Luas__ha_": "0.353709751", "Tinggi__cm": "7.5", "Lama__meni": "3", "result_num": "0", "osm_id": "160126808", "display_na": "Jalan Tenggumung Wetan Gang Garuda I, RW 08, Wonokusumo, Semampir, Surabaya, Jawa, 60128, Indonesia", "category": "highway", "type": "residential", "latlong": "-7.2221576999999995,112.756766" }, "geometry": { "type": "Point", "coordinates": [ 112.756765999551249, -7.222157699718025 ] } },
{ "type": "Feature", "properties": { "OBJECTID": 75, "Nama_Jalan": "Jl. Semarang, Tembok Dukuh, Bubutan, Surabaya", "Luas__ha_": "0.396916165", "Tinggi__cm": "23.5", "Lama__meni": "35.5", "result_num": "0", "osm_id": "4188793220", "display_na": "Kardus Bekas Jl. Semarang, Jalan Semarang, RW 08, Tembok Dukuh, Bubutan, Surabaya, Jawa, 60173, Indonesia", "category": "shop", "type": "yes", "latlong": "-7.2552308,112.7278264" }, "geometry": { "type": "Point", "coordinates": [ 112.72782639976856, -7.255230800361119 ] } },
{ "type": "Feature", "properties": { "OBJECTID": 76, "Nama_Jalan": "Jalan Pasar Krembangan, Krembangan, Krembangan, Surabaya", "Luas__ha_": "0.269066667", "Tinggi__cm": "7.5", "Lama__meni": "15", "result_num": "0", "osm_id": "457145738", "display_na": "Jalan Rusun Dupak Bangunrejo Pasar, RW 05, Dupak, Krembangan, Surabaya, Jawa, 60183, Indonesia", "category": "highway", "type": "living_street", "latlong": "-7.2408755,112.71588399999999" }, "geometry": { "type": "Point", "coordinates": [ 112.715884000146502, -7.240875499904348 ] } },
{ "type": "Feature", "properties": { "OBJECTID": 77, "Nama_Jalan": "Jl. Tanjung Sadari, Perak Barat, Krembangan, Surabaya", "Luas__ha_": "0.218581525", "Tinggi__cm": "25", "Lama__meni": "36.5", "result_num": "0", "osm_id": "453872768", "display_na": "SMP NEGERI 7 SURABAYA, Jl. TANJUNG SADARI NO. 17 SURABAYA, Jalan Tanjung Sadari, RW 08, Perak Barat, Krembangan, Surabaya, Jawa, 60177, Indonesia", "category": "building", "type": "yes", "latlong": "-7.2239465,112.73002679999999" }, "geometry": { "type": "Point", "coordinates": [ 112.730026799797088, -7.223946499831072 ] } },
{ "type": "Feature", "properties": { "OBJECTID": 78, "Nama_Jalan": "Jalan Dr. Soetomo, Dr Soetomo, Tegalsari, Surabaya", "Luas__ha_": "0.737754466", "Tinggi__cm": "24", "Lama__meni": "35", "result_num": "0", "osm_id": "469069806", "display_na": "Royal Tulip Darmo Surabaya, Jalan Bintoro, RW 14, Dr. Sutomo, Tegalsari, Surabaya, Jawa, 60264, Indonesia", "category": "tourism", "type": "hotel", "latlong": "-7.286451899999999,112.738394" }, "geometry": { "type": "Point", "coordinates": [ 112.738394000382868, -7.286451900135035 ] } },
{ "type": "Feature", "properties": { "OBJECTID": 79, "Nama_Jalan": "Jl. Imam Bonjol, Dr Soetomo, Tegalsari, Surabaya", "Luas__ha_": "0.434463045", "Tinggi__cm": "24", "Lama__meni": "34", "result_num": "0", "osm_id": "353154181", "display_na": "Jalan Imam Bonjol, RW 12, Dr. Sutomo, Tegalsari, Surabaya, Jawa Timur, Jawa, 60264, Indonesia", "category": "highway", "type": "tertiary", "latlong": "-7.2815663,112.7358206" }, "geometry": { "type": "Point", "coordinates": [ 112.735820600240572, -7.281566299844826 ] } },
{ "type": "Feature", "properties": { "OBJECTID": 80, "Nama_Jalan": "Jl. Kartini, Dr Soetomo, Tegalsari, Surabaya", "Luas__ha_": "0.717323647", "Tinggi__cm": "17.5", "Lama__meni": "34.5", "result_num": "0", "osm_id": "317197954", "display_na": "Jalan R.A. Kartini, RW 09, Dr. Sutomo, Tegalsari, Surabaya, Jawa, 60264, Indonesia", "category": "highway", "type": "tertiary", "latlong": "-7.279272799999999,112.7378169" }, "geometry": { "type": "Point", "coordinates": [ 112.737816900029998, -7.279272800199521 ] } },
{ "type": "Feature", "properties": { "OBJECTID": 81, "Nama_Jalan": "Jl. Teuku Umar, Dr Soetomo, Tegalsari, Surabaya", "Luas__ha_": "0.311460997", "Tinggi__cm": "2", "Lama__meni": "34.5", "result_num": "0", "osm_id": "156261613", "display_na": "Jalan Teuku Umar, RW 09, Dr. Sutomo, Tegalsari, Surabaya, Jawa, 60264, Indonesia", "category": "highway", "type": "residential", "latlong": "-7.278876599999999,112.7378366" }, "geometry": { "type": "Point", "coordinates": [ 112.73783659967944, -7.278876600274828 ] } },
{ "type": "Feature", "properties": { "OBJECTID": 82, "Nama_Jalan": "Jl. Ciliwung, Darmo, Wonokromo, Surabaya", "Luas__ha_": "0.205982823", "Tinggi__cm": "16.5", "Lama__meni": "11", "result_num": "0", "osm_id": "303948399", "display_na": "Jalan Ciliwung, RW 05, Darmo, Wonokromo, Surabaya, Jawa, 60421, Indonesia", "category": "highway", "type": "secondary", "latlong": "-7.294058199999999,112.7347542" }, "geometry": { "type": "Point", "coordinates": [ 112.734754200346174, -7.294058199626193 ] } },
{ "type": "Feature", "properties": { "OBJECTID": 83, "Nama_Jalan": "Jl. Jambi, Darmo, Wonokromo, Surabaya", "Luas__ha_": "0.125060553", "Tinggi__cm": "3.5", "Lama__meni": "12", "result_num": "0", "osm_id": "156261239", "display_na": "Jalan Jambi, RW 05, Darmo, Wonokromo, Surabaya, Jawa, 60241, Indonesia", "category": "highway", "type": "residential", "latlong": "-7.2907679,112.732418" }, "geometry": { "type": "Point", "coordinates": [ 112.73241799999073, -7.290767900418246 ] } },
{ "type": "Feature", "properties": { "OBJECTID": 84, "Nama_Jalan": "Jl. Mangkunegoro, Darmo, Wonokromo, Surabaya", "Luas__ha_": "0.179293347", "Tinggi__cm": "17.5", "Lama__meni": "33.5", "result_num": "0", "osm_id": "1074363274", "display_na": "Jalan Mangkunegoro, RW 10, Darmo, Wonokromo, Surabaya, Jawa, 60252, Indonesia", "category": "highway", "type": "residential", "latlong": "-7.2797408,112.7293095" }, "geometry": { "type": "Point", "coordinates": [ 112.729309499633814, -7.279740800197715 ] } },
{ "type": "Feature", "properties": { "OBJECTID": 85, "Nama_Jalan": "Jl. Dharmawangsa, Airlangga, Gubeng, Surabaya", "Luas__ha_": "1.576844067", "Tinggi__cm": "8", "Lama__meni": "15", "result_num": "0", "osm_id": "24884606", "display_na": "Jalan Dharmawangsa, RW 04, Airlangga, Gubeng, Surabaya, Jawa, 60286, Indonesia", "category": "highway", "type": "secondary", "latlong": "-7.2758145999999995,112.75612419999999" }, "geometry": { "type": "Point", "coordinates": [ 112.756124200171712, -7.275814600263573 ] } },
{ "type": "Feature", "properties": { "OBJECTID": 86, "Nama_Jalan": "Jl. Bulak Jaya, Wonokusumo, Semampir, Surabaya", "Luas__ha_": "0.204173811", "Tinggi__cm": "8", "Lama__meni": "15.5", "result_num": "0", "osm_id": "96183638", "display_na": "Jalan Bulak Jaya VII, RW 15, Wonokusumo, Semampir, Surabaya, Jawa, 60128, Indonesia", "category": "highway", "type": "living_street", "latlong": "-7.2146574999999995,112.7566277" }, "geometry": { "type": "Point", "coordinates": [ 112.75662770000838, -7.214657500443252 ] } },
{ "type": "Feature", "properties": { "OBJECTID": 87, "Nama_Jalan": "Jl. Sidodadi, Sidodadi, Simokerto, Surabaya", "Luas__ha_": "0.255596672", "Tinggi__cm": "3", "Lama__meni": "13", "result_num": "0", "osm_id": "8224433", "display_na": "Sidodadi, Simokerto, Surabaya, Jawa, 60145, Indonesia", "category": "boundary", "type": "administrative", "latlong": "-7.237047199999999,112.74775249999999" }, "geometry": { "type": "Point", "coordinates": [ 112.74775250027767, -7.237047200168092 ] } },
{ "type": "Feature", "properties": { "OBJECTID": 88, "Nama_Jalan": "Jl. Kapasari, Kapasari, Genteng, Surabaya", "Luas__ha_": "0.752853806", "Tinggi__cm": "3", "Lama__meni": "5", "result_num": "0", "osm_id": "8224366", "display_na": "Kapasari, Genteng, Surabaya, Jawa, Indonesia", "category": "boundary", "type": "administrative", "latlong": "-7.2475055,112.75024099999999" }, "geometry": { "type": "Point", "coordinates": [ 112.750240999922312, -7.247505499878855 ] } },
{ "type": "Feature", "properties": { "OBJECTID": 89, "Nama_Jalan": "Jl. Gebang Putih, Gebang Putih, Sukolilo, Surabaya", "Luas__ha_": "0.201596895", "Tinggi__cm": "9", "Lama__meni": "10", "result_num": "0", "osm_id": "8225299", "display_na": "Gebang Putih, Sukolilo, Surabaya, Jawa, Indonesia", "category": "boundary", "type": "administrative", "latlong": "-7.281924699999999,112.78799199999999" }, "geometry": { "type": "Point", "coordinates": [ 112.787991999731048, -7.281924700364584 ] } },
{ "type": "Feature", "properties": { "OBJECTID": 90, "Nama_Jalan": "Jl. Tenggumung Wetan, Wonokusumo, Semampir, Surabaya", "Luas__ha_": "0.359724439", "Tinggi__cm": "4", "Lama__meni": "5", "result_num": "0", "osm_id": "577909005", "display_na": "Jalan Tenggumung Wetan Gang Blewah, RW 08, Wonokusumo, Semampir, Surabaya, Jawa Timur, Jawa, 60128, Indonesia", "category": "highway", "type": "living_street", "latlong": "-7.219033,112.7582949" }, "geometry": { "type": "Point", "coordinates": [ 112.758294900089595, -7.219032999872979 ] } },
{ "type": "Feature", "properties": { "OBJECTID": 91, "Nama_Jalan": "Jl. Tambaksari, Ploso, Tambaksari, Surabaya", "Luas__ha_": "0.506053683", "Tinggi__cm": "23.5", "Lama__meni": "15", "result_num": "0", "osm_id": "160223765", "display_na": "Jalan Tambaksari I, RW 01, Ploso, Tambaksari, Surabaya, Jawa, 60142, Indonesia", "category": "highway", "type": "residential", "latlong": "-7.2503869,112.7563821" }, "geometry": { "type": "Point", "coordinates": [ 112.756382099654274, -7.250386899835519 ] } },
{ "type": "Feature", "properties": { "OBJECTID": 92, "Nama_Jalan": "Jl. Menur, Manyar Sabrangan, Mulyorejo, Surabaya", "Luas__ha_": "0.151162405", "Tinggi__cm": "2", "Lama__meni": "5", "result_num": "0", "osm_id": "320968117", "display_na": "Jalan Raya Menur, RW 08, Manyar Sabrangan, Mulyorejo, Surabaya, Jawa Timur, Jawa, 60282, Indonesia", "category": "highway", "type": "secondary", "latlong": "-7.2854103,112.7629489" }, "geometry": { "type": "Point", "coordinates": [ 112.762948899771914, -7.28541029994534 ] } },
{ "type": "Feature", "properties": { "OBJECTID": 93, "Nama_Jalan": "Jl. Dharmahusada, Mojo, Gubeng, Surabaya", "Luas__ha_": "1.165496892", "Tinggi__cm": "2", "Lama__meni": "12.5", "result_num": "0", "osm_id": "470217824", "display_na": "Royal Dharmahusada, RW 04, Mojo, Gubeng, Surabaya, Jawa, Indonesia", "category": "landuse", "type": "residential", "latlong": "-7.2677027999999995,112.7749415" }, "geometry": { "type": "Point", "coordinates": [ 112.774941499550664, -7.267702799944232 ] } },
{ "type": "Feature", "properties": { "OBJECTID": 94, "Nama_Jalan": "Jl. Pucang Adi, Kertajaya, Gubeng, Surabaya", "Luas__ha_": "0.407794234", "Tinggi__cm": "14", "Lama__meni": "12.5", "result_num": "0", "osm_id": "156235957", "display_na": "Jalan Pucang Adi, RW 05, Kertajaya, Gubeng, Surabaya, Jawa Timur, Jawa, 60283, Indonesia", "category": "highway", "type": "residential", "latlong": "-7.2830478,112.7539064" }, "geometry": { "type": "Point", "coordinates": [ 112.753906400060373, -7.283047799816075 ] } },
{ "type": "Feature", "properties": { "OBJECTID": 95, "Nama_Jalan": "Jl. Gubeng Masjid, Pacar Keling, Tambaksari, Surabaya", "Luas__ha_": "0.124822475", "Tinggi__cm": "2.5", "Lama__meni": "5", "result_num": "0", "osm_id": "314689107", "display_na": "Jalan Gubeng Masjid, RW 07, Pacar Keling, Tambaksari, Surabaya, Jawa Timur, Jawa, 60281, Indonesia", "category": "highway", "type": "tertiary", "latlong": "-7.2661763,112.7531991" }, "geometry": { "type": "Point", "coordinates": [ 112.753199100358302, -7.26617629969644 ] } },
{ "type": "Feature", "properties": { "OBJECTID": 96, "Nama_Jalan": "Jl. Kertajaya Indah, Manyar Sabrangan, Mulyorejo, Surabaya", "Luas__ha_": "6.643238571", "Tinggi__cm": "9.5", "Lama__meni": "15.5", "result_num": "0", "osm_id": "426278148", "display_na": "Jalan Kertajaya Indah VII, RW 09, Manyar Sabrangan, Mulyorejo, Surabaya, Jawa, 60116, Indonesia", "category": "highway", "type": "residential", "latlong": "-7.2813817,112.7739563" }, "geometry": { "type": "Point", "coordinates": [ 112.773956300343002, -7.281381699605731 ] } },
{ "type": "Feature", "properties": { "OBJECTID": 97, "Nama_Jalan": "Jl. Kapasan, Kapasan, Simokerto, Surabaya", "Luas__ha_": "0.514073778", "Tinggi__cm": "3.5", "Lama__meni": "13", "result_num": "0", "osm_id": "8224402", "display_na": "Kapasan, Simokerto, Surabaya, Jawa, 60141, Indonesia", "category": "boundary", "type": "administrative", "latlong": "-7.2416127999999995,112.7508381" }, "geometry": { "type": "Point", "coordinates": [ 112.750838100298097, -7.241612800090593 ] } },
{ "type": "Feature", "properties": { "OBJECTID": 98, "Nama_Jalan": "Jl. Sidorame, Sidotopo, Semampir, Surabaya", "Luas__ha_": "0.609536107", "Tinggi__cm": "9.5", "Lama__meni": "15.5", "result_num": "0", "osm_id": "361505919", "display_na": "Jalan Sidorame, RW 01, Sidotopo, Semampir, Surabaya, Jawa, 60151, Indonesia", "category": "highway", "type": "trunk", "latlong": "-7.227917199999999,112.7486459" }, "geometry": { "type": "Point", "coordinates": [ 112.748645900288125, -7.227917200018737 ] } },
{ "type": "Feature", "properties": { "OBJECTID": 99, "Nama_Jalan": "Kp. Bulak Banteng, Bulak Banteng, Kenjeran, Surabaya", "Luas__ha_": "0.282032163", "Tinggi__cm": "3.5", "Lama__meni": "15.5", "result_num": "0", "osm_id": "8224556", "display_na": "Bulak Banteng, Kenjeran, Surabaya, Jawa, Indonesia", "category": "boundary", "type": "administrative", "latlong": "-7.2090122999999995,112.7664264" }, "geometry": { "type": "Point", "coordinates": [ 112.766426400058322, -7.20901230037731 ] } },
{ "type": "Feature", "properties": { "OBJECTID": 100, "Nama_Jalan": "Jl. Hang Tuah, Ujung, Semampir, Surabaya", "Luas__ha_": "6.538796381", "Tinggi__cm": "8.5", "Lama__meni": "40.5", "result_num": "0", "osm_id": "96183632", "display_na": "Jalan Raya Hang Tuah, Ujung, Semampir, Surabaya, Jawa, 60155, Indonesia", "category": "highway", "type": "unclassified", "latlong": "-7.2143608,112.7427816" }, "geometry": { "type": "Point", "coordinates": [ 112.74278160019071, -7.214360799711073 ] } },
{ "type": "Feature", "properties": { "OBJECTID": 101, "Nama_Jalan": "Jl. Iskandar Muda, Ujung, Semampir, Surabaya", "Luas__ha_": "0.414594508", "Tinggi__cm": "4", "Lama__meni": "4.5", "result_num": "0", "osm_id": "24562983", "display_na": "Jalan Sultan Iskandar Muda, RW 10, Ujung, Semampir, Surabaya, Jawa, 60151, Indonesia", "category": "highway", "type": "trunk", "latlong": "-7.2254786,112.7435603" }, "geometry": { "type": "Point", "coordinates": [ 112.743560299768092, -7.225478600157203 ] } },
{ "type": "Feature", "properties": { "OBJECTID": 102, "Nama_Jalan": "Kp. Wonokusumo Lor, Wonokusumo, Semampir, Surabaya", "Luas__ha_": "0.291997475", "Tinggi__cm": "2.5", "Lama__meni": "16", "result_num": "0", "osm_id": "96183668", "display_na": "Jalan Wonokusumo Lor, RW 13, Wonokusumo, Semampir, Surabaya, Jawa, 60128, Indonesia", "category": "highway", "type": "residential", "latlong": "-7.2214943,112.75208239999999" }, "geometry": { "type": "Point", "coordinates": [ 112.752082399583173, -7.221494300421568 ] } },
{ "type": "Feature", "properties": { "OBJECTID": 103, "Nama_Jalan": "Jl. Bulaksari, Wonokusumo, Semampir, Surabaya", "Luas__ha_": "0.222920305", "Tinggi__cm": "10", "Lama__meni": "15", "result_num": "0", "osm_id": "96183661", "display_na": "Jalan Bulaksari, RW 07, Wonokusumo, Semampir, Surabaya, Jawa, 60128, Indonesia", "category": "highway", "type": "tertiary", "latlong": "-7.216231499999999,112.7576443" }, "geometry": { "type": "Point", "coordinates": [ 112.757644299944559, -7.21623150018354 ] } },
{ "type": "Feature", "properties": { "OBJECTID": 104, "Nama_Jalan": "Kp. Klampis Jaya, Klampis Ngasem, Sukolilo, Surabaya", "Luas__ha_": "1.305733552", "Tinggi__cm": "7.5", "Lama__meni": "16", "result_num": "0", "osm_id": "35966438", "display_na": "Jalan Klampis Jaya, RW 09, Klampis Ngasem, Sukolilo, Surabaya, Jawa, 60116, Indonesia", "category": "highway", "type": "tertiary", "latlong": "-7.2856457,112.77612979999999" }, "geometry": { "type": "Point", "coordinates": [ 112.776129799850423, -7.285645700188866 ] } },
{ "type": "Feature", "properties": { "OBJECTID": 105, "Nama_Jalan": "Jl. Residen Sudirman, Pacar Keling, Tambaksari, Surabaya", "Luas__ha_": "0.619741533", "Tinggi__cm": "3.5", "Lama__meni": "30.5", "result_num": "0", "osm_id": "320918998", "display_na": "Jalan Residen Sudirman, RW 05, Pacar Keling, Tambaksari, Surabaya, Jawa, 60131, Indonesia", "category": "highway", "type": "tertiary", "latlong": "-7.2594259999999995,112.7537249" }, "geometry": { "type": "Point", "coordinates": [ 112.753724899784402, -7.259426000109784 ] } },
{ "type": "Feature", "properties": { "OBJECTID": 106, "Nama_Jalan": "Kp. Bogen, Ploso, Tambaksari, Surabaya", "Luas__ha_": "0.117162525", "Tinggi__cm": "7.5", "Lama__meni": "16", "result_num": "0", "osm_id": "842675397", "display_na": "Jalan Ploso Bogen, RW 04, Ploso, Tambaksari, Surabaya, Jawa, 60142, Indonesia", "category": "highway", "type": "tertiary", "latlong": "-7.250888799999999,112.7625039" }, "geometry": { "type": "Point", "coordinates": [ 112.762503899935041, -7.250888799778238 ] } },
{ "type": "Feature", "properties": { "OBJECTID": 107, "Nama_Jalan": "Kp. Karang Empat, Ploso, Tambaksari, Surabaya", "Luas__ha_": "0.488505252", "Tinggi__cm": "8", "Lama__meni": "33", "result_num": "0", "osm_id": "36054653", "display_na": "Jalan Karang Empat Besar, RW 07, Ploso, Tambaksari, Surabaya, Jawa, 60133, Indonesia", "category": "highway", "type": "residential", "latlong": "-7.2516919,112.77313819999999" }, "geometry": { "type": "Point", "coordinates": [ 112.77313819966821, -7.25169189976134 ] } },
{ "type": "Feature", "properties": { "OBJECTID": 108, "Nama_Jalan": "Kp. Karang Asem, Ploso, Tambaksari, Surabaya", "Luas__ha_": "0.367134198", "Tinggi__cm": "4", "Lama__meni": "30", "result_num": "0", "osm_id": "156519516", "display_na": "Jalan Karang Asem IV, RW 08, Ploso, Tambaksari, Surabaya, Jawa, 60133, Indonesia", "category": "highway", "type": "residential", "latlong": "-7.249433799999999,112.7720454" }, "geometry": { "type": "Point", "coordinates": [ 112.772045400175102, -7.249433800129736 ] } },
{ "type": "Feature", "properties": { "OBJECTID": 109, "Nama_Jalan": "Jl. Jagiran, Tambaksari, Tambaksari, Surabaya", "Luas__ha_": "0.261133607", "Tinggi__cm": "8", "Lama__meni": "40", "result_num": "0", "osm_id": "24478190", "display_na": "Jalan Jagiran, RW 02, Pacar Keling, Tambaksari, Surabaya, Jawa Timur, Jawa, 60131, Indonesia", "category": "highway", "type": "tertiary", "latlong": "-7.2549519,112.7599001" }, "geometry": { "type": "Point", "coordinates": [ 112.759900100009645, -7.254951899910225 ] } },
{ "type": "Feature", "properties": { "OBJECTID": 110, "Nama_Jalan": "Jl. Pucang Anom, Kertajaya, Gubeng, Surabaya", "Luas__ha_": "0.549065412", "Tinggi__cm": "2.5", "Lama__meni": "12.5", "result_num": "0", "osm_id": "367909150", "display_na": "Jalan Pucang Anom Timur, RW 06, Kertajaya, Gubeng, Surabaya, Jawa Timur, Jawa, 60282, Indonesia", "category": "highway", "type": "secondary", "latlong": "-7.2815853,112.755897" }, "geometry": { "type": "Point", "coordinates": [ 112.755896999946685, -7.2815852998217 ] } },
{ "type": "Feature", "properties": { "OBJECTID": 111, "Nama_Jalan": "Jl. Mojo Kidul, Mojo, Gubeng, Surabaya", "Luas__ha_": "0.506999387", "Tinggi__cm": "7", "Lama__meni": "15.5", "result_num": "0", "osm_id": "156236005", "display_na": "Jalan Mojo Kidul, RW 05, Mojo, Gubeng, Surabaya, Jawa, 60285, Indonesia", "category": "highway", "type": "residential", "latlong": "-7.2709684,112.7701379" }, "geometry": { "type": "Point", "coordinates": [ 112.770137900343911, -7.270968400171512 ] } },
{ "type": "Feature", "properties": { "OBJECTID": 112, "Nama_Jalan": "Kp. Manyar Rejo, Menur Pumpungan, Sukolilo, Surabaya", "Luas__ha_": "0.293339766", "Tinggi__cm": "9", "Lama__meni": "39", "result_num": "0", "osm_id": "578393553", "display_na": "Jalan Manyar Rejo, RW 05, Menur Pumpungan, Sukolilo, Surabaya, Jawa Timur, Jawa, 60118, Indonesia", "category": "highway", "type": "residential", "latlong": "-7.2941741,112.7661115" }, "geometry": { "type": "Point", "coordinates": [ 112.766111499745989, -7.294174099754855 ] } },
{ "type": "Feature", "properties": { "OBJECTID": 113, "Nama_Jalan": "Jl. Keputih Tegal, Keputih, Sukolilo, Surabaya", "Luas__ha_": "7.32009524", "Tinggi__cm": "9", "Lama__meni": "15", "result_num": "0", "osm_id": "160221970", "display_na": "Jalan Keputih Tegal Taman, RW 08, Keputih, Sukolilo, Surabaya, Jawa Timur, Jawa, 60111, Indonesia", "category": "highway", "type": "residential", "latlong": "-7.2973391,112.8049549" }, "geometry": { "type": "Point", "coordinates": [ 112.80495489974885, -7.297339100019428 ] } },
{ "type": "Feature", "properties": { "OBJECTID": 114, "Nama_Jalan": "Jl. Dukuh Menanggal, Dukuh Menanggal, Gayungan, Surabaya", "Luas__ha_": "0.182483575", "Tinggi__cm": "10", "Lama__meni": "34", "result_num": "0", "osm_id": "8225353", "display_na": "Dukuh Menanggal, Gayungan, Surabaya, Jawa, Indonesia", "category": "boundary", "type": "administrative", "latlong": "-7.3439578,112.7281163" }, "geometry": { "type": "Point", "coordinates": [ 112.728116299827434, -7.343957800112321 ] } },
{ "type": "Feature", "properties": { "OBJECTID": 115, "Nama_Jalan": "Jambangan, Jambangan, Jambangan, Surabaya", "Luas__ha_": "5.109719048", "Tinggi__cm": "17", "Lama__meni": "21", "result_num": "0", "osm_id": "8225194", "display_na": "Jambangan, Surabaya, Jawa, Indonesia", "category": "boundary", "type": "administrative", "latlong": "-7.3189386,112.7146393" }, "geometry": { "type": "Point", "coordinates": [ 112.714639299763917, -7.318938599636624 ] } },
{ "type": "Feature", "properties": { "OBJECTID": 116, "Nama_Jalan": "Jl. Siwalankerto Timur, Siwalankerto, Siwalankerto, Surabaya", "Luas__ha_": "0.658330021", "Tinggi__cm": "9", "Lama__meni": "15", "result_num": "0", "osm_id": "159882791", "display_na": "Jalan Siwalankerto Timur I, RW 05, SiwalanKerto, Wonocolo, Surabaya, Jawa, 60236, Indonesia", "category": "highway", "type": "residential", "latlong": "-7.3388561,112.73952729999999" }, "geometry": { "type": "Point", "coordinates": [ 112.739527299945053, -7.338856099929046 ] } },
{ "type": "Feature", "properties": { "OBJECTID": 117, "Nama_Jalan": "Jl. Menur Pumpungan, Menur, Sukolilo, Surabaya", "Luas__ha_": "0.387286358", "Tinggi__cm": "3.5", "Lama__meni": "13", "result_num": "0", "osm_id": "8225649", "display_na": "Menur Pumpungan, Sukolilo, Surabaya, Jawa, 60118, Indonesia", "category": "boundary", "type": "administrative", "latlong": "-7.2930478999999995,112.7676516" }, "geometry": { "type": "Point", "coordinates": [ 112.767651600441013, -7.293047900340298 ] } },
{ "type": "Feature", "properties": { "OBJECTID": 118, "Nama_Jalan": "Kp. Menur Pumpungan, Menur, Sukolilo, Surabaya", "Luas__ha_": "0.278136594", "Tinggi__cm": "10", "Lama__meni": "13", "result_num": "0", "osm_id": "8225649", "display_na": "Menur Pumpungan, Sukolilo, Surabaya, Jawa, 60118, Indonesia", "category": "boundary", "type": "administrative", "latlong": "-7.2930478999999995,112.7676516" }, "geometry": { "type": "Point", "coordinates": [ 112.767651600441013, -7.293047900340298 ] } },
{ "type": "Feature", "properties": { "OBJECTID": 119, "Nama_Jalan": "Jl. Baratajaya, Baratajaya, Gubeng, Surabaya", "Luas__ha_": "1.676968126", "Tinggi__cm": "2", "Lama__meni": "14", "result_num": "0", "osm_id": "8225498", "display_na": "Baratajaya, Gubeng, Surabaya, Jawa, 60284, Indonesia", "category": "boundary", "type": "administrative", "latlong": "-7.2968747,112.75922" }, "geometry": { "type": "Point", "coordinates": [ 112.759220000302889, -7.296874700007379 ] } },
{ "type": "Feature", "properties": { "OBJECTID": 120, "Nama_Jalan": "Perumahan Penjaringansari, Penjaringansari, Rungkut, Surabaya", "Luas__ha_": "0.118318999", "Tinggi__cm": "2.5", "Lama__meni": "16", "result_num": "0", "osm_id": "672437318", "display_na": "Perumahan YKP Penjaringan Sari, RW 11, Penjaringan Sari, Rungkut, Surabaya, Jawa, Indonesia", "category": "landuse", "type": "residential", "latlong": "-7.3216405,112.7901069" }, "geometry": { "type": "Point", "coordinates": [ 112.790106900313276, -7.321640500308774 ] } },
{ "type": "Feature", "properties": { "OBJECTID": 121, "Nama_Jalan": "Jl. Keputih, Keputih, Sukolilo, Surabaya", "Luas__ha_": "0.66658318", "Tinggi__cm": "7", "Lama__meni": "24", "result_num": "0", "osm_id": "639529811", "display_na": "Keputih Permai, RW 02, Keputih, Sukolilo, Surabaya, Jawa, Indonesia", "category": "landuse", "type": "residential", "latlong": "-7.289211099999999,112.81013759999999" }, "geometry": { "type": "Point", "coordinates": [ 112.81013760007022, -7.289211100212071 ] } },
{ "type": "Feature", "properties": { "OBJECTID": 122, "Nama_Jalan": "Jl. Jetis Kulon, Wonokromo, Wonokromo, Surabaya", "Luas__ha_": "0.39497277", "Tinggi__cm": "8", "Lama__meni": "31", "result_num": "0", "osm_id": "138432262", "display_na": "Jalan Jetis Kulon I, RW 04, Wonokromo, Surabaya, Jawa, 60231, Indonesia", "category": "highway", "type": "tertiary", "latlong": "-7.3075277,112.7313703" }, "geometry": { "type": "Point", "coordinates": [ 112.73137029969962, -7.307527700243099 ] } },
{ "type": "Feature", "properties": { "OBJECTID": 123, "Nama_Jalan": "Jl. Ketintang, Ketintang, Gayungan, Surabaya", "Luas__ha_": "0.414039642", "Tinggi__cm": "10", "Lama__meni": "30.5", "result_num": "0", "osm_id": "8225413", "display_na": "Ketintang, Gayungan, Surabaya, Jawa, Indonesia", "category": "boundary", "type": "administrative", "latlong": "-7.3186905,112.7297325" }, "geometry": { "type": "Point", "coordinates": [ 112.729732500254727, -7.318690500066452 ] } },
{ "type": "Feature", "properties": { "OBJECTID": 124, "Nama_Jalan": "Jl. Jawar, Simomulyo, Sukomanunggal, Surabaya", "Luas__ha_": "1.83433839", "Tinggi__cm": "23", "Lama__meni": "15", "result_num": "0", "osm_id": "160015702", "display_na": "Jalan Simo Jawar V, RW 01, Simomulyo Baru, Sukomanunggal, Surabaya, Jawa, 60188, Indonesia", "category": "highway", "type": "living_street", "latlong": "-7.2687513,112.702674" }, "geometry": { "type": "Point", "coordinates": [ 112.702673999805256, -7.268751299732628 ] } },
{ "type": "Feature", "properties": { "OBJECTID": 125, "Nama_Jalan": "Jl. Raya Lontar, Lontar, Sambikerep, Surabaya", "Luas__ha_": "0.16227309", "Tinggi__cm": "23.5", "Lama__meni": "40", "result_num": "0", "osm_id": "724930201", "display_na": "Jalan Raya Lontar, RW 01, Lontar, Sambikerep, Surabaya, Jawa, 60216, Indonesia", "category": "highway", "type": "tertiary", "latlong": "-7.2841907,112.66956929999999" }, "geometry": { "type": "Point", "coordinates": [ 112.669569299683531, -7.284190699641044 ] } },
{ "type": "Feature", "properties": { "OBJECTID": 126, "Nama_Jalan": "TANJUNGSARI I, Tanjungsari, Sukomanunggal, Surabaya", "Luas__ha_": "16.3264381", "Tinggi__cm": "7", "Lama__meni": "15", "result_num": "0", "osm_id": "454993801", "display_na": "Gereja Isa Almasih Surabaya, Jalan Darmo Harapan I, RW 04, Tanjungsari, Sukomanunggal, Surabaya, Jawa, 60187, Indonesia", "category": "amenity", "type": "place_of_worship", "latlong": "-7.2716144,112.686646" }, "geometry": { "type": "Point", "coordinates": [ 112.686645999913026, -7.271614400284307 ] } },
{ "type": "Feature", "properties": { "OBJECTID": 127, "Nama_Jalan": "Karah Agung, Karah, Jambangan, Surabaya", "Luas__ha_": "0.235257041", "Tinggi__cm": "3", "Lama__meni": "15", "result_num": "0", "osm_id": "74121937", "display_na": "Jalan Karah Agung, RW 10, Karah, Jambangan, Surabaya, Jawa Timur, Jawa, 60222, Indonesia", "category": "highway", "type": "tertiary", "latlong": "-7.313002,112.7180771" }, "geometry": { "type": "Point", "coordinates": [ 112.718077100377968, -7.31300200034201 ] } },
{ "type": "Feature", "properties": { "OBJECTID": 128, "Nama_Jalan": "Jl. Raya Medokan Ayu, Medokan Ayu, Rungkut, Surabaya", "Luas__ha_": "0.11018317", "Tinggi__cm": "4", "Lama__meni": "14.5", "result_num": "0", "osm_id": "309678791", "display_na": "Jalan Raya Medokan Sawah Timur, RW 01, Medokan Ayu, Rungkut, Surabaya, Jawa, 60295, Indonesia", "category": "highway", "type": "residential", "latlong": "-7.3316668,112.80518" }, "geometry": { "type": "Point", "coordinates": [ 112.805180000057021, -7.331666799882839 ] } },
{ "type": "Feature", "properties": { "OBJECTID": 129, "Nama_Jalan": "Jl. Penjaringan Timur, Penjaringan, Rungkut, Surabaya", "Luas__ha_": "0.541965426", "Tinggi__cm": "7", "Lama__meni": "25", "result_num": "0", "osm_id": "122217838", "display_na": "Jalan Penjaringan Timur, RW 02, Penjaringan Sari, Rungkut, Surabaya, Jawa, 60297, Indonesia", "category": "highway", "type": "residential", "latlong": "-7.319332999999999,112.7838096" }, "geometry": { "type": "Point", "coordinates": [ 112.783809600033123, -7.319333000017878 ] } },
{ "type": "Feature", "properties": { "OBJECTID": 130, "Nama_Jalan": "Rungkut Kidul, Rungkut Kidul, Rungkut, Surabaya", "Luas__ha_": "1.01215378", "Tinggi__cm": "3", "Lama__meni": "15", "result_num": "0", "osm_id": "311395472", "display_na": "Perpustakaan Kota Surabaya, Jalan Rungkut Asri Tengah I, RW 08, Rungkut Kidul, Rungkut, Surabaya, Jawa Timur, Jawa, 60293, Indonesia", "category": "amenity", "type": "library", "latlong": "-7.327757,112.7758489" }, "geometry": { "type": "Point", "coordinates": [ 112.775848900206597, -7.327756999985525 ] } },
{ "type": "Feature", "properties": { "OBJECTID": 131, "Nama_Jalan": "Klampis Semalang, Klampis Ngasem, Sukolilo, Surabaya", "Luas__ha_": "0.397483012", "Tinggi__cm": "8", "Lama__meni": "15", "result_num": "0", "osm_id": "449172482", "display_na": "Jalan Klampis Semalang VI, RW 03, Klampis Ngasem, Sukolilo, Surabaya, Jawa, 60117, Indonesia", "category": "highway", "type": "living_street", "latlong": "-7.2915151,112.7746221" }, "geometry": { "type": "Point", "coordinates": [ 112.77462209993007, -7.291515100341542 ] } },
{ "type": "Feature", "properties": { "OBJECTID": 132, "Nama_Jalan": "Kp. Candi Lempung, Lontar, Sambikerep, Surabaya", "Luas__ha_": "0.447618812", "Tinggi__cm": "24", "Lama__meni": "30.5", "result_num": "0", "osm_id": "160049742", "display_na": "Jalan Candi Lempung VI, RW 09, Lontar, Sambikerep, Surabaya, Jawa, 60216, Indonesia", "category": "highway", "type": "residential", "latlong": "-7.2717087,112.6681797" }, "geometry": { "type": "Point", "coordinates": [ 112.66817969963347, -7.271708699596786 ] } },
{ "type": "Feature", "properties": { "OBJECTID": 133, "Nama_Jalan": "Jl. Pakis Wetan, Pakis, Sawahan, Surabaya", "Luas__ha_": "0.103120221", "Tinggi__cm": "15", "Lama__meni": "15", "result_num": "0", "osm_id": "455032298", "display_na": "Jalan Pakis Wetan, RW 03, Pakis, Sawahan, Surabaya, Jawa, 60241, Indonesia", "category": "highway", "type": "living_street", "latlong": "-7.2905321,112.72896569999999" }, "geometry": { "type": "Point", "coordinates": [ 112.728965699607443, -7.29053209997636 ] } },
{ "type": "Feature", "properties": { "OBJECTID": 134, "Nama_Jalan": "Jl. Simo Rukun, Simomulyo, Sukomanunggal, Surabaya", "Luas__ha_": "0.083244955", "Tinggi__cm": "8", "Lama__meni": "15.5", "result_num": "0", "osm_id": "156541695", "display_na": "Jalan Simo Rukun V, RW 04, Simomulyo, Sukomanunggal, Surabaya, Jawa, 60263, Indonesia", "category": "highway", "type": "residential", "latlong": "-7.2626041,112.7116054" }, "geometry": { "type": "Point", "coordinates": [ 112.711605399969244, -7.262604099899249 ] } },
{ "type": "Feature", "properties": { "OBJECTID": 135, "Nama_Jalan": "Kp. Simo Mulyo, Simomulyo, Sukomanunggal, Surabaya", "Luas__ha_": "0.785490986", "Tinggi__cm": "7.5", "Lama__meni": "16", "result_num": "0", "osm_id": "160015829", "display_na": "Jalan Simo Mulyo Barui I D, RW 03, Simomulyo Baru, Sukomanunggal, Surabaya, Jawa, 60188, Indonesia", "category": "highway", "type": "residential", "latlong": "-7.2739411,112.70600499999999" }, "geometry": { "type": "Point", "coordinates": [ 112.706004999631091, -7.273941100201569 ] } },
{ "type": "Feature", "properties": { "OBJECTID": 136, "Nama_Jalan": "Kp. Manukan Krajan, Manukan Kulon, Tandes, Surabaya", "Luas__ha_": "0.882329362", "Tinggi__cm": "9", "Lama__meni": "24", "result_num": "0", "osm_id": "160049492", "display_na": "Jalan Manukan Krajan, RW 14, Manukan Kulon, Tandes, Surabaya, Jawa Timur, Jawa, 60185, Indonesia", "category": "highway", "type": "residential", "latlong": "-7.2596967,112.6696586" }, "geometry": { "type": "Point", "coordinates": [ 112.669658599664672, -7.259696699642916 ] } },
{ "type": "Feature", "properties": { "OBJECTID": 137, "Nama_Jalan": "Kp. Manukan Lor, Manukan Kulon, Tandes, Surabaya", "Luas__ha_": "0.838853006", "Tinggi__cm": "7.5", "Lama__meni": "15", "result_num": "0", "osm_id": "160049702", "display_na": "Jalan Manukan Lor II, RW 12, Manukan Kulon, Tandes, Surabaya, Jawa Timur, Jawa, 60185, Indonesia", "category": "highway", "type": "residential", "latlong": "-7.2585437,112.6634947" }, "geometry": { "type": "Point", "coordinates": [ 112.663494700320257, -7.258543700431403 ] } },
{ "type": "Feature", "properties": { "OBJECTID": 138, "Nama_Jalan": "Dupak Rukun, Dupak, Krembangan, Surabaya", "Luas__ha_": "9.491804762", "Tinggi__cm": "15", "Lama__meni": "15.5", "result_num": "0", "osm_id": "456494391", "display_na": "Jalan Dupak Rukun VII, RW 01, Dupak, Krembangan, Surabaya, Jawa, 60172, Indonesia", "category": "highway", "type": "living_street", "latlong": "-7.2461429,112.71801509999999" }, "geometry": { "type": "Point", "coordinates": [ 112.718015100216803, -7.246142900174675 ] } },
{ "type": "Feature", "properties": { "OBJECTID": 139, "Nama_Jalan": "Kp. Sumber Rejo, Sumber Rejo, Pakal, Surabaya", "Luas__ha_": "12.50159238", "Tinggi__cm": "9", "Lama__meni": "41.5", "result_num": "0", "osm_id": "325355735", "display_na": "Jalan Dukuh Sumber Jaya, RW 03, Sumberrejo, Pakal, Surabaya, Jawa, 60195, Indonesia", "category": "highway", "type": "residential", "latlong": "-7.222086,112.5937099" }, "geometry": { "type": "Point", "coordinates": [ 112.593709899592227, -7.222086000368563 ] } },
{ "type": "Feature", "properties": { "OBJECTID": 140, "Nama_Jalan": "Jl. Sememi, Sememi, Benowo, Surabaya", "Luas__ha_": "0.34845002", "Tinggi__cm": "14", "Lama__meni": "15.5", "result_num": "0", "osm_id": "2633385707", "display_na": "Warkop Nobar, Jalan Bandarejo III, RW 05, Sememi, Benowo, Surabaya, Jawa, 60198, Indonesia", "category": "amenity", "type": "cafe", "latlong": "-7.2531434,112.6447475" }, "geometry": { "type": "Point", "coordinates": [ 112.644747500396875, -7.253143400147735 ] } },
{ "type": "Feature", "properties": { "OBJECTID": 141, "Nama_Jalan": "Jl. Pakal, Pakal, Benowo, Surabaya", "Luas__ha_": "6.125225762", "Tinggi__cm": "14", "Lama__meni": "16", "result_num": "0", "osm_id": "672194802", "display_na": "Pakal Residence, RW 03, Pakal, Surabaya, Jawa, Indonesia", "category": "landuse", "type": "residential", "latlong": "-7.2383561,112.61547689999999" }, "geometry": { "type": "Point", "coordinates": [ 112.615476899739178, -7.238356099554323 ] } },
{ "type": "Feature", "properties": { "OBJECTID": 142, "Nama_Jalan": "Jl. Kendung, Sememi, Benowo, Surabaya", "Luas__ha_": "0.395711371", "Tinggi__cm": "7", "Lama__meni": "15", "result_num": "0", "osm_id": "334436615", "display_na": "Jalan Kendung Jaya VI, RW 06, Sememi, Benowo, Surabaya, Jawa Timur, Jawa, 60197, Indonesia", "category": "highway", "type": "residential", "latlong": "-7.2501127,112.6337971" }, "geometry": { "type": "Point", "coordinates": [ 112.633797099756407, -7.25011270014096 ] } },
{ "type": "Feature", "properties": { "OBJECTID": 143, "Nama_Jalan": "Jl. Kesatrian, Sawunggaling, Wonokromo, Surabaya", "Luas__ha_": "0.593011908", "Tinggi__cm": "8", "Lama__meni": "3", "result_num": "0", "osm_id": "1116307748", "display_na": "Jalan Kesatrian, RW 12, Sawunggaling, Wonokromo, Surabaya, Jawa, 60224, Indonesia", "category": "highway", "type": "unclassified", "latlong": "-7.2986312,112.7259871" }, "geometry": { "type": "Point", "coordinates": [ 112.725987100024668, -7.298631200069792 ] } },
{ "type": "Feature", "properties": { "OBJECTID": 144, "Nama_Jalan": "Jl. Simo Hilir, Simomulyo, Sukomanunggal, Surabaya", "Luas__ha_": "0.157057715", "Tinggi__cm": "4", "Lama__meni": "14", "result_num": "0", "osm_id": "458634493", "display_na": "Jalan Simo Hilir Raya, RW 04, Simomulyo Baru, Sukomanunggal, Surabaya, Jawa Timur, Jawa, 60188, Indonesia", "category": "highway", "type": "residential", "latlong": "-7.2742297,112.7029498" }, "geometry": { "type": "Point", "coordinates": [ 112.70294980029314, -7.274229699840703 ] } },
{ "type": "Feature", "properties": { "OBJECTID": 145, "Nama_Jalan": "Jl. Simo Rejo, Simomulyo, Sukomanunggal, Surabaya", "Luas__ha_": "4.98365", "Tinggi__cm": "8.5", "Lama__meni": "31", "result_num": "0", "osm_id": "156541482", "display_na": "Jalan Simo Rejo XXI, RW 02, Simomulyo, Sukomanunggal, Surabaya, Jawa Timur, Jawa, 60173, Indonesia", "category": "highway", "type": "residential", "latlong": "-7.2571129,112.7100322" }, "geometry": { "type": "Point", "coordinates": [ 112.710032199726243, -7.257112899740491 ] } },
{ "type": "Feature", "properties": { "OBJECTID": 146, "Nama_Jalan": "Jl. Pattimura, Sonokwijenan, Sukomanunggal, Surabaya", "Luas__ha_": "0.097024766", "Tinggi__cm": "7", "Lama__meni": "15", "result_num": "0", "osm_id": "584834879", "display_na": "Jalan Pattimura, RW 03, Sono Kwijenan, Sukomanunggal, Surabaya, Jawa, 60226, Indonesia", "category": "highway", "type": "tertiary", "latlong": "-7.2765422,112.6962597" }, "geometry": { "type": "Point", "coordinates": [ 112.696259700424889, -7.276542200362201 ] } },
{ "type": "Feature", "properties": { "OBJECTID": 147, "Nama_Jalan": "Jl. Satelit Selatan, Tanjungsari, Sukomanunggal, Surabaya", "Luas__ha_": "0.181400561", "Tinggi__cm": "8", "Lama__meni": "15", "result_num": "0", "osm_id": "456703984", "display_na": "Jalan Raya Satelit Selatan, RW 03, Tanjungsari, Sukomanunggal, Surabaya, Jawa Timur, Jawa, 60187, Indonesia", "category": "highway", "type": "secondary", "latlong": "-7.268754,112.6918274" }, "geometry": { "type": "Point", "coordinates": [ 112.691827399814656, -7.268754000396768 ] } },
{ "type": "Feature", "properties": { "OBJECTID": 148, "Nama_Jalan": "Jl. Satelit Indah, Tanjungsari, Sukomanunggal, Surabaya", "Luas__ha_": "0.23858709", "Tinggi__cm": "8.5", "Lama__meni": "15", "result_num": "0", "osm_id": "584824356", "display_na": "Jalan Raya Satelit Indah, RW 02, Tanjungsari, Sukomanunggal, Surabaya, Jawa Timur, Jawa, 60187, Indonesia", "category": "highway", "type": "tertiary", "latlong": "-7.2638655,112.6945469" }, "geometry": { "type": "Point", "coordinates": [ 112.694546900219279, -7.263865499792928 ] } },
{ "type": "Feature", "properties": { "OBJECTID": 149, "Nama_Jalan": "Kp. Balongsari, Balongsari, Tandes, Surabaya", "Luas__ha_": "0.837008535", "Tinggi__cm": "8.5", "Lama__meni": "15.5", "result_num": "0", "osm_id": "8225025", "display_na": "Balongsari, Tandes, Surabaya, Jawa, Indonesia", "category": "boundary", "type": "administrative", "latlong": "-7.2516604,112.6796715" }, "geometry": { "type": "Point", "coordinates": [ 112.679671500239579, -7.251660400107312 ] } },
{ "type": "Feature", "properties": { "OBJECTID": 150, "Nama_Jalan": "Kp. Manukan Kulon, Manukan Kulon, Tandes, Surabaya", "Luas__ha_": "0.697759704", "Tinggi__cm": "9", "Lama__meni": "16", "result_num": "0", "osm_id": "8225065", "display_na": "Manukan Kulon, Tandes, Surabaya, Jawa, 60185, Indonesia", "category": "boundary", "type": "administrative", "latlong": "-7.260677599999999,112.6652586" }, "geometry": { "type": "Point", "coordinates": [ 112.665258600004449, -7.260677600091128 ] } },
{ "type": "Feature", "properties": { "OBJECTID": 151, "Nama_Jalan": "Jl. Tambak Mayor, Asemrowo, Asemrowo, Surabaya", "Luas__ha_": "1.564556673", "Tinggi__cm": "9", "Lama__meni": "30.5", "result_num": "0", "osm_id": "1222219603", "display_na": "Jalan Tambak Mayor Utara, RW 08, Asemrowo, Surabaya, Jawa, 60187, Indonesia", "category": "highway", "type": "living_street", "latlong": "-7.2518224,112.7024314" }, "geometry": { "type": "Point", "coordinates": [ 112.7024313995895, -7.251822400383446 ] } },
{ "type": "Feature", "properties": { "OBJECTID": 152, "Nama_Jalan": "Kp. Benowo, Benowo, Benowo, Surabaya", "Luas__ha_": "1.115180225", "Tinggi__cm": "15", "Lama__meni": "15.5", "result_num": "0", "osm_id": "8224883", "display_na": "Benowo, Pakal, Surabaya, Jawa, Indonesia", "category": "boundary", "type": "administrative", "latlong": "-7.237467799999999,112.61034599999999" }, "geometry": { "type": "Point", "coordinates": [ 112.610346000367713, -7.237467799599244 ] } },
{ "type": "Feature", "properties": { "OBJECTID": 153, "Nama_Jalan": "Kp. Kandangan, Kandangan, Benowo, Surabaya", "Luas__ha_": "0.511674767", "Tinggi__cm": "15", "Lama__meni": "15", "result_num": "0", "osm_id": "8225080", "display_na": "Kandangan, Benowo, Surabaya, Jawa, Indonesia", "category": "boundary", "type": "administrative", "latlong": "-7.249590899999999,112.6502826" }, "geometry": { "type": "Point", "coordinates": [ 112.650282600062042, -7.249590899999987 ] } },
{ "type": "Feature", "properties": { "OBJECTID": 154, "Nama_Jalan": "Wisma Tengger, Kandangan, Benowo, Surabaya", "Luas__ha_": "0.785851368", "Tinggi__cm": "9.5", "Lama__meni": "15.5", "result_num": "0", "osm_id": "462012262", "display_na": "Jalan Wisma Tengger I, RW 04, Kandangan, Benowo, Surabaya, Jawa, 60185, Indonesia", "category": "highway", "type": "residential", "latlong": "-7.2587702,112.6571568" }, "geometry": { "type": "Point", "coordinates": [ 112.657156800146254, -7.258770200084598 ] } },
{ "type": "Feature", "properties": { "OBJECTID": 155, "Nama_Jalan": "Jl. Kupang Baru, Dukuh Kupang, Dukuh Pakis, Surabaya", "Luas__ha_": "0.19339401", "Tinggi__cm": "24.5", "Lama__meni": "15.5", "result_num": "0", "osm_id": "455437273", "display_na": "Jalan Raya Kupang Baru, RW 06, Dukuh Kupang, Dukuh Pakis, Surabaya, Jawa, 60188, Indonesia", "category": "highway", "type": "tertiary", "latlong": "-7.2772153,112.7048581" }, "geometry": { "type": "Point", "coordinates": [ 112.704858099621674, -7.277215299746217 ] } },
{ "type": "Feature", "properties": { "OBJECTID": 156, "Nama_Jalan": "Lontar Lidah Kulon, Lidah Kulon, Lakarsantri, Surabaya", "Luas__ha_": "1.12636454", "Tinggi__cm": "3.5", "Lama__meni": "16", "result_num": "0", "osm_id": "344132702", "display_na": "Jalan Lontar Lidah Kulon, Pakuwon Indah, RW 06, Lidah Wetan, Lakarsantri, Surabaya, Jawa, 60213, Indonesia", "category": "highway", "type": "unclassified", "latlong": "-7.295668099999999,112.6619008" }, "geometry": { "type": "Point", "coordinates": [ 112.661900800381659, -7.295668100302521 ] } },
{ "type": "Feature", "properties": { "OBJECTID": 157, "Nama_Jalan": "Jl. Hayam Wuruk, Sawunggaling, Wonokromo, Surabaya", "Luas__ha_": "0.306108426", "Tinggi__cm": "15", "Lama__meni": "39", "result_num": "0", "osm_id": "770110490", "display_na": "Jalan Hayam Wuruk, RW 10, Sawunggaling, Wonokromo, Surabaya, Jawa, 60224, Indonesia", "category": "highway", "type": "tertiary", "latlong": "-7.3013818,112.72601879999999" }, "geometry": { "type": "Point", "coordinates": [ 112.726018800227507, -7.301381799930084 ] } },
{ "type": "Feature", "properties": { "OBJECTID": 158, "Nama_Jalan": "Jl. Adityawarman, Wonokromo, Wonokromo, Surabaya", "Luas__ha_": "0.898018313", "Tinggi__cm": "8.5", "Lama__meni": "23", "result_num": "0", "osm_id": "453452536", "display_na": "Jalan Adityawarman, RW 06, Darmo, Wonokromo, Surabaya, Jawa, 60241, Indonesia", "category": "highway", "type": "secondary", "latlong": "-7.2933622,112.73055289999999" }, "geometry": { "type": "Point", "coordinates": [ 112.73055289959666, -7.293362199905573 ] } },
{ "type": "Feature", "properties": { "OBJECTID": 159, "Nama_Jalan": "Jl. Jajar Tunggal, Jajar Tunggal, Wiyung, Surabaya", "Luas__ha_": "0.47120641", "Tinggi__cm": "48.5", "Lama__meni": "36.5", "result_num": "0", "osm_id": "8225597", "display_na": "Jajar Tunggal, Wiyung, Surabaya, Jawa, 60229, Indonesia", "category": "boundary", "type": "administrative", "latlong": "-7.3093452999999995,112.7055975" }, "geometry": { "type": "Point", "coordinates": [ 112.705597499724945, -7.309345300245354 ] } },
{ "type": "Feature", "properties": { "OBJECTID": 160, "Nama_Jalan": "Jl. Gajah Mada, Sawunggaling, Wonokromo, Surabaya", "Luas__ha_": "0.166143479", "Tinggi__cm": "25", "Lama__meni": "39.5", "result_num": "0", "osm_id": "160036527", "display_na": "Jalan Gajah Mada I, RW 12, Sawunggaling, Wonokromo, Surabaya, Jawa, 60224, Indonesia", "category": "highway", "type": "residential", "latlong": "-7.3028378,112.7213598" }, "geometry": { "type": "Point", "coordinates": [ 112.721359800314644, -7.302837799624683 ] } },
{ "type": "Feature", "properties": { "OBJECTID": 161, "Nama_Jalan": "Jl. Bangkingan, Bangkingan, Lakarsantri, Surabaya", "Luas__ha_": "0.416374232", "Tinggi__cm": "13.5", "Lama__meni": "16", "result_num": "0", "osm_id": "8225256", "display_na": "Bangkingan, Lakarsantri, Surabaya, Jawa, Indonesia", "category": "boundary", "type": "administrative", "latlong": "-7.325427299999999,112.6579376" }, "geometry": { "type": "Point", "coordinates": [ 112.657937599640604, -7.325427299929913 ] } },
{ "type": "Feature", "properties": { "OBJECTID": 162, "Nama_Jalan": "Jl. Dukuh Pakis, Dukuh Pakis, Dukuh Pakis, Surabaya", "Luas__ha_": "0.2928104", "Tinggi__cm": "24", "Lama__meni": "31", "result_num": "0", "osm_id": "8225407", "display_na": "Dukuh Pakis, Surabaya, Jawa Timur, Jawa, Indonesia", "category": "boundary", "type": "administrative", "latlong": "-7.2942104,112.7121307" }, "geometry": { "type": "Point", "coordinates": [ 112.7121307002717, -7.294210399989936 ] } },
{ "type": "Feature", "properties": { "OBJECTID": 163, "Nama_Jalan": "Jl. Babatan Indah, Babatan, Wiyung, Surabaya", "Luas__ha_": "3.17262381", "Tinggi__cm": "8", "Lama__meni": "15.5", "result_num": "0", "osm_id": "457107800", "display_na": "Jalan Babatan Indah, Griya Babatan Mukti, RW 04, Babatan, Wiyung, Surabaya, Jawa, 60228, Indonesia", "category": "highway", "type": "residential", "latlong": "-7.3100499999999995,112.6748872" }, "geometry": { "type": "Point", "coordinates": [ 112.674887199584646, -7.310050000007436 ] } },
{ "type": "Feature", "properties": { "OBJECTID": 164, "Nama_Jalan": "Perumahan Lembah Harapan, Lidah Wetan, Lakarsantri, Surabaya", "Luas__ha_": "0.135504793", "Tinggi__cm": "9.5", "Lama__meni": "15.5", "result_num": "0", "osm_id": "655073804", "display_na": "Perumahan Lembah Harapan, RW 05, Lidah Wetan, Lakarsantri, Surabaya, Jawa Timur, Jawa, Indonesia", "category": "landuse", "type": "residential", "latlong": "-7.3131991,112.6678733" }, "geometry": { "type": "Point", "coordinates": [ 112.667873299713051, -7.313199100258203 ] } },
{ "type": "Feature", "properties": { "OBJECTID": 165, "Nama_Jalan": "Jl. Brawijaya, Sawunggaling, Wonokromo, Surabaya", "Luas__ha_": "0.672064542", "Tinggi__cm": "9", "Lama__meni": "3", "result_num": "0", "osm_id": "160036560", "display_na": "Jalan Brawijaya, RW 10, Sawunggaling, Wonokromo, Surabaya, Jawa Timur, Jawa, 60242, Indonesia", "category": "highway", "type": "tertiary", "latlong": "-7.2963912,112.7276207" }, "geometry": { "type": "Point", "coordinates": [ 112.727620699635622, -7.296391200193682 ] } },
{ "type": "Feature", "properties": { "OBJECTID": 166, "Nama_Jalan": "Jl. Raya Lidah Wetan, Lidah Wetan, Lakarsantri, Surabaya", "Luas__ha_": "0.36289239", "Tinggi__cm": "9", "Lama__meni": "2.5", "result_num": "0", "osm_id": "160361772", "display_na": "Jalan Raya Lidah Harapan Barat, Perumahan Lembah Harapan, RW 07, Lidah Wetan, Lakarsantri, Surabaya, Jawa, 60213, Indonesia", "category": "highway", "type": "residential", "latlong": "-7.312309099999999,112.668719" }, "geometry": { "type": "Point", "coordinates": [ 112.668718999682142, -7.312309099685137 ] } }
]
}
