{
"type": "FeatureCollection",
"name": "CH_2019",
"crs": { "type": "name", "properties": { "name": "urn:ogc:def:crs:OGC:1.3:CRS84" } },
"features": [
{ "type": "Feature", "properties": { "OBJECTID": 1, "Id": 1, "gridcode": 4, "Shape_Leng": 0.01509632418, "Shape_Area": 8.6944e-06 }, "geometry": { "type": "MultiPolygon", "coordinates": [ [ [ [ 112.663985208400163, -7.194885865759943 ], [ 112.663326661960014, -7.194885865759943 ], [ 112.663326661960014, -7.194227319319964 ], [ 112.664170113079081, -7.193898046100003 ], [ 112.663326661960014, -7.193568772879928 ], [ 112.662668115520091, -7.193568772879928 ], [ 112.662668115520091, -7.192910226440006 ], [ 112.665515718921824, -7.192237289432342 ], [ 112.666241756926297, -7.196454489131838 ], [ 112.664986513309714, -7.196736236769766 ], [ 112.664362845633946, -7.195166776850158 ], [ 112.663985208400163, -7.194885865759943 ] ] ] ] } },
{ "type": "Feature", "properties": { "OBJECTID": 2, "Id": 2, "gridcode": 4, "Shape_Leng": 0.00537770604, "Shape_Area": 1.43645e-06 }, "geometry": { "type": "MultiPolygon", "coordinates": [ [ [ [ 112.663985208400163, -7.198178597960009 ], [ 112.663527553995323, -7.197947077727065 ], [ 112.662793286170199, -7.196443581353549 ], [ 112.663985208400163, -7.196202958640015 ], [ 112.663985208400163, -7.198178597960009 ] ] ] ] } },
{ "type": "Feature", "properties": { "OBJECTID": 3, "Id": 3, "gridcode": 3, "Shape_Leng": 0.00372661988, "Shape_Area": 5.9215e-07 }, "geometry": { "type": "MultiPolygon", "coordinates": [ [ [ [ 112.784499206920032, -7.217276444719914 ], [ 112.783643305559281, -7.216910174988755 ], [ 112.78423543061308, -7.215779875928547 ], [ 112.784499206920032, -7.217276444719914 ] ] ] ] } },
{ "type": "Feature", "properties": { "OBJECTID": 4, "Id": 4, "gridcode": 3, "Shape_Leng": 0.00263418576, "Shape_Area": 4.3368e-07 }, "geometry": { "type": "MultiPolygon", "coordinates": [ [ [ [ 112.785157753360181, -7.217934991159893 ], [ 112.784499206920032, -7.217934991159893 ], [ 112.784499206920032, -7.217276444719914 ], [ 112.785157753360181, -7.217276444719914 ], [ 112.785157753360181, -7.217934991159893 ] ] ] ] } },
{ "type": "Feature", "properties": { "OBJECTID": 5, "Id": 5, "gridcode": 3, "Shape_Leng": 0.00263418576, "Shape_Area": 4.3368e-07 }, "geometry": { "type": "MultiPolygon", "coordinates": [ [ [ [ 112.78581629979999, -7.218593537599929 ], [ 112.785157753360181, -7.218593537599929 ], [ 112.785157753360181, -7.217934991159893 ], [ 112.78581629979999, -7.217934991159893 ], [ 112.78581629979999, -7.218593537599929 ] ] ] ] } },
{ "type": "Feature", "properties": { "OBJECTID": 6, "Id": 6, "gridcode": 4, "Shape_Leng": 0.05306902597, "Shape_Area": 0.00020862325 }, "geometry": { "type": "MultiPolygon", "coordinates": [ [ [ [ 112.78845048556002, -7.223861909119933 ], [ 112.788701560409777, -7.225586478614616 ], [ 112.79162408130685, -7.227177504445422 ], [ 112.792652839049651, -7.230196303694584 ], [ 112.793060310640044, -7.230447373519951 ], [ 112.792635073087354, -7.235534910052479 ], [ 112.78727119947132, -7.239971808410075 ], [ 112.780681273483651, -7.23918437333009 ], [ 112.777065015874882, -7.234812579989409 ], [ 112.776684695659242, -7.2300795085701 ], [ 112.778643111642396, -7.225690632573503 ], [ 112.782398000029275, -7.223595640754979 ], [ 112.785254521582374, -7.223366115173519 ], [ 112.78845048556002, -7.223861909119933 ] ] ] ] } },
{ "type": "Feature", "properties": { "OBJECTID": 7, "Id": 7, "gridcode": 5, "Shape_Leng": 0.34944874166000001, "Shape_Area": 0.00390876131 }, "geometry": { "type": "MultiPolygon", "coordinates": [ [ [ [ 112.617886957600035, -7.255472138239952 ], [ 112.617570237620043, -7.253154669947776 ], [ 112.61491870040345, -7.251903300074787 ], [ 112.614222911260981, -7.24825889125384 ], [ 112.606362394899975, -7.248570453778882 ], [ 112.605559542723086, -7.248538629795519 ], [ 112.602003627084741, -7.246657020448595 ], [ 112.603232858589195, -7.244333985220237 ], [ 112.605480678631466, -7.242251267792483 ], [ 112.607008388100098, -7.240522286953251 ], [ 112.605032748780218, -7.238691759772223 ], [ 112.604250074234301, -7.237847037502604 ], [ 112.604450624616447, -7.232787277871239 ], [ 112.602788125455163, -7.231246889554882 ], [ 112.600422923699966, -7.230130653539959 ], [ 112.599788594437086, -7.229446040976597 ], [ 112.599118384060148, -7.229472604506725 ], [ 112.59839520112007, -7.229443940814804 ], [ 112.598498528579967, -7.226837032037054 ], [ 112.597788737939936, -7.226179374900028 ], [ 112.596908266444302, -7.22339836622325 ], [ 112.592862192880034, -7.223558737193628 ], [ 112.591783675228498, -7.223515990358919 ], [ 112.592047422567134, -7.216861773292578 ], [ 112.593563619927181, -7.214984085420042 ], [ 112.596834812279553, -7.221915440947271 ], [ 112.597837846179914, -7.220832895447359 ], [ 112.597778751494729, -7.219341963932379 ], [ 112.600448030180132, -7.217618271180072 ], [ 112.601081470140116, -7.216575018301114 ], [ 112.598173264759794, -7.215202514811494 ], [ 112.596866888734326, -7.21661245192729 ], [ 112.594521112534039, -7.214765045574779 ], [ 112.597826640083099, -7.212340515503911 ], [ 112.594186735870608, -7.207867957101882 ], [ 112.592365651724322, -7.207008512346135 ], [ 112.592549565672243, -7.202368452220981 ], [ 112.597935835309841, -7.202581942715199 ], [ 112.610301120299937, -7.208398621020024 ], [ 112.614905393516779, -7.209032060979951 ], [ 112.628190949451096, -7.202002016687572 ], [ 112.632469451392467, -7.200335943985294 ], [ 112.639130596983136, -7.198749269835446 ], [ 112.646885283777578, -7.197821311696202 ], [ 112.653106636387861, -7.19651967830589 ], [ 112.659058665852172, -7.195886238974083 ], [ 112.660075832510643, -7.193730946478752 ], [ 112.662668115520091, -7.192910226440006 ], [ 112.662668115520091, -7.193568772879928 ], [ 112.663326661960014, -7.193568772879928 ], [ 112.663326661960014, -7.194227319319964 ], [ 112.663326661960014, -7.194885865759943 ], [ 112.663985208400163, -7.194885865759943 ], [ 112.663985208400163, -7.196202958640015 ], [ 112.662793286170199, -7.196443581353549 ], [ 112.663527553995323, -7.197947077727065 ], [ 112.663985208400163, -7.198178597960009 ], [ 112.663375638939783, -7.198886123891953 ], [ 112.66108822104934, -7.200856844411817 ], [ 112.660164094574952, -7.20767409282098 ], [ 112.662094364370205, -7.208535414156756 ], [ 112.664948539570219, -7.213678927789886 ], [ 112.667631702310018, -7.21823977588997 ], [ 112.668609463300072, -7.220430988280953 ], [ 112.6766530127843, -7.224001622637218 ], [ 112.678026779888114, -7.220922938629883 ], [ 112.680199653545287, -7.221548502982898 ], [ 112.680045115799658, -7.223471799034996 ], [ 112.685194983929591, -7.225362982205866 ], [ 112.688708625018307, -7.223402591668503 ], [ 112.690985612440045, -7.223585551939323 ], [ 112.692302705320117, -7.223479719860677 ], [ 112.694386869749223, -7.223647185157517 ], [ 112.695595437520069, -7.22320336268001 ], [ 112.695912160012199, -7.224203735579977 ], [ 112.696620155717142, -7.226223724489785 ], [ 112.696557150862077, -7.227813187759978 ], [ 112.696806708370104, -7.234109307136407 ], [ 112.69436485322035, -7.240380018574058 ], [ 112.68533219785229, -7.245910659107778 ], [ 112.679243235826561, -7.245255122229764 ], [ 112.672745968175036, -7.243552654677501 ], [ 112.665577538039656, -7.242052872839565 ], [ 112.662313735819907, -7.243593195839821 ], [ 112.650961039712911, -7.250776965195655 ], [ 112.645912843532415, -7.252546341492234 ], [ 112.64191036716727, -7.253813527894977 ], [ 112.641937448201475, -7.254496778870248 ], [ 112.6353258825078, -7.255130309267713 ], [ 112.634224990737835, -7.256318478337505 ], [ 112.620862969820223, -7.255788855707692 ], [ 112.617886957600035, -7.255472138239952 ] ] ] ] } },
{ "type": "Feature", "properties": { "OBJECTID": 8, "Id": 8, "gridcode": 4, "Shape_Leng": 0.24709296184000001, "Shape_Area": 0.00143188846 }, "geometry": { "type": "MultiPolygon", "coordinates": [ [ [ [ 112.631716432840108, -7.266008881280015 ], [ 112.632903471439931, -7.26340195240499 ], [ 112.631765075703129, -7.26050616586457 ], [ 112.629551588031404, -7.259600232418904 ], [ 112.626662863159481, -7.261342728653744 ], [ 112.622891472424158, -7.2598601148851 ], [ 112.620935204333705, -7.258680080174202 ], [ 112.617223108000417, -7.257160804010994 ], [ 112.617886957600035, -7.255472138239952 ], [ 112.620862969820223, -7.255788855707692 ], [ 112.634224990737835, -7.256318478337505 ], [ 112.6353258825078, -7.255130309267713 ], [ 112.641937448201475, -7.254496778870248 ], [ 112.64191036716727, -7.253813527894977 ], [ 112.645912843532415, -7.252546341492234 ], [ 112.650961039712911, -7.250776965195655 ], [ 112.662313735819907, -7.243593195839821 ], [ 112.665577538039656, -7.242052872839565 ], [ 112.672745968175036, -7.243552654677501 ], [ 112.679243235826561, -7.245255122229764 ], [ 112.68533219785229, -7.245910659107778 ], [ 112.69436485322035, -7.240380018574058 ], [ 112.696806708370104, -7.234109307136407 ], [ 112.696557150862077, -7.227813187759978 ], [ 112.696620155717142, -7.226223724489785 ], [ 112.695912160012199, -7.224203735579977 ], [ 112.695595437520069, -7.22320336268001 ], [ 112.697857954927258, -7.222173147887077 ], [ 112.701235477393084, -7.221599391712914 ], [ 112.704985321372078, -7.220730487436299 ], [ 112.70644844081562, -7.224305359798507 ], [ 112.707077605087079, -7.223490240767035 ], [ 112.709424912760028, -7.222544816239974 ], [ 112.708752338444924, -7.233274884703576 ], [ 112.70667109816452, -7.242220051750735 ], [ 112.702729797805318, -7.248989717426241 ], [ 112.696105083490806, -7.254767709795487 ], [ 112.69065756515181, -7.257033493004485 ], [ 112.684710901651215, -7.258417077611114 ], [ 112.684089394428952, -7.259771209708902 ], [ 112.675294670314315, -7.261817440592949 ], [ 112.663082053398171, -7.266588088831156 ], [ 112.659686136931214, -7.267636727771105 ], [ 112.658779384522745, -7.269612367091099 ], [ 112.65309301045761, -7.26845156041685 ], [ 112.643939208912229, -7.265740849381984 ], [ 112.638099658689498, -7.26539279528896 ], [ 112.631716432840108, -7.266008881280015 ] ] ] ] } },
{ "type": "Feature", "properties": { "OBJECTID": 9, "Id": 9, "gridcode": 2, "Shape_Leng": 0.04370410748, "Shape_Area": 0.00014573489 }, "geometry": { "type": "MultiPolygon", "coordinates": [ [ [ [ 112.628423700640155, -7.285765274479957 ], [ 112.628423700640155, -7.285106728039921 ], [ 112.62872733731524, -7.279834246633868 ], [ 112.631409796651496, -7.276358981229521 ], [ 112.636244663115804, -7.275644504163836 ], [ 112.639528246046325, -7.27760835645114 ], [ 112.64188150752716, -7.281509613054766 ], [ 112.641047713133048, -7.286320099051693 ], [ 112.637459928292628, -7.289219749287099 ], [ 112.633772355619158, -7.289764686015644 ], [ 112.630905544278107, -7.288591368807943 ], [ 112.629167034833813, -7.286339030654176 ], [ 112.628423700640155, -7.285765274479957 ] ] ] ] } },
{ "type": "Feature", "properties": { "OBJECTID": 10, "Id": 10, "gridcode": 4, "Shape_Leng": 0.00492330182, "Shape_Area": 1.16527e-06 }, "geometry": { "type": "MultiPolygon", "coordinates": [ [ [ [ 112.785157753360181, -7.333180618159986 ], [ 112.783547803463421, -7.332720310919285 ], [ 112.784707012406784, -7.331604160317738 ], [ 112.785157753360181, -7.333180618159986 ] ] ] ] } },
{ "type": "Feature", "properties": { "OBJECTID": 11, "Id": 11, "gridcode": 1, "Shape_Leng": 0.01309654144, "Shape_Area": 1.173505e-05 }, "geometry": { "type": "MultiPolygon", "coordinates": [ [ [ [ 112.735766770359987, -7.334497711039944 ], [ 112.732926648156763, -7.334015246589445 ], [ 112.732589155164646, -7.33173139595965 ], [ 112.735029191514172, -7.330259554312875 ], [ 112.736702216606318, -7.332118177438872 ], [ 112.735766770359987, -7.334497711039944 ] ] ] ] } },
{ "type": "Feature", "properties": { "OBJECTID": 12, "Id": 12, "gridcode": 4, "Shape_Leng": 0.24968289271, "Shape_Area": 0.00164328226 }, "geometry": { "type": "MultiPolygon", "coordinates": [ [ [ [ 112.699546716160171, -7.339766082560004 ], [ 112.698583384990002, -7.334143949330098 ], [ 112.697875861570196, -7.33287583342991 ], [ 112.696283215399149, -7.328678936341532 ], [ 112.694093329426323, -7.324753954943219 ], [ 112.690241763254562, -7.321435649002183 ], [ 112.686680572090154, -7.320363451069909 ], [ 112.684753909749929, -7.319655927650103 ], [ 112.680914110513868, -7.319046358189894 ], [ 112.675267508891125, -7.32111996151815 ], [ 112.673607602274046, -7.323046613809709 ], [ 112.671298474337505, -7.325036039838039 ], [ 112.66829024874994, -7.328924554789864 ], [ 112.66612211301765, -7.33079251308493 ], [ 112.662127725792629, -7.336355289109349 ], [ 112.658797065071894, -7.340070867290081 ], [ 112.65492096016726, -7.337908243226479 ], [ 112.65344846536027, -7.338448989679989 ], [ 112.649131487248042, -7.335521956951879 ], [ 112.648545793311882, -7.331045919214773 ], [ 112.649955705306297, -7.327377921255447 ], [ 112.651107126568149, -7.321167722614632 ], [ 112.648390205485498, -7.318992045392235 ], [ 112.648947919035891, -7.314508280265329 ], [ 112.643204569288059, -7.313789924431831 ], [ 112.636853996433274, -7.312766160853755 ], [ 112.636033410951995, -7.311741432608017 ], [ 112.6293750940481, -7.311155738671914 ], [ 112.628789400112055, -7.302521782448082 ], [ 112.628423700640155, -7.301570389040023 ], [ 112.630859619566991, -7.301207151480185 ], [ 112.634679891820156, -7.301358574153312 ], [ 112.638619504010762, -7.301202428628301 ], [ 112.64047425339345, -7.303204204412111 ], [ 112.644570644172177, -7.301912212987872 ], [ 112.647376802035978, -7.300928663991897 ], [ 112.645899358282691, -7.303720773882958 ], [ 112.658574965421394, -7.299278027227842 ], [ 112.665639352132871, -7.299976064749217 ], [ 112.672528078896789, -7.302157047643846 ], [ 112.674054590067271, -7.303804569335284 ], [ 112.677485410420104, -7.3039405573262 ], [ 112.680409920944157, -7.303824636431784 ], [ 112.691164940134399, -7.305736195694351 ], [ 112.692533803510855, -7.307004512566948 ], [ 112.694873715398558, -7.310194668441568 ], [ 112.700346234707013, -7.314208640429342 ], [ 112.703381340356486, -7.317938065610122 ], [ 112.705790356612283, -7.321668606187814 ], [ 112.707963139831804, -7.323681807253934 ], [ 112.711083829588006, -7.336790072852068 ], [ 112.711400552080136, -7.338448989679989 ], [ 112.704747440362212, -7.336548483900742 ], [ 112.702546601391987, -7.338156142711796 ], [ 112.699546716160171, -7.339766082560004 ] ] ] ] } },
{ "type": "Feature", "properties": { "OBJECTID": 13, "Id": 13, "gridcode": 1, "Shape_Leng": 0.40007411575000001, "Shape_Area": 0.00511680488 }, "geometry": { "type": "MultiPolygon", "coordinates": [ [ [ [ 112.825987632640022, -7.341083175439962 ], [ 112.824453630222479, -7.339661848212074 ], [ 112.821979699873623, -7.335453706716635 ], [ 112.821061095116534, -7.329232575176036 ], [ 112.822863033970293, -7.318884093054521 ], [ 112.82156877155785, -7.3139446832472 ], [ 112.818017407944922, -7.309313504847125 ], [ 112.81396873806807, -7.305562213866608 ], [ 112.811816323403605, -7.304546398747846 ], [ 112.807744320628217, -7.301744370867709 ], [ 112.803099345471196, -7.299552213906338 ], [ 112.780955138606373, -7.300429930823725 ], [ 112.777597030076663, -7.299252925772066 ], [ 112.772962083443531, -7.297960934347827 ], [ 112.76758908567956, -7.296387963377185 ], [ 112.760986538623456, -7.296649659619561 ], [ 112.750888036051833, -7.302507141606952 ], [ 112.745278031507723, -7.305154732227606 ], [ 112.745355777690179, -7.303193191123228 ], [ 112.740911252428987, -7.30412307043332 ], [ 112.739377109330917, -7.302467308872508 ], [ 112.736748440263909, -7.302571503025888 ], [ 112.730833821816304, -7.301886367934117 ], [ 112.730159870839884, -7.301913077169274 ], [ 112.727160246872131, -7.301127094115088 ], [ 112.721620572628012, -7.296618740012093 ], [ 112.720278378292051, -7.29598529502789 ], [ 112.719268331081935, -7.294895180403898 ], [ 112.715967841346355, -7.287901752031189 ], [ 112.716372318447611, -7.277696945095727 ], [ 112.718726660155312, -7.27196523667584 ], [ 112.724597526906336, -7.265196214112109 ], [ 112.72719023195782, -7.263521968112514 ], [ 112.733985421131365, -7.261370598504698 ], [ 112.744576165461694, -7.26179037463163 ], [ 112.74604878085222, -7.261011144250915 ], [ 112.75203187060481, -7.263108191012293 ], [ 112.753713276247026, -7.264922881566406 ], [ 112.756682121288009, -7.267100468026968 ], [ 112.762980084586388, -7.269094410910554 ], [ 112.766633079954318, -7.268949620327305 ], [ 112.777386551656491, -7.265801492811022 ], [ 112.784694813380725, -7.26463727965421 ], [ 112.798328682160218, -7.265177674405834 ], [ 112.80370069515925, -7.264964749146714 ], [ 112.810125381619855, -7.261565134787077 ], [ 112.811816323403605, -7.259740134347794 ], [ 112.812841805295875, -7.258789976920127 ], [ 112.813475250280135, -7.258106323999982 ], [ 112.81579398972292, -7.257746613506299 ], [ 112.818092772603904, -7.25902918937237 ], [ 112.825872776899473, -7.261371573220856 ], [ 112.828286315034916, -7.263082853413948 ], [ 112.83174671852862, -7.261625537049213 ], [ 112.83605990831029, -7.267132995413874 ], [ 112.827658497278549, -7.269662469516504 ], [ 112.828268046641483, -7.270972468069772 ], [ 112.82897559015862, -7.271582037530095 ], [ 112.829585139521441, -7.272948107389823 ], [ 112.83160977591865, -7.273557676849975 ], [ 112.832219325281471, -7.274265200269895 ], [ 112.839447780855835, -7.277008252792086 ], [ 112.841183177739822, -7.280118652760166 ], [ 112.842402316660241, -7.282850792479792 ], [ 112.843906595256158, -7.285546968184008 ], [ 112.844731707641472, -7.290070314829791 ], [ 112.845591387284003, -7.290810968553842 ], [ 112.84538657628616, -7.293359881714196 ], [ 112.84610147539388, -7.293975781805727 ], [ 112.846045584962781, -7.294671347366261 ], [ 112.846886252613672, -7.296960563959999 ], [ 112.846002154822031, -7.299368002582185 ], [ 112.846126215099275, -7.300911842599987 ], [ 112.845941019010297, -7.303216755139999 ], [ 112.846254535992216, -7.307118765390044 ], [ 112.845200335140476, -7.310620207452814 ], [ 112.842335533523737, -7.317547495800738 ], [ 112.839715516319643, -7.319009288826237 ], [ 112.835726394572021, -7.319736959731529 ], [ 112.837560730180485, -7.322324027506625 ], [ 112.832808676915761, -7.325300459256709 ], [ 112.829962224081441, -7.329845008493237 ], [ 112.826950953761639, -7.333485402890119 ], [ 112.82634140439859, -7.336168565629919 ], [ 112.825547985364665, -7.339067572753436 ], [ 112.825987632640022, -7.341083175439962 ] ] ] ] } },
{ "type": "Feature", "properties": { "OBJECTID": 14, "Id": 14, "gridcode": 3, "Shape_Leng": 0.02059786732, "Shape_Area": 2.095408e-05 }, "geometry": { "type": "MultiPolygon", "coordinates": [ [ [ [ 112.748279152720102, -7.342400268319977 ], [ 112.752254949995859, -7.336725580801158 ], [ 112.753890041542945, -7.336823042378285 ], [ 112.754864617120006, -7.336473350359995 ], [ 112.753441672064127, -7.342122514380947 ], [ 112.748279152720102, -7.342400268319977 ] ] ] ] } },
{ "type": "Feature", "properties": { "OBJECTID": 15, "Id": 15, "gridcode": 3, "Shape_Leng": 0.15843571069000001, "Shape_Area": 0.00122526274 }, "geometry": { "type": "MultiPolygon", "coordinates": [ [ [ [ 112.812158157400063, -7.346351546960022 ], [ 112.809828746321614, -7.346046762229832 ], [ 112.800968856898294, -7.345310328926871 ], [ 112.79997504826008, -7.345390185319673 ], [ 112.797571237190027, -7.345197040771211 ], [ 112.796048268158643, -7.346046762229832 ], [ 112.793566258718329, -7.346656331690099 ], [ 112.790779896638583, -7.344680692370105 ], [ 112.788973978530862, -7.343874863288875 ], [ 112.78448949995186, -7.345521691625493 ], [ 112.779657178300909, -7.34513341290176 ], [ 112.778926060718618, -7.342705053050054 ], [ 112.777559970761558, -7.342095483589901 ], [ 112.776950421398624, -7.341387960170039 ], [ 112.774267238561606, -7.340778390709886 ], [ 112.77037052393473, -7.339137330281915 ], [ 112.768389317678611, -7.341436937149865 ], [ 112.767161717819135, -7.342046506610018 ], [ 112.766413678358504, -7.338753774410122 ], [ 112.761754856201492, -7.338144204949913 ], [ 112.755991027363848, -7.336887001852347 ], [ 112.754864617120006, -7.336473350359995 ], [ 112.755241219345976, -7.335253749203048 ], [ 112.759488851922924, -7.325998989160496 ], [ 112.760455850839776, -7.324916712461004 ], [ 112.761787393637178, -7.325640293577464 ], [ 112.765489848318566, -7.320538608586276 ], [ 112.77112043243892, -7.316605578242388 ], [ 112.777098317005652, -7.314460649800765 ], [ 112.787507944987283, -7.313840207732483 ], [ 112.794997865685673, -7.316153038585981 ], [ 112.798017938597582, -7.318344803651087 ], [ 112.798639425722513, -7.319040389308839 ], [ 112.799813064486102, -7.320089023224455 ], [ 112.802590704362615, -7.32365021438892 ], [ 112.803833718807027, -7.324760828200112 ], [ 112.806079947398985, -7.33102104887729 ], [ 112.809033860189061, -7.341744404861856 ], [ 112.811151808082741, -7.345382246908912 ], [ 112.811847413837654, -7.346003754131061 ], [ 112.812158157400063, -7.346351546960022 ] ], [ [ 112.785157753360181, -7.333180618159986 ], [ 112.784707012406784, -7.331604160317738 ], [ 112.783547803463421, -7.332720310919285 ], [ 112.785157753360181, -7.333180618159986 ] ] ] ] } },
{ "type": "Feature", "properties": { "OBJECTID": 16, "Id": 16, "gridcode": 2, "Shape_Leng": 0.68372744612000003, "Shape_Area": 0.00620714603 }, "geometry": { "type": "MultiPolygon", "coordinates": [ [ [ [ 112.812158157400063, -7.346351546960022 ], [ 112.811847413837654, -7.346003754131061 ], [ 112.811151808082741, -7.345382246908912 ], [ 112.809033860189061, -7.341744404861856 ], [ 112.806079947398985, -7.33102104887729 ], [ 112.803833718807027, -7.324760828200112 ], [ 112.802590704362615, -7.32365021438892 ], [ 112.799813064486102, -7.320089023224455 ], [ 112.798639425722513, -7.319040389308839 ], [ 112.798017938597582, -7.318344803651087 ], [ 112.794997865685673, -7.316153038585981 ], [ 112.787507944987283, -7.313840207732483 ], [ 112.777098317005652, -7.314460649800765 ], [ 112.77112043243892, -7.316605578242388 ], [ 112.765489848318566, -7.320538608586276 ], [ 112.761787393637178, -7.325640293577464 ], [ 112.760455850839776, -7.324916712461004 ], [ 112.759488851922924, -7.325998989160496 ], [ 112.755241219345976, -7.335253749203048 ], [ 112.754864617120006, -7.336473350359995 ], [ 112.753890041542945, -7.336823042378285 ], [ 112.752254949995859, -7.336725580801158 ], [ 112.748279152720102, -7.342400268319977 ], [ 112.742820148807141, -7.341054124876052 ], [ 112.742077294435035, -7.344759513754923 ], [ 112.736700257125221, -7.345309394405092 ], [ 112.736150376475052, -7.346076606634938 ], [ 112.735108223920065, -7.346351546960022 ], [ 112.73478553254688, -7.346015691893115 ], [ 112.729151702721992, -7.344915860252343 ], [ 112.723660764290571, -7.340845455207841 ], [ 112.72107460089137, -7.335825264534662 ], [ 112.720284347173106, -7.333516473226894 ], [ 112.719638964426963, -7.331527670213063 ], [ 112.718967254293148, -7.330223741026884 ], [ 112.718245652755058, -7.314009808361334 ], [ 112.715242109825112, -7.309428651997621 ], [ 112.706700560721856, -7.297734609252188 ], [ 112.705155705793459, -7.294735779125574 ], [ 112.704492396307046, -7.292014883813124 ], [ 112.703820686173117, -7.289393861746817 ], [ 112.703175303427088, -7.286746512293121 ], [ 112.700948569160118, -7.284607090495911 ], [ 112.70208738945098, -7.276449418820448 ], [ 112.706730314689366, -7.26687930289836 ], [ 112.712947466975834, -7.258492412124269 ], [ 112.714871335799558, -7.256643993373245 ], [ 112.718869290284943, -7.251375154592324 ], [ 112.720923138023863, -7.247388288760305 ], [ 112.721661199203709, -7.241614029453842 ], [ 112.721478434880964, -7.232658894174392 ], [ 112.722259986493327, -7.229452969500926 ], [ 112.722931947842426, -7.226830982767069 ], [ 112.722905801330171, -7.225549796122834 ], [ 112.726799652099771, -7.220297022575153 ], [ 112.730323834192291, -7.21815986925418 ], [ 112.733475031562534, -7.216631069510129 ], [ 112.736683696997375, -7.214978116538987 ], [ 112.742792605536238, -7.215956719101257 ], [ 112.747284751213101, -7.218270848739053 ], [ 112.749879415746022, -7.219529652079473 ], [ 112.752487264069714, -7.223376867198226 ], [ 112.753883379306899, -7.226818783740953 ], [ 112.755897494797637, -7.232239313995535 ], [ 112.757511976622482, -7.235373303101881 ], [ 112.759138637376282, -7.238726216494342 ], [ 112.759801786084722, -7.236682633421992 ], [ 112.763677901038136, -7.243212197342189 ], [ 112.770695496344956, -7.249103221627195 ], [ 112.778646688951653, -7.251824770100029 ], [ 112.785992030087868, -7.25197467543137 ], [ 112.793558199723975, -7.250742975734454 ], [ 112.801621414360056, -7.246911034519997 ], [ 112.802637571131868, -7.247216974841422 ], [ 112.802581218464297, -7.247918358553761 ], [ 112.803950825438619, -7.249850005010046 ], [ 112.804577095707145, -7.251930129893424 ], [ 112.806646810219149, -7.251763825212379 ], [ 112.806326862119477, -7.25574582751176 ], [ 112.809870829947272, -7.254444375310641 ], [ 112.811058978919732, -7.257107069009066 ], [ 112.813475250280135, -7.258106323999982 ], [ 112.812841805295875, -7.258789976920127 ], [ 112.811816323403605, -7.259740134347794 ], [ 112.810125381619855, -7.261565134787077 ], [ 112.80370069515925, -7.264964749146714 ], [ 112.798328682160218, -7.265177674405834 ], [ 112.784694813380725, -7.26463727965421 ], [ 112.777386551656491, -7.265801492811022 ], [ 112.766633079954318, -7.268949620327305 ], [ 112.762980084586388, -7.269094410910554 ], [ 112.756682121288009, -7.267100468026968 ], [ 112.753713276247026, -7.264922881566406 ], [ 112.75203187060481, -7.263108191012293 ], [ 112.74604878085222, -7.261011144250915 ], [ 112.744576165461694, -7.26179037463163 ], [ 112.733985421131365, -7.261370598504698 ], [ 112.72719023195782, -7.263521968112514 ], [ 112.724597526906336, -7.265196214112109 ], [ 112.718726660155312, -7.27196523667584 ], [ 112.716372318447611, -7.277696945095727 ], [ 112.715967841346355, -7.287901752031189 ], [ 112.719268331081935, -7.294895180403898 ], [ 112.720278378292051, -7.29598529502789 ], [ 112.721620572628012, -7.296618740012093 ], [ 112.727160246872131, -7.301127094115088 ], [ 112.730159870839884, -7.301913077169274 ], [ 112.730833821816304, -7.301886367934117 ], [ 112.736748440263909, -7.302571503025888 ], [ 112.739377109330917, -7.302467308872508 ], [ 112.740911252428987, -7.30412307043332 ], [ 112.745355777690179, -7.303193191123228 ], [ 112.745278031507723, -7.305154732227606 ], [ 112.750888036051833, -7.302507141606952 ], [ 112.760986538623456, -7.296649659619561 ], [ 112.76758908567956, -7.296387963377185 ], [ 112.772962083443531, -7.297960934347827 ], [ 112.777597030076663, -7.299252925772066 ], [ 112.780955138606373, -7.300429930823725 ], [ 112.803099345471196, -7.299552213906338 ], [ 112.807744320628217, -7.301744370867709 ], [ 112.811816323403605, -7.304546398747846 ], [ 112.81396873806807, -7.305562213866608 ], [ 112.818017407944922, -7.309313504847125 ], [ 112.82156877155785, -7.3139446832472 ], [ 112.822863033970293, -7.318884093054521 ], [ 112.821061095116534, -7.329232575176036 ], [ 112.821979699873623, -7.335453706716635 ], [ 112.824453630222479, -7.339661848212074 ], [ 112.825987632640022, -7.341083175439962 ], [ 112.825516191527072, -7.343667700913954 ], [ 112.819600548120093, -7.343192370984582 ], [ 112.813170475598554, -7.346046762229832 ], [ 112.812158157400063, -7.346351546960022 ] ], [ [ 112.735766770359987, -7.334497711039944 ], [ 112.736702216606318, -7.332118177438872 ], [ 112.735029191514172, -7.330259554312875 ], [ 112.732589155164646, -7.33173139595965 ], [ 112.732926648156763, -7.334015246589445 ], [ 112.735766770359987, -7.334497711039944 ] ] ] ] } },
{ "type": "Feature", "properties": { "OBJECTID": 17, "Id": 17, "gridcode": 3, "Shape_Leng": 0.83704363369000001, "Shape_Area": 0.00617257055 }, "geometry": { "type": "MultiPolygon", "coordinates": [ [ [ [ 112.711400552080136, -7.338448989679989 ], [ 112.711083829588006, -7.336790072852068 ], [ 112.707963139831804, -7.323681807253934 ], [ 112.705790356612283, -7.321668606187814 ], [ 112.703381340356486, -7.317938065610122 ], [ 112.700346234707013, -7.314208640429342 ], [ 112.694873715398558, -7.310194668441568 ], [ 112.692533803510855, -7.307004512566948 ], [ 112.691164940134399, -7.305736195694351 ], [ 112.680409920944157, -7.303824636431784 ], [ 112.677485410420104, -7.3039405573262 ], [ 112.674054590067271, -7.303804569335284 ], [ 112.672528078896789, -7.302157047643846 ], [ 112.665639352132871, -7.299976064749217 ], [ 112.658574965421394, -7.299278027227842 ], [ 112.645899358282691, -7.303720773882958 ], [ 112.647376802035978, -7.300928663991897 ], [ 112.644570644172177, -7.301912212987872 ], [ 112.64047425339345, -7.303204204412111 ], [ 112.638619504010762, -7.301202428628301 ], [ 112.634679891820156, -7.301358574153312 ], [ 112.630859619566991, -7.301207151480185 ], [ 112.628423700640155, -7.301570389040023 ], [ 112.627778325430313, -7.300898668857599 ], [ 112.626539277679171, -7.299708218750766 ], [ 112.628052014702121, -7.296771730270109 ], [ 112.628423700640155, -7.285765274479957 ], [ 112.629167034833813, -7.286339030654176 ], [ 112.630905544278107, -7.288591368807943 ], [ 112.633772355619158, -7.289764686015644 ], [ 112.637459928292628, -7.289219749287099 ], [ 112.641047713133048, -7.286320099051693 ], [ 112.64188150752716, -7.281509613054766 ], [ 112.639528246046325, -7.27760835645114 ], [ 112.636244663115804, -7.275644504163836 ], [ 112.631409796651496, -7.276358981229521 ], [ 112.62872733731524, -7.279834246633868 ], [ 112.628423700640155, -7.285106728039921 ], [ 112.627571165567701, -7.284448684031076 ], [ 112.62616118323308, -7.282168159494745 ], [ 112.628165021496216, -7.27884617575836 ], [ 112.626618747199927, -7.276760574376453 ], [ 112.631411668207193, -7.2747989327857 ], [ 112.631716432840108, -7.266008881280015 ], [ 112.638099658689498, -7.26539279528896 ], [ 112.643939208912229, -7.265740849381984 ], [ 112.65309301045761, -7.26845156041685 ], [ 112.658779384522745, -7.269612367091099 ], [ 112.659686136931214, -7.267636727771105 ], [ 112.663082053398171, -7.266588088831156 ], [ 112.675294670314315, -7.261817440592949 ], [ 112.684089394428952, -7.259771209708902 ], [ 112.684710901651215, -7.258417077611114 ], [ 112.69065756515181, -7.257033493004485 ], [ 112.696105083490806, -7.254767709795487 ], [ 112.702729797805318, -7.248989717426241 ], [ 112.70667109816452, -7.242220051750735 ], [ 112.708752338444924, -7.233274884703576 ], [ 112.709424912760028, -7.222544816239974 ], [ 112.71118845583203, -7.222000243774005 ], [ 112.710256878305017, -7.217639991274837 ], [ 112.714941625904885, -7.21583905728329 ], [ 112.715662584331199, -7.209684638538874 ], [ 112.717675262868966, -7.209063136341001 ], [ 112.718973836140094, -7.207021330618545 ], [ 112.72085690756137, -7.209982175700986 ], [ 112.721589502291295, -7.208264307380603 ], [ 112.720272409411223, -7.207087497021064 ], [ 112.717626376326848, -7.201322299686751 ], [ 112.71769599317463, -7.200154237279946 ], [ 112.717636053149022, -7.19914853358631 ], [ 112.719754141723456, -7.198526392672932 ], [ 112.721153211255114, -7.200092239799233 ], [ 112.725213155684969, -7.208938064921028 ], [ 112.727168828394611, -7.209684638538874 ], [ 112.724619985574691, -7.203556592400957 ], [ 112.725238548550806, -7.202477671940983 ], [ 112.72883467877125, -7.209065274185207 ], [ 112.730224292550474, -7.208982449680889 ], [ 112.730127785592344, -7.207363177175864 ], [ 112.732163284549074, -7.206428950580914 ], [ 112.73278479177111, -7.202067330841373 ], [ 112.73029483387154, -7.200924525015978 ], [ 112.731504738108924, -7.199843485552947 ], [ 112.732126245331187, -7.198912389103668 ], [ 112.724455509742597, -7.199369585668023 ], [ 112.722943634388912, -7.198165386535265 ], [ 112.736114563189176, -7.195892206913015 ], [ 112.742506541387456, -7.194526538370042 ], [ 112.74432787408, -7.194635094881107 ], [ 112.747547954748597, -7.194443169670024 ], [ 112.748589906331176, -7.19467835293932 ], [ 112.746271568833208, -7.196749763784055 ], [ 112.749718426785535, -7.198331755904348 ], [ 112.751989093624275, -7.199917850374334 ], [ 112.754055230826907, -7.199794703265241 ], [ 112.757809556491111, -7.197172256806994 ], [ 112.760157627859257, -7.195678898550057 ], [ 112.764441134013964, -7.195934206695426 ], [ 112.771540283930449, -7.20089306592314 ], [ 112.772956114562703, -7.202477671940983 ], [ 112.774310266757539, -7.20309917413897 ], [ 112.775128968122544, -7.207485482712912 ], [ 112.780047426554574, -7.208629842306379 ], [ 112.778875033819986, -7.213007262874896 ], [ 112.779939725432428, -7.213958545748085 ], [ 112.778881324256986, -7.218912370302576 ], [ 112.778935044185914, -7.219813734137688 ], [ 112.785715230767892, -7.222197020898875 ], [ 112.78744413624247, -7.22122671849786 ], [ 112.78581629979999, -7.218593537599929 ], [ 112.787442548560307, -7.21901087944849 ], [ 112.788060920612907, -7.222934388723729 ], [ 112.78845048556002, -7.223861909119933 ], [ 112.785254521582374, -7.223366115173519 ], [ 112.782398000029275, -7.223595640754979 ], [ 112.778643111642396, -7.225690632573503 ], [ 112.776684695659242, -7.2300795085701 ], [ 112.777065015874882, -7.234812579989409 ], [ 112.780681273483651, -7.23918437333009 ], [ 112.78727119947132, -7.239971808410075 ], [ 112.792635073087354, -7.235534910052479 ], [ 112.793060310640044, -7.230447373519951 ], [ 112.794090515384255, -7.230734251607032 ], [ 112.795447903235527, -7.234050768893439 ], [ 112.797474850815433, -7.236784707316303 ], [ 112.797092581167135, -7.239371463584121 ], [ 112.799269012036234, -7.241051387054711 ], [ 112.799937486513954, -7.242684689947168 ], [ 112.801772646109271, -7.242413497757752 ], [ 112.801999343004127, -7.243947575540005 ], [ 112.801902032156022, -7.244606121979871 ], [ 112.802072919008424, -7.245762527358067 ], [ 112.801621414360056, -7.246911034519997 ], [ 112.793558199723975, -7.250742975734454 ], [ 112.785992030087868, -7.25197467543137 ], [ 112.778646688951653, -7.251824770100029 ], [ 112.770695496344956, -7.249103221627195 ], [ 112.763677901038136, -7.243212197342189 ], [ 112.759801786084722, -7.236682633421992 ], [ 112.759138637376282, -7.238726216494342 ], [ 112.757511976622482, -7.235373303101881 ], [ 112.755897494797637, -7.232239313995535 ], [ 112.753883379306899, -7.226818783740953 ], [ 112.752487264069714, -7.223376867198226 ], [ 112.749879415746022, -7.219529652079473 ], [ 112.747284751213101, -7.218270848739053 ], [ 112.742792605536238, -7.215956719101257 ], [ 112.736683696997375, -7.214978116538987 ], [ 112.733475031562534, -7.216631069510129 ], [ 112.730323834192291, -7.21815986925418 ], [ 112.726799652099771, -7.220297022575153 ], [ 112.722905801330171, -7.225549796122834 ], [ 112.722931947842426, -7.226830982767069 ], [ 112.722259986493327, -7.229452969500926 ], [ 112.721478434880964, -7.232658894174392 ], [ 112.721661199203709, -7.241614029453842 ], [ 112.720923138023863, -7.247388288760305 ], [ 112.718869290284943, -7.251375154592324 ], [ 112.714871335799558, -7.256643993373245 ], [ 112.712947466975834, -7.258492412124269 ], [ 112.706730314689366, -7.26687930289836 ], [ 112.70208738945098, -7.276449418820448 ], [ 112.700948569160118, -7.284607090495911 ], [ 112.703175303427088, -7.286746512293121 ], [ 112.703820686173117, -7.289393861746817 ], [ 112.704492396307046, -7.292014883813124 ], [ 112.705155705793459, -7.294735779125574 ], [ 112.706700560721856, -7.297734609252188 ], [ 112.715242109825112, -7.309428651997621 ], [ 112.718245652755058, -7.314009808361334 ], [ 112.718967254293148, -7.330223741026884 ], [ 112.719638964426963, -7.331527670213063 ], [ 112.720284347173106, -7.333516473226894 ], [ 112.72107460089137, -7.335825264534662 ], [ 112.723660764290571, -7.340845455207841 ], [ 112.729151702721992, -7.344915860252343 ], [ 112.73478553254688, -7.346015691893115 ], [ 112.735108223920065, -7.346351546960022 ], [ 112.733401556044214, -7.346620518404052 ], [ 112.732863613155928, -7.34805821483593 ], [ 112.725462703144331, -7.348596157724103 ], [ 112.723489686514426, -7.3457385308227 ], [ 112.720614303699335, -7.344662624949137 ], [ 112.719281896720645, -7.342732827439079 ], [ 112.71648198909952, -7.342014290730447 ], [ 112.715608723721516, -7.339680458258556 ], [ 112.712328069964087, -7.338838564675882 ], [ 112.711400552080136, -7.338448989679989 ] ] ] ] } },
{ "type": "Feature", "properties": { "OBJECTID": 18, "Id": 18, "gridcode": 5, "Shape_Leng": 0.13721046527, "Shape_Area": 0.00097803426 }, "geometry": { "type": "MultiPolygon", "coordinates": [ [ [ [ 112.65344846536027, -7.338448989679989 ], [ 112.65492096016726, -7.337908243226479 ], [ 112.658797065071894, -7.340070867290081 ], [ 112.662127725792629, -7.336355289109349 ], [ 112.66612211301765, -7.33079251308493 ], [ 112.66829024874994, -7.328924554789864 ], [ 112.671298474337505, -7.325036039838039 ], [ 112.673607602274046, -7.323046613809709 ], [ 112.675267508891125, -7.32111996151815 ], [ 112.680914110513868, -7.319046358189894 ], [ 112.684753909749929, -7.319655927650103 ], [ 112.686680572090154, -7.320363451069909 ], [ 112.690241763254562, -7.321435649002183 ], [ 112.694093329426323, -7.324753954943219 ], [ 112.696283215399149, -7.328678936341532 ], [ 112.697875861570196, -7.33287583342991 ], [ 112.698583384990002, -7.334143949330098 ], [ 112.699546716160171, -7.339766082560004 ], [ 112.697436636336761, -7.34221525310619 ], [ 112.694724835026477, -7.343728263954006 ], [ 112.690071258249759, -7.34543719276968 ], [ 112.682383158643802, -7.347751912764011 ], [ 112.6784604884283, -7.350533220387263 ], [ 112.673798807438629, -7.351550030319345 ], [ 112.667252120667968, -7.351023995047399 ], [ 112.662314353810189, -7.351924703210102 ], [ 112.660387691469964, -7.353290773069887 ], [ 112.658577256507101, -7.354098621923924 ], [ 112.655911241739545, -7.357193074730105 ], [ 112.65477329065402, -7.356368173365809 ], [ 112.656321848499374, -7.343503154741541 ], [ 112.65344846536027, -7.338448989679989 ] ] ] ] } }
]
}
