{
"type": "FeatureCollection",
"name": "CH_2025",
"crs": { "type": "name", "properties": { "name": "urn:ogc:def:crs:OGC:1.3:CRS84" } },
"features": [
{ "type": "Feature", "properties": { "FID": 0, "OBJECTID": 1, "Id": 1, "gridcode": 4, "Shape_Leng": 0.0024694358498599999, "Shape_Area": 2.7772576242500002e-07 }, "geometry": { "type": "Polygon", "coordinates": [ [ [ 112.743010781200041, -7.194885865759943 ], [ 112.742681507980024, -7.194042414954993 ], [ 112.742352234760119, -7.194885865759943 ], [ 112.743010781200041, -7.194885865759943 ] ] ] } },
{ "type": "Feature", "properties": { "FID": 1, "OBJECTID": 2, "Id": 2, "gridcode": 4, "Shape_Leng": 0.014743855934000001, "Shape_Area": 8.9229995435500002e-06 }, "geometry": { "type": "Polygon", "coordinates": [ [ [ 112.746962059840143, -7.197520051519973 ], [ 112.746536390196752, -7.196412639450614 ], [ 112.747986305752079, -7.195251564917839 ], [ 112.748571999688238, -7.194191055573128 ], [ 112.743010781200041, -7.194885865759943 ], [ 112.743606272542138, -7.195748355875992 ], [ 112.745913938404101, -7.197251076307623 ], [ 112.746962059840143, -7.197520051519973 ] ] ] } },
{ "type": "Feature", "properties": { "FID": 2, "OBJECTID": 3, "Id": 3, "gridcode": 4, "Shape_Leng": 0.0104003626085, "Shape_Area": 5.5220339809100004e-06 }, "geometry": { "type": "Polygon", "coordinates": [ [ [ 112.746962059840143, -7.197520051519973 ], [ 112.748268179625597, -7.199411775432225 ], [ 112.750272939849992, -7.200423212492296 ], [ 112.750913338480245, -7.199495690840024 ], [ 112.749754561627242, -7.19799442871448 ], [ 112.746962059840143, -7.197520051519973 ] ] ] } },
{ "type": "Feature", "properties": { "FID": 3, "OBJECTID": 4, "Id": 4, "gridcode": 4, "Shape_Leng": 0.0037266198795700002, "Shape_Area": 5.9215099397800004e-07 }, "geometry": { "type": "Polygon", "coordinates": [ [ [ 112.784499206920032, -7.217276444719914 ], [ 112.78423543061308, -7.215779875928547 ], [ 112.783643305559281, -7.216910174988755 ], [ 112.784499206920032, -7.217276444719914 ] ] ] } },
{ "type": "Feature", "properties": { "FID": 4, "OBJECTID": 5, "Id": 5, "gridcode": 4, "Shape_Leng": 0.0026341857601399998, "Shape_Area": 4.3368341368400001e-07 }, "geometry": { "type": "Polygon", "coordinates": [ [ [ 112.785157753360181, -7.217934991159893 ], [ 112.785157753360181, -7.217276444719914 ], [ 112.784499206920032, -7.217276444719914 ], [ 112.784499206920032, -7.217934991159893 ], [ 112.785157753360181, -7.217934991159893 ] ] ] } },
{ "type": "Feature", "properties": { "FID": 5, "OBJECTID": 6, "Id": 6, "gridcode": 4, "Shape_Leng": 0.0026341857598000001, "Shape_Area": 4.3368341357200002e-07 }, "geometry": { "type": "Polygon", "coordinates": [ [ [ 112.78581629979999, -7.218593537599929 ], [ 112.78581629979999, -7.217934991159893 ], [ 112.785157753360181, -7.217934991159893 ], [ 112.785157753360181, -7.218593537599929 ], [ 112.78581629979999, -7.218593537599929 ] ] ] } },
{ "type": "Feature", "properties": { "FID": 6, "OBJECTID": 7, "Id": 7, "gridcode": 5, "Shape_Leng": 0.0248804173654, "Shape_Area": 3.4512519475399997e-05 }, "geometry": { "type": "Polygon", "coordinates": [ [ [ 112.671887765680026, -7.221886269799995 ], [ 112.67099928668938, -7.224001625149356 ], [ 112.671741191466822, -7.22731106066999 ], [ 112.67428927561582, -7.228740708156181 ], [ 112.677721573115832, -7.227299097786442 ], [ 112.678742201524187, -7.223639897394946 ], [ 112.677156137199972, -7.222544816239974 ], [ 112.676709918126448, -7.224026887383104 ], [ 112.671887765680026, -7.221886269799995 ] ] ] } },
{ "type": "Feature", "properties": { "FID": 7, "OBJECTID": 8, "Id": 8, "gridcode": 4, "Shape_Leng": 0.15589706628700001, "Shape_Area": 0.0011603606652400001 }, "geometry": { "type": "Polygon", "coordinates": [ [ [ 112.752230431359976, -7.200154237279946 ], [ 112.752553122733161, -7.200490096115118 ], [ 112.754541925747162, -7.201135471324847 ], [ 112.755208470889443, -7.224954138978603 ], [ 112.758139181412957, -7.232179351360571 ], [ 112.762042126184951, -7.237014358505576 ], [ 112.767183945369425, -7.240066672418664 ], [ 112.771628269657754, -7.241508865608466 ], [ 112.782339316081448, -7.241290272926847 ], [ 112.786600735366619, -7.239831660289951 ], [ 112.791714157147567, -7.237197474529921 ], [ 112.795035949960038, -7.233740105720017 ], [ 112.794212867396368, -7.23078432388661 ], [ 112.792688652335755, -7.230160495432926 ], [ 112.791471121194718, -7.227185678998751 ], [ 112.788502436931708, -7.225410160482454 ], [ 112.787420341107577, -7.219040206349462 ], [ 112.78581629979999, -7.218593537599929 ], [ 112.787438167361643, -7.221192035681725 ], [ 112.785874521511346, -7.222191054530072 ], [ 112.778948971575119, -7.219842046128065 ], [ 112.778874189735916, -7.218911506121117 ], [ 112.779956345851929, -7.213950230514001 ], [ 112.778866231227767, -7.213011036132173 ], [ 112.780067724769424, -7.208620944252289 ], [ 112.775119502321445, -7.207496796204282 ], [ 112.774316235638594, -7.203093206513984 ], [ 112.772950145681534, -7.202483639565969 ], [ 112.771677447610159, -7.201006403693668 ], [ 112.764567867224741, -7.195965458849514 ], [ 112.760271900779799, -7.195620272067629 ], [ 112.757803587610283, -7.197166288554001 ], [ 112.754592490408982, -7.199443075631279 ], [ 112.752230431359976, -7.200154237279946 ] ] ] } },
{ "type": "Feature", "properties": { "FID": 8, "OBJECTID": 9, "Id": 9, "gridcode": 5, "Shape_Leng": 0.25638062171600001, "Shape_Area": 0.0023319990372299999 }, "geometry": { "type": "Polygon", "coordinates": [ [ [ 112.615911318280041, -7.25217940604 ], [ 112.616259113621027, -7.251868652428868 ], [ 112.6248119372774, -7.249902282961898 ], [ 112.625441719538912, -7.249197427451122 ], [ 112.632128504186767, -7.247641639622714 ], [ 112.632004363520309, -7.245558871951914 ], [ 112.636485483347656, -7.243502185477553 ], [ 112.641707907547016, -7.239854254614784 ], [ 112.645791918424607, -7.235283403112135 ], [ 112.648608958944919, -7.230854038708458 ], [ 112.651458421341658, -7.224645608625053 ], [ 112.654641161333757, -7.210966150507261 ], [ 112.656430443948921, -7.208404589900965 ], [ 112.657710497611106, -7.203757720578892 ], [ 112.660381722588909, -7.195233660472979 ], [ 112.660692476199984, -7.193568772879928 ], [ 112.659732672096084, -7.194458081823939 ], [ 112.659058665852172, -7.195886238974083 ], [ 112.653106636387861, -7.19651967830589 ], [ 112.646885283777578, -7.197821311696202 ], [ 112.639130596983136, -7.198749269835446 ], [ 112.632469451392467, -7.200335943985294 ], [ 112.628190949451096, -7.202002016687572 ], [ 112.614905393516779, -7.209032060979951 ], [ 112.610301120299937, -7.208398621020024 ], [ 112.597935835309841, -7.202581942715199 ], [ 112.592549565672243, -7.202368452220981 ], [ 112.592365651724322, -7.207008512346135 ], [ 112.594186735870608, -7.207867957101882 ], [ 112.597826640083099, -7.212340515503911 ], [ 112.594521112534039, -7.214765045574779 ], [ 112.596866888734326, -7.21661245192729 ], [ 112.598173264759794, -7.215202514811494 ], [ 112.601081470140116, -7.216575018301114 ], [ 112.600448030180132, -7.217618271180072 ], [ 112.597778751494729, -7.219341963932379 ], [ 112.597837846179914, -7.220832895447359 ], [ 112.596834812279553, -7.221915440947271 ], [ 112.593563619927181, -7.214984085420042 ], [ 112.592047422567134, -7.216861773292578 ], [ 112.591783675228498, -7.223515990358919 ], [ 112.592862192880034, -7.223558737193628 ], [ 112.596908266444302, -7.22339836622325 ], [ 112.597788737939936, -7.226179374900028 ], [ 112.598498528579967, -7.226837032037054 ], [ 112.59839520112007, -7.229443940814804 ], [ 112.599118384060148, -7.229472604506725 ], [ 112.599788594437086, -7.229446040976597 ], [ 112.600422923699966, -7.230130653539959 ], [ 112.602788125455163, -7.231246889554882 ], [ 112.604450624616447, -7.232787277871239 ], [ 112.604250074234301, -7.237847037502604 ], [ 112.605032748780218, -7.238691759772223 ], [ 112.607008388100098, -7.240522286953251 ], [ 112.605480678631466, -7.242251267792483 ], [ 112.603232858589195, -7.244333985220237 ], [ 112.602003627084741, -7.246657020448595 ], [ 112.605559542723086, -7.248538629795519 ], [ 112.606362394899975, -7.248570453778882 ], [ 112.614222911260981, -7.24825889125384 ], [ 112.614910945379961, -7.251862688572203 ], [ 112.615911318280041, -7.25217940604 ] ] ] } },
{ "type": "Feature", "properties": { "FID": 9, "OBJECTID": 10, "Id": 10, "gridcode": 3, "Shape_Leng": 0.0024845998850400002, "Shape_Area": 2.9692445237000002e-07 }, "geometry": { "type": "Polygon", "coordinates": [ [ [ 112.633692072159988, -7.271935799239998 ], [ 112.633917512977064, -7.272738714220964 ], [ 112.634494987141011, -7.272161240056903 ], [ 112.633692072159988, -7.271935799239998 ] ] ] } },
{ "type": "Feature", "properties": { "FID": 10, "OBJECTID": 11, "Id": 11, "gridcode": 4, "Shape_Leng": 0.0024694364352299998, "Shape_Area": 2.7772586590299998e-07 }, "geometry": { "type": "Polygon", "coordinates": [ [ [ 112.63303352572018, -7.278521263640016 ], [ 112.63303352572018, -7.27786271719998 ], [ 112.632190074601112, -7.278191990419998 ], [ 112.63303352572018, -7.278521263640016 ] ] ] } },
{ "type": "Feature", "properties": { "FID": 11, "OBJECTID": 12, "Id": 12, "gridcode": 3, "Shape_Leng": 0.0024694364350199998, "Shape_Area": 2.77725865866e-07 }, "geometry": { "type": "Polygon", "coordinates": [ [ [ 112.63303352572018, -7.278521263640016 ], [ 112.633876976839247, -7.278191990419998 ], [ 112.63303352572018, -7.27786271719998 ], [ 112.63303352572018, -7.278521263640016 ] ] ] } },
{ "type": "Feature", "properties": { "FID": 12, "OBJECTID": 13, "Id": 13, "gridcode": 1, "Shape_Leng": 0.034660264999800003, "Shape_Area": 9.0182292652600001e-05 }, "geometry": { "type": "Polygon", "coordinates": [ [ [ 112.775938103200019, -7.280496902959953 ], [ 112.77622499133588, -7.280125234607056 ], [ 112.778564471132768, -7.278726034443139 ], [ 112.780160634321078, -7.276658108585877 ], [ 112.779357749486053, -7.271224979872443 ], [ 112.775239523053074, -7.269539484441395 ], [ 112.772727307457558, -7.269910730752258 ], [ 112.770034015707552, -7.271907552565722 ], [ 112.769065750664481, -7.275913706726215 ], [ 112.771963109813896, -7.279821645662935 ], [ 112.775938103200019, -7.280496902959953 ] ] ] } },
{ "type": "Feature", "properties": { "FID": 13, "OBJECTID": 14, "Id": 14, "gridcode": 3, "Shape_Leng": 0.036935735243900002, "Shape_Area": 4.0509889869700003e-05 }, "geometry": { "type": "Polygon", "coordinates": [ [ [ 112.626448061320048, -7.282472542280004 ], [ 112.628795368992883, -7.281527117752887 ], [ 112.630027671607195, -7.280783781047091 ], [ 112.631868774961958, -7.280030265087987 ], [ 112.63303352572018, -7.278521263640016 ], [ 112.632190074601112, -7.278191990419998 ], [ 112.63303352572018, -7.27786271719998 ], [ 112.633668784480392, -7.275276372925589 ], [ 112.633023401734249, -7.272397473093065 ], [ 112.633692072159988, -7.271935799239998 ], [ 112.63329593541448, -7.27039216019466 ], [ 112.631716432840108, -7.269301613479968 ], [ 112.631399562130809, -7.27480388675599 ], [ 112.626618747199927, -7.276760574376453 ], [ 112.628165021496216, -7.27884617575836 ], [ 112.626851503413263, -7.281023742121704 ], [ 112.626448061320048, -7.282472542280004 ] ] ] } },
{ "type": "Feature", "properties": { "FID": 14, "OBJECTID": 15, "Id": 15, "gridcode": 1, "Shape_Leng": 0.12624907446200001, "Shape_Area": 0.00123961101251 }, "geometry": { "type": "Polygon", "coordinates": [ [ [ 112.731156945279963, -7.294326378199969 ], [ 112.73146173001021, -7.293972616490066 ], [ 112.734665823322302, -7.292542888614889 ], [ 112.738705740850264, -7.290021337850078 ], [ 112.740790246932647, -7.289091187227257 ], [ 112.744510206311929, -7.283844681506991 ], [ 112.746608298130127, -7.276839888143684 ], [ 112.745842161102701, -7.270231558105991 ], [ 112.743770336380749, -7.265588487162802 ], [ 112.738617684782412, -7.259436927251215 ], [ 112.734377829838309, -7.257071361233557 ], [ 112.733450553121202, -7.25714587175986 ], [ 112.727398971966409, -7.255825899949855 ], [ 112.71843679762776, -7.256669747989406 ], [ 112.712164508556725, -7.260598377037127 ], [ 112.70728926924437, -7.266492194838861 ], [ 112.705168849389906, -7.274239917938928 ], [ 112.706121991258101, -7.281487516136679 ], [ 112.709007030798148, -7.286491498383839 ], [ 112.710964683086104, -7.288763752904913 ], [ 112.711749761764622, -7.288700677709528 ], [ 112.715600835553687, -7.291716670881272 ], [ 112.720040537476621, -7.293347059673522 ], [ 112.72887652122995, -7.293972616490066 ], [ 112.731156945279963, -7.294326378199969 ] ] ] } },
{ "type": "Feature", "properties": { "FID": 15, "OBJECTID": 16, "Id": 16, "gridcode": 5, "Shape_Leng": 0.055587980436099999, "Shape_Area": 0.000108218393636 }, "geometry": { "type": "Polygon", "coordinates": [ [ [ 112.645545908080067, -7.314082771400024 ], [ 112.644808022751249, -7.313256925465396 ], [ 112.639507993050074, -7.309123033232027 ], [ 112.635356957868908, -7.303198235531056 ], [ 112.632642239946449, -7.301952266792057 ], [ 112.632755580857179, -7.300050675761781 ], [ 112.626448061320048, -7.299594749719972 ], [ 112.626758812419212, -7.29994254254882 ], [ 112.628709767300961, -7.301685707017043 ], [ 112.629392998178901, -7.311137832028919 ], [ 112.636015504309057, -7.311759339251125 ], [ 112.636963084265403, -7.312819870734188 ], [ 112.643222475931225, -7.313772017788835 ], [ 112.645545908080067, -7.314082771400024 ] ] ] } },
{ "type": "Feature", "properties": { "FID": 16, "OBJECTID": 17, "Id": 17, "gridcode": 2, "Shape_Leng": 0.53863873373799998, "Shape_Area": 0.0062117358511700003 }, "geometry": { "type": "Polygon", "coordinates": [ [ [ 112.728522759520047, -7.336473350359995 ], [ 112.728839482012063, -7.336131526412089 ], [ 112.733912528433052, -7.333737341921164 ], [ 112.737682901745302, -7.329104475352779 ], [ 112.738758244895962, -7.326825920346209 ], [ 112.740059872947882, -7.325619884827915 ], [ 112.740693317932141, -7.323619144052032 ], [ 112.741376965827953, -7.32232715262785 ], [ 112.743652586637154, -7.31384651826653 ], [ 112.745986790907864, -7.313107502467915 ], [ 112.749739126945087, -7.30799168911517 ], [ 112.756377135585467, -7.302901399260406 ], [ 112.763416054066511, -7.300010119526519 ], [ 112.769909452998832, -7.298651566035403 ], [ 112.778985407875552, -7.297411184329803 ], [ 112.784549932359937, -7.296085730996936 ], [ 112.792406788510675, -7.292377749573689 ], [ 112.797776570715882, -7.286023413510406 ], [ 112.799203515123054, -7.281952184478882 ], [ 112.800621033923562, -7.275176926745758 ], [ 112.799565868404216, -7.264820606699686 ], [ 112.796339537493282, -7.259332617538689 ], [ 112.792365548969428, -7.256598046052716 ], [ 112.787819090494509, -7.254730555018568 ], [ 112.780680690663644, -7.253107124896474 ], [ 112.763271333823695, -7.251438923142587 ], [ 112.758924772570936, -7.250062794612973 ], [ 112.754472580211996, -7.247961622892376 ], [ 112.750596615987888, -7.245910659107778 ], [ 112.749254421652154, -7.245277224172185 ], [ 112.743352605148061, -7.24195938046779 ], [ 112.736445836084499, -7.240859131809259 ], [ 112.733594419231167, -7.239350306212202 ], [ 112.718588762926402, -7.240142469168518 ], [ 112.716352201107952, -7.241325945532139 ], [ 112.712826521770921, -7.242442181547062 ], [ 112.707766840016461, -7.244830055503769 ], [ 112.700709793822625, -7.249805263524081 ], [ 112.694742801961297, -7.254847711893319 ], [ 112.68841838064327, -7.257064392514735 ], [ 112.674171756990745, -7.257975641681071 ], [ 112.671571048212286, -7.259765245852236 ], [ 112.666627845050471, -7.262098143802234 ], [ 112.662652680837937, -7.265781330252537 ], [ 112.660413300381038, -7.270013372393635 ], [ 112.660116062165798, -7.277512532799165 ], [ 112.662412177137753, -7.283409003436986 ], [ 112.664718657262711, -7.285898318224895 ], [ 112.668685787602499, -7.28862817690748 ], [ 112.672778671412857, -7.290062718072249 ], [ 112.673995810657516, -7.290014474641737 ], [ 112.67683941470807, -7.290691822052111 ], [ 112.678131406132138, -7.291375469947923 ], [ 112.687376157747849, -7.292008914932126 ], [ 112.688668149172145, -7.292692562827881 ], [ 112.694723478462606, -7.295050552185103 ], [ 112.70225294048555, -7.300971561555912 ], [ 112.707769161247825, -7.307331675576506 ], [ 112.710193250435509, -7.31191278169706 ], [ 112.711058728132116, -7.323644245507865 ], [ 112.71240092246785, -7.325594783372082 ], [ 112.715433777226167, -7.332021127855114 ], [ 112.720660497211156, -7.335221412739941 ], [ 112.724229656932152, -7.336156627867865 ], [ 112.728522759520047, -7.336473350359995 ] ], [ [ 112.731156945279963, -7.294326378199969 ], [ 112.72887652122995, -7.293972616490066 ], [ 112.720040537476621, -7.293347059673522 ], [ 112.715600835553687, -7.291716670881272 ], [ 112.711749761764622, -7.288700677709528 ], [ 112.710964683086104, -7.288763752904913 ], [ 112.709007030798148, -7.286491498383839 ], [ 112.706121991258101, -7.281487516136679 ], [ 112.705168849389906, -7.274239917938928 ], [ 112.70728926924437, -7.266492194838861 ], [ 112.712164508556725, -7.260598377037127 ], [ 112.71843679762776, -7.256669747989406 ], [ 112.727398971966409, -7.255825899949855 ], [ 112.733450553121202, -7.25714587175986 ], [ 112.734377829838309, -7.257071361233557 ], [ 112.738617684782412, -7.259436927251215 ], [ 112.743770336380749, -7.265588487162802 ], [ 112.745842161102701, -7.270231558105991 ], [ 112.746608298130127, -7.276839888143684 ], [ 112.744510206311929, -7.283844681506991 ], [ 112.740790246932647, -7.289091187227257 ], [ 112.738705740850264, -7.290021337850078 ], [ 112.734665823322302, -7.292542888614889 ], [ 112.73146173001021, -7.293972616490066 ], [ 112.731156945279963, -7.294326378199969 ] ], [ [ 112.775938103200019, -7.280496902959953 ], [ 112.771963109813896, -7.279821645662935 ], [ 112.769065750664481, -7.275913706726215 ], [ 112.770034015707552, -7.271907552565722 ], [ 112.772727307457558, -7.269910730752258 ], [ 112.775239523053074, -7.269539484441395 ], [ 112.779357749486053, -7.271224979872443 ], [ 112.780160634321078, -7.276658108585877 ], [ 112.778564471132768, -7.278726034443139 ], [ 112.77622499133588, -7.280125234607056 ], [ 112.775938103200019, -7.280496902959953 ] ] ] } },
{ "type": "Feature", "properties": { "FID": 17, "OBJECTID": 18, "Id": 18, "gridcode": 4, "Shape_Leng": 0.52850135515800001, "Shape_Area": 0.0042134403759699996 }, "geometry": { "type": "Polygon", "coordinates": [ [ [ 112.696912530400027, -7.342400268319977 ], [ 112.700510047330226, -7.339412320850101 ], [ 112.702534663629876, -7.338144204949913 ], [ 112.704588340542273, -7.336688079346686 ], [ 112.707449273440034, -7.337131896799974 ], [ 112.703499873892156, -7.331494891610703 ], [ 112.70249352457472, -7.331554871830747 ], [ 112.701673195333228, -7.330636749407404 ], [ 112.697351986751642, -7.320278700998585 ], [ 112.694461922901041, -7.314960287344832 ], [ 112.689147729668321, -7.308867346065142 ], [ 112.687005815812995, -7.306953566057416 ], [ 112.680759623011113, -7.304552367628901 ], [ 112.680035107372873, -7.303741484091233 ], [ 112.668375662030257, -7.301028738210618 ], [ 112.659118128568366, -7.295998117068564 ], [ 112.652777915841966, -7.290366256773268 ], [ 112.649041642525845, -7.285217966276775 ], [ 112.647832301011249, -7.284137427988867 ], [ 112.646384686590181, -7.28098335671308 ], [ 112.641073583308412, -7.277128926684327 ], [ 112.641340138059149, -7.272656767714921 ], [ 112.645554032390237, -7.26959861052859 ], [ 112.649796138225497, -7.262008530198216 ], [ 112.650546398431288, -7.257988925958273 ], [ 112.657337899760819, -7.252444986074408 ], [ 112.664898467290868, -7.24897494092869 ], [ 112.675425292341629, -7.246715558691506 ], [ 112.676460551542164, -7.245556897397819 ], [ 112.684175832668643, -7.243174469793814 ], [ 112.690897124281719, -7.238479558013694 ], [ 112.694807183477451, -7.233091798825001 ], [ 112.697394170863504, -7.22636232763432 ], [ 112.698229623280099, -7.221886269799995 ], [ 112.694315635073281, -7.22373278182522 ], [ 112.692302705320117, -7.22343531751568 ], [ 112.690985612440045, -7.223629954284263 ], [ 112.688733153702742, -7.223297093706492 ], [ 112.685157371940363, -7.22545403276257 ], [ 112.679989878528886, -7.223422583400406 ], [ 112.680266808480951, -7.221548623566378 ], [ 112.678394197674265, -7.220940845272878 ], [ 112.677156137199972, -7.222544816239974 ], [ 112.678742201524187, -7.223639897394946 ], [ 112.677721573115832, -7.227299097786442 ], [ 112.67428927561582, -7.228740708156181 ], [ 112.671741191466822, -7.22731106066999 ], [ 112.67099928668938, -7.224001625149356 ], [ 112.671887765680026, -7.221886269799995 ], [ 112.66839548293558, -7.220012073823341 ], [ 112.667643640071901, -7.218227838128087 ], [ 112.664936601808108, -7.213690865551882 ], [ 112.662104412991312, -7.208513006987459 ], [ 112.660142062973023, -7.207686113484101 ], [ 112.661120617804158, -7.200734906905495 ], [ 112.663665833072173, -7.198696729991411 ], [ 112.664299348396639, -7.195056356633813 ], [ 112.664936601808108, -7.196568657797911 ], [ 112.666159478815757, -7.197154352676137 ], [ 112.665566157976059, -7.192384306648535 ], [ 112.662916547582313, -7.192713878579525 ], [ 112.660692476199984, -7.193568772879928 ], [ 112.660381722588909, -7.195233660472979 ], [ 112.657710497611106, -7.203757720578892 ], [ 112.656430443948921, -7.208404589900965 ], [ 112.654641161333757, -7.210966150507261 ], [ 112.651458421341658, -7.224645608625053 ], [ 112.648608958944919, -7.230854038708458 ], [ 112.645791918424607, -7.235283403112135 ], [ 112.641707907547016, -7.239854254614784 ], [ 112.636485483347656, -7.243502185477553 ], [ 112.632004363520309, -7.245558871951914 ], [ 112.632128504186767, -7.247641639622714 ], [ 112.625441719538912, -7.249197427451122 ], [ 112.6248119372774, -7.249902282961898 ], [ 112.616259113621027, -7.251868652428868 ], [ 112.615911318280041, -7.25217940604 ], [ 112.61619819636735, -7.252551074392898 ], [ 112.617978962775851, -7.253279900889652 ], [ 112.617395057494377, -7.25723117952964 ], [ 112.620935204333705, -7.258680080174202 ], [ 112.622891472424158, -7.2598601148851 ], [ 112.626662863159481, -7.261342728653744 ], [ 112.629551588031404, -7.259600232418904 ], [ 112.631765075703129, -7.26050616586457 ], [ 112.632892757097807, -7.263374695519985 ], [ 112.632003310927075, -7.265637212927118 ], [ 112.631716432840108, -7.269301613479968 ], [ 112.63329593541448, -7.27039216019466 ], [ 112.633692072159988, -7.271935799239998 ], [ 112.634494987141011, -7.272161240056903 ], [ 112.633917512977064, -7.272738714220964 ], [ 112.633692072159988, -7.271935799239998 ], [ 112.633023401734249, -7.272397473093065 ], [ 112.633668784480392, -7.275276372925589 ], [ 112.63303352572018, -7.27786271719998 ], [ 112.633876976839247, -7.278191990419998 ], [ 112.63303352572018, -7.278521263640016 ], [ 112.631868774961958, -7.280030265087987 ], [ 112.630027671607195, -7.280783781047091 ], [ 112.628795368992883, -7.281527117752887 ], [ 112.626448061320048, -7.282472542280004 ], [ 112.628734451739092, -7.286516820909355 ], [ 112.627988105471104, -7.297103596034333 ], [ 112.626448061320048, -7.299594749719972 ], [ 112.632755580857179, -7.300050675761781 ], [ 112.632642239946449, -7.301952266792057 ], [ 112.635356957868908, -7.303198235531056 ], [ 112.639507993050074, -7.309123033232027 ], [ 112.644808022751249, -7.313256925465396 ], [ 112.645545908080067, -7.314082771400024 ], [ 112.648415382305757, -7.314409090325341 ], [ 112.648838640280019, -7.316058410720018 ], [ 112.650899959168783, -7.317900182308108 ], [ 112.654802602482164, -7.322936109122168 ], [ 112.658249982962616, -7.327686323489161 ], [ 112.660174665724412, -7.326640432847171 ], [ 112.664710296809744, -7.332455529750291 ], [ 112.666967186989041, -7.333491371771061 ], [ 112.670394048184903, -7.335353552108927 ], [ 112.672894104949137, -7.336125557531091 ], [ 112.676635769350355, -7.337468103568597 ], [ 112.68768784588076, -7.338210154050842 ], [ 112.690048025837541, -7.339492689722533 ], [ 112.69270484109245, -7.339334343549467 ], [ 112.696105686408146, -7.341497248974463 ], [ 112.696912530400027, -7.342400268319977 ] ], [ [ 112.663985208400163, -7.194227319319964 ], [ 112.663182293419027, -7.194001879602069 ], [ 112.663759767583201, -7.193424404024938 ], [ 112.663985208400163, -7.194227319319964 ] ] ] } },
{ "type": "Feature", "properties": { "FID": 18, "OBJECTID": 19, "Id": 19, "gridcode": 3, "Shape_Leng": 1.0841688168000001, "Shape_Area": 0.0094732607879499994 }, "geometry": { "type": "Polygon", "coordinates": [ [ [ 112.719961655800148, -7.343058814760013 ], [ 112.726322141619562, -7.343988282076566 ], [ 112.733802867829581, -7.344140950778694 ], [ 112.738053916937702, -7.342761476058115 ], [ 112.738723647493202, -7.342064413253127 ], [ 112.744806861707502, -7.338453250295402 ], [ 112.749950509740984, -7.334135347710287 ], [ 112.752891942143378, -7.33419537817349 ], [ 112.756045420550663, -7.329941354673451 ], [ 112.759763360157194, -7.326369210511984 ], [ 112.760479143543648, -7.324893831750558 ], [ 112.761822583908497, -7.323603076306767 ], [ 112.763682563598422, -7.319769256000143 ], [ 112.768755851186143, -7.314488876377766 ], [ 112.776738817532987, -7.312442987146824 ], [ 112.781521961231647, -7.313947667687728 ], [ 112.784822631842417, -7.31507743417103 ], [ 112.785530376331963, -7.315062984253757 ], [ 112.789327046885887, -7.317018847887198 ], [ 112.792290907810752, -7.317980631569583 ], [ 112.811192565290185, -7.336125597725584 ], [ 112.8160989854739, -7.338653137468611 ], [ 112.82016449683988, -7.340044690631771 ], [ 112.825987632640022, -7.340424628999926 ], [ 112.825522924103325, -7.339159165935826 ], [ 112.82634140439859, -7.336168565629919 ], [ 112.826950953761639, -7.333485402890119 ], [ 112.829962224081441, -7.329845008493237 ], [ 112.832808676915761, -7.325300459256709 ], [ 112.837560730180485, -7.322324027506625 ], [ 112.835726394572021, -7.319736959731529 ], [ 112.839715516319643, -7.319009288826237 ], [ 112.842335533523737, -7.317547495800738 ], [ 112.845200335140476, -7.310620207452814 ], [ 112.846254535992216, -7.307118765390044 ], [ 112.845941019010297, -7.303216755139999 ], [ 112.846126215099275, -7.300911842599987 ], [ 112.846002154822031, -7.299368002582185 ], [ 112.846886252613672, -7.296960563959999 ], [ 112.846045584962781, -7.294671347366261 ], [ 112.84610147539388, -7.293975781805727 ], [ 112.84538657628616, -7.293359881714196 ], [ 112.845591387284003, -7.290810968553842 ], [ 112.844731707641472, -7.290070314829791 ], [ 112.843906595256158, -7.285546968184008 ], [ 112.842402316660241, -7.282850792479792 ], [ 112.841183177739822, -7.280118652760166 ], [ 112.839447780855835, -7.277008252792086 ], [ 112.832219325281471, -7.274265200269895 ], [ 112.83160977591865, -7.273557676849975 ], [ 112.829585139521441, -7.272948107389823 ], [ 112.82897559015862, -7.271582037530095 ], [ 112.828268046641483, -7.270972468069772 ], [ 112.827658497278549, -7.269662469516504 ], [ 112.83605990831029, -7.267132995413874 ], [ 112.83174671852862, -7.261625537049213 ], [ 112.828286315034916, -7.263082853413948 ], [ 112.825872776899473, -7.261371573220856 ], [ 112.818092772603904, -7.25902918937237 ], [ 112.81579849150512, -7.257749120637357 ], [ 112.814133796720057, -7.257882882858667 ], [ 112.811303703040835, -7.257655477536161 ], [ 112.809870829947272, -7.254444375310641 ], [ 112.806326862119477, -7.25574582751176 ], [ 112.806646810219149, -7.251763825212379 ], [ 112.804577095707145, -7.251930129893424 ], [ 112.803950825438619, -7.249850005010046 ], [ 112.802581218464297, -7.247918358553761 ], [ 112.802637410354009, -7.247218989590067 ], [ 112.801922511246289, -7.246603079449926 ], [ 112.802003603619482, -7.245593941639981 ], [ 112.801924239608979, -7.244606121979871 ], [ 112.801977135551056, -7.243947575540005 ], [ 112.801861254851474, -7.242505382350146 ], [ 112.799952257987115, -7.242658769528646 ], [ 112.799274900528417, -7.241140779589045 ], [ 112.797206854087449, -7.239359068609929 ], [ 112.797416408034337, -7.236751094678368 ], [ 112.7956670033725, -7.234283796419504 ], [ 112.795035949960038, -7.233740105720017 ], [ 112.791714157147567, -7.237197474529921 ], [ 112.786600735366619, -7.239831660289951 ], [ 112.782339316081448, -7.241290272926847 ], [ 112.771628269657754, -7.241508865608466 ], [ 112.767183945369425, -7.240066672418664 ], [ 112.762042126184951, -7.237014358505576 ], [ 112.758139181412957, -7.232179351360571 ], [ 112.755208470889443, -7.224954138978603 ], [ 112.754541925747162, -7.201135471324847 ], [ 112.752553122733161, -7.200490096115118 ], [ 112.752230431359976, -7.200154237279946 ], [ 112.750913338480245, -7.199495690840024 ], [ 112.750272939849992, -7.200423212492296 ], [ 112.748268179625597, -7.199411775432225 ], [ 112.746962059840143, -7.197520051519973 ], [ 112.745913938404101, -7.197251076307623 ], [ 112.743606272542138, -7.195748355875992 ], [ 112.743010781200041, -7.194885865759943 ], [ 112.742352234760119, -7.194885865759943 ], [ 112.739370256171242, -7.195196617486943 ], [ 112.736114563189176, -7.195892206913015 ], [ 112.722943634388912, -7.198165386535265 ], [ 112.724455509742597, -7.199369585668023 ], [ 112.732126245331187, -7.198912389103668 ], [ 112.731504738108924, -7.199843485552947 ], [ 112.73029483387154, -7.200924525015978 ], [ 112.73278479177111, -7.202067330841373 ], [ 112.732163284549074, -7.206428950580914 ], [ 112.730127785592344, -7.207363177175864 ], [ 112.730224292550474, -7.208982449680889 ], [ 112.72883467877125, -7.209065274185207 ], [ 112.725238548550806, -7.202477671940983 ], [ 112.724619985574691, -7.203556592400957 ], [ 112.727168828394611, -7.209684638538874 ], [ 112.725213155684969, -7.208938064921028 ], [ 112.721153211255114, -7.200092239799233 ], [ 112.719754141723456, -7.198526392672932 ], [ 112.717636053149022, -7.19914853358631 ], [ 112.71769599317463, -7.200154237279946 ], [ 112.717626376326848, -7.201322299686751 ], [ 112.720272409411223, -7.207087497021064 ], [ 112.721589502291295, -7.208264307380603 ], [ 112.72085690756137, -7.209982175700986 ], [ 112.718973836140094, -7.207021330618545 ], [ 112.717675262868966, -7.209063136341001 ], [ 112.715662584331199, -7.209684638538874 ], [ 112.714941625904885, -7.21583905728329 ], [ 112.710256878305017, -7.217639991274837 ], [ 112.711177151133143, -7.221947322710378 ], [ 112.707101480611186, -7.22351411377889 ], [ 112.706455504996256, -7.224237094490263 ], [ 112.704874726246999, -7.220792879325472 ], [ 112.701211601868977, -7.221575518701002 ], [ 112.698229623280099, -7.221886269799995 ], [ 112.697394170863504, -7.22636232763432 ], [ 112.694807183477451, -7.233091798825001 ], [ 112.690897124281719, -7.238479558013694 ], [ 112.684175832668643, -7.243174469793814 ], [ 112.676460551542164, -7.245556897397819 ], [ 112.675425292341629, -7.246715558691506 ], [ 112.664898467290868, -7.24897494092869 ], [ 112.657337899760819, -7.252444986074408 ], [ 112.650546398431288, -7.257988925958273 ], [ 112.649796138225497, -7.262008530198216 ], [ 112.645554032390237, -7.26959861052859 ], [ 112.641340138059149, -7.272656767714921 ], [ 112.641073583308412, -7.277128926684327 ], [ 112.646384686590181, -7.28098335671308 ], [ 112.647832301011249, -7.284137427988867 ], [ 112.649041642525845, -7.285217966276775 ], [ 112.652777915841966, -7.290366256773268 ], [ 112.659118128568366, -7.295998117068564 ], [ 112.668375662030257, -7.301028738210618 ], [ 112.680035107372873, -7.303741484091233 ], [ 112.680759623011113, -7.304552367628901 ], [ 112.687005815812995, -7.306953566057416 ], [ 112.689147729668321, -7.308867346065142 ], [ 112.694461922901041, -7.314960287344832 ], [ 112.697351986751642, -7.320278700998585 ], [ 112.701673195333228, -7.330636749407404 ], [ 112.70249352457472, -7.331554871830747 ], [ 112.703499873892156, -7.331494891610703 ], [ 112.707449273440034, -7.337131896799974 ], [ 112.710285547021385, -7.338246901858724 ], [ 112.715588716916614, -7.339723647232631 ], [ 112.716659045805386, -7.34233881095264 ], [ 112.71958998744708, -7.342771936672875 ], [ 112.719961655800148, -7.343058814760013 ] ], [ [ 112.728522759520047, -7.336473350359995 ], [ 112.724229656932152, -7.336156627867865 ], [ 112.720660497211156, -7.335221412739941 ], [ 112.715433777226167, -7.332021127855114 ], [ 112.71240092246785, -7.325594783372082 ], [ 112.711058728132116, -7.323644245507865 ], [ 112.710193250435509, -7.31191278169706 ], [ 112.707769161247825, -7.307331675576506 ], [ 112.70225294048555, -7.300971561555912 ], [ 112.694723478462606, -7.295050552185103 ], [ 112.688668149172145, -7.292692562827881 ], [ 112.687376157747849, -7.292008914932126 ], [ 112.678131406132138, -7.291375469947923 ], [ 112.67683941470807, -7.290691822052111 ], [ 112.673995810657516, -7.290014474641737 ], [ 112.672778671412857, -7.290062718072249 ], [ 112.668685787602499, -7.28862817690748 ], [ 112.664718657262711, -7.285898318224895 ], [ 112.662412177137753, -7.283409003436986 ], [ 112.660116062165798, -7.277512532799165 ], [ 112.660413300381038, -7.270013372393635 ], [ 112.662652680837937, -7.265781330252537 ], [ 112.666627845050471, -7.262098143802234 ], [ 112.671571048212286, -7.259765245852236 ], [ 112.674171756990745, -7.257975641681071 ], [ 112.68841838064327, -7.257064392514735 ], [ 112.694742801961297, -7.254847711893319 ], [ 112.700709793822625, -7.249805263524081 ], [ 112.707766840016461, -7.244830055503769 ], [ 112.712826521770921, -7.242442181547062 ], [ 112.716352201107952, -7.241325945532139 ], [ 112.718588762926402, -7.240142469168518 ], [ 112.733594419231167, -7.239350306212202 ], [ 112.736445836084499, -7.240859131809259 ], [ 112.743352605148061, -7.24195938046779 ], [ 112.749254421652154, -7.245277224172185 ], [ 112.750596615987888, -7.245910659107778 ], [ 112.754472580211996, -7.247961622892376 ], [ 112.758924772570936, -7.250062794612973 ], [ 112.763271333823695, -7.251438923142587 ], [ 112.780680690663644, -7.253107124896474 ], [ 112.787819090494509, -7.254730555018568 ], [ 112.792365548969428, -7.256598046052716 ], [ 112.796339537493282, -7.259332617538689 ], [ 112.799565868404216, -7.264820606699686 ], [ 112.800621033923562, -7.275176926745758 ], [ 112.799203515123054, -7.281952184478882 ], [ 112.797776570715882, -7.286023413510406 ], [ 112.792406788510675, -7.292377749573689 ], [ 112.784549932359937, -7.296085730996936 ], [ 112.778985407875552, -7.297411184329803 ], [ 112.769909452998832, -7.298651566035403 ], [ 112.763416054066511, -7.300010119526519 ], [ 112.756377135585467, -7.302901399260406 ], [ 112.749739126945087, -7.30799168911517 ], [ 112.745986790907864, -7.313107502467915 ], [ 112.743652586637154, -7.31384651826653 ], [ 112.741376965827953, -7.32232715262785 ], [ 112.740693317932141, -7.323619144052032 ], [ 112.740059872947882, -7.325619884827915 ], [ 112.738758244895962, -7.326825920346209 ], [ 112.737682901745302, -7.329104475352779 ], [ 112.733912528433052, -7.333737341921164 ], [ 112.728839482012063, -7.336131526412089 ], [ 112.728522759520047, -7.336473350359995 ] ] ] } },
{ "type": "Feature", "properties": { "FID": 19, "OBJECTID": 20, "Id": 20, "gridcode": 4, "Shape_Leng": 0.25720850859099997, "Shape_Area": 0.0014643117417299999 }, "geometry": { "type": "Polygon", "coordinates": [ [ [ 112.719961655800148, -7.343058814760013 ], [ 112.720393284275815, -7.344492411354338 ], [ 112.723509010013004, -7.345882708439888 ], [ 112.725337708345137, -7.34800528874797 ], [ 112.732555803790888, -7.348631971010036 ], [ 112.73343736933009, -7.346656331690099 ], [ 112.73612053206989, -7.346046762229832 ], [ 112.736730101530156, -7.345339238810084 ], [ 112.742047450029872, -7.344729669349817 ], [ 112.742864061281693, -7.341135156957478 ], [ 112.747266844570049, -7.342095483589901 ], [ 112.753122939847913, -7.342705053050054 ], [ 112.754943418407606, -7.336658496205871 ], [ 112.761754856201492, -7.338144204949913 ], [ 112.766413678358504, -7.338753774410122 ], [ 112.767023227721552, -7.341436937149865 ], [ 112.767864136539288, -7.342046506610018 ], [ 112.77037052393473, -7.339137330281915 ], [ 112.774267238561606, -7.340778390709886 ], [ 112.776950421398624, -7.341387960170039 ], [ 112.777559970761558, -7.342095483589901 ], [ 112.778926060718618, -7.342705053050054 ], [ 112.779535610081439, -7.344729669349817 ], [ 112.78392858591576, -7.345727678311789 ], [ 112.788614438863874, -7.344006892123048 ], [ 112.789984889922493, -7.34411701496299 ], [ 112.792706538881475, -7.346046762229832 ], [ 112.79495572176836, -7.346656331690099 ], [ 112.797571237190027, -7.345197040771211 ], [ 112.79997504826008, -7.345390185319673 ], [ 112.800968856898294, -7.345310328926871 ], [ 112.812643445513004, -7.34628071422901 ], [ 112.819600548120093, -7.343192370984582 ], [ 112.82556281712948, -7.343671439001071 ], [ 112.825987632640022, -7.340424628999926 ], [ 112.82016449683988, -7.340044690631771 ], [ 112.8160989854739, -7.338653137468611 ], [ 112.811192565290185, -7.336125597725584 ], [ 112.792290907810752, -7.317980631569583 ], [ 112.789327046885887, -7.317018847887198 ], [ 112.785530376331963, -7.315062984253757 ], [ 112.784822631842417, -7.31507743417103 ], [ 112.781521961231647, -7.313947667687728 ], [ 112.776738817532987, -7.312442987146824 ], [ 112.768755851186143, -7.314488876377766 ], [ 112.763682563598422, -7.319769256000143 ], [ 112.761822583908497, -7.323603076306767 ], [ 112.760479143543648, -7.324893831750558 ], [ 112.759763360157194, -7.326369210511984 ], [ 112.756045420550663, -7.329941354673451 ], [ 112.752891942143378, -7.33419537817349 ], [ 112.749950509740984, -7.334135347710287 ], [ 112.744806861707502, -7.338453250295402 ], [ 112.738723647493202, -7.342064413253127 ], [ 112.738053916937702, -7.342761476058115 ], [ 112.733802867829581, -7.344140950778694 ], [ 112.726322141619562, -7.343988282076566 ], [ 112.719961655800148, -7.343058814760013 ] ] ] } },
{ "type": "Feature", "properties": { "FID": 20, "OBJECTID": 21, "Id": 21, "gridcode": 5, "Shape_Leng": 0.15161428769, "Shape_Area": 0.00069606363586900005 }, "geometry": { "type": "Polygon", "coordinates": [ [ [ 112.648838640280019, -7.316058410720018 ], [ 112.648368515536504, -7.318974671326146 ], [ 112.651107126568149, -7.321167722614632 ], [ 112.649955705306297, -7.327377921255447 ], [ 112.648545793311882, -7.331045919214773 ], [ 112.649131487248042, -7.335521956951879 ], [ 112.653491629212681, -7.338586716082375 ], [ 112.656360430180712, -7.343467070142765 ], [ 112.654647014655666, -7.357181136968052 ], [ 112.656448350592086, -7.356595443031836 ], [ 112.658415669653664, -7.354138705873879 ], [ 112.660399629231961, -7.353302710831883 ], [ 112.662578059776706, -7.351711411176097 ], [ 112.668265760260169, -7.351003948048117 ], [ 112.673898288788564, -7.35170454796787 ], [ 112.67888749453823, -7.35027806579734 ], [ 112.682480258470605, -7.347653627199918 ], [ 112.691146430574122, -7.345175838180523 ], [ 112.695302590552046, -7.343424514231913 ], [ 112.696912530400027, -7.342400268319977 ], [ 112.696105686408146, -7.341497248974463 ], [ 112.69270484109245, -7.339334343549467 ], [ 112.690048025837541, -7.339492689722533 ], [ 112.68768784588076, -7.338210154050842 ], [ 112.676635769350355, -7.337468103568597 ], [ 112.672894104949137, -7.336125557531091 ], [ 112.670394048184903, -7.335353552108927 ], [ 112.666967186989041, -7.333491371771061 ], [ 112.664710296809744, -7.332455529750291 ], [ 112.660174665724412, -7.326640432847171 ], [ 112.658249982962616, -7.327686323489161 ], [ 112.654802602482164, -7.322936109122168 ], [ 112.650899959168783, -7.317900182308108 ], [ 112.648838640280019, -7.316058410720018 ] ] ] } }
]
}
