{
"type": "FeatureCollection",
"name": "CH_2021",
"crs": { "type": "name", "properties": { "name": "urn:ogc:def:crs:OGC:1.3:CRS84" } },
"features": [
{ "type": "Feature", "properties": { "FID": 0, "OBJECTID": 1, "Id": 1, "gridcode": 4, "Shape_Leng": 0.00739947256624, "Shape_Area": 3.03578389549e-06 }, "geometry": { "type": "Polygon", "coordinates": [ [ [ 112.746962059840143, -7.195544412199979 ], [ 112.748279152720102, -7.195544412199979 ], [ 112.748279152720102, -7.194227319319964 ], [ 112.745644966960072, -7.194227319319964 ], [ 112.745644966960072, -7.194885865759943 ], [ 112.746962059840143, -7.195544412199979 ] ] ] } },
{ "type": "Feature", "properties": { "FID": 1, "OBJECTID": 2, "Id": 2, "gridcode": 4, "Shape_Leng": 0.0026341857603699999, "Shape_Area": 4.3368341375900001e-07 }, "geometry": { "type": "Polygon", "coordinates": [ [ [ 112.767376999480121, -7.198178597960009 ], [ 112.767376999480121, -7.197520051519973 ], [ 112.766718453039971, -7.197520051519973 ], [ 112.766718453039971, -7.198178597960009 ], [ 112.767376999480121, -7.198178597960009 ] ] ] } },
{ "type": "Feature", "properties": { "FID": 2, "OBJECTID": 3, "Id": 3, "gridcode": 4, "Shape_Leng": 0.022011045830099999, "Shape_Area": 1.48101853507e-05 }, "geometry": { "type": "Polygon", "coordinates": [ [ [ 112.756181710000078, -7.198837144399874 ], [ 112.764203122371782, -7.19712334200301 ], [ 112.766059906600162, -7.197520051519973 ], [ 112.765398827907575, -7.196487423173835 ], [ 112.76149737033154, -7.19528737317961 ], [ 112.757167318963411, -7.197297572534126 ], [ 112.756181710000078, -7.198837144399874 ] ] ] } },
{ "type": "Feature", "properties": { "FID": 3, "OBJECTID": 4, "Id": 4, "gridcode": 3, "Shape_Leng": 0.0026341857598000001, "Shape_Area": 4.3368341357200002e-07 }, "geometry": { "type": "Polygon", "coordinates": [ [ [ 112.779889381840007, -7.213983712519962 ], [ 112.779889381840007, -7.213325166079983 ], [ 112.779230835400199, -7.213325166079983 ], [ 112.779230835400199, -7.213983712519962 ], [ 112.779889381840007, -7.213983712519962 ] ] ] } },
{ "type": "Feature", "properties": { "FID": 4, "OBJECTID": 5, "Id": 5, "gridcode": 3, "Shape_Leng": 0.0037266198795700002, "Shape_Area": 5.9215099397800004e-07 }, "geometry": { "type": "Polygon", "coordinates": [ [ [ 112.784499206920032, -7.217276444719914 ], [ 112.78423543061308, -7.215779875928547 ], [ 112.783643305559281, -7.216910174988755 ], [ 112.784499206920032, -7.217276444719914 ] ] ] } },
{ "type": "Feature", "properties": { "FID": 5, "OBJECTID": 6, "Id": 6, "gridcode": 3, "Shape_Leng": 0.0026341857601399998, "Shape_Area": 4.3368341368400001e-07 }, "geometry": { "type": "Polygon", "coordinates": [ [ [ 112.785157753360181, -7.217934991159893 ], [ 112.785157753360181, -7.217276444719914 ], [ 112.784499206920032, -7.217276444719914 ], [ 112.784499206920032, -7.217934991159893 ], [ 112.785157753360181, -7.217934991159893 ] ] ] } },
{ "type": "Feature", "properties": { "FID": 6, "OBJECTID": 7, "Id": 7, "gridcode": 3, "Shape_Leng": 0.0026341857598000001, "Shape_Area": 4.3368341357200002e-07 }, "geometry": { "type": "Polygon", "coordinates": [ [ [ 112.78581629979999, -7.218593537599929 ], [ 112.78581629979999, -7.217934991159893 ], [ 112.785157753360181, -7.217934991159893 ], [ 112.785157753360181, -7.218593537599929 ], [ 112.78581629979999, -7.218593537599929 ] ] ] } },
{ "type": "Feature", "properties": { "FID": 7, "OBJECTID": 8, "Id": 8, "gridcode": 4, "Shape_Leng": 0.063657611644700005, "Shape_Area": 0.00025286071098899998 }, "geometry": { "type": "Polygon", "coordinates": [ [ [ 112.778572288960049, -7.213325166079983 ], [ 112.77578632882512, -7.212692331549533 ], [ 112.774986699743295, -7.213690865551882 ], [ 112.772938228016756, -7.214276559488042 ], [ 112.77008777583103, -7.215372215926607 ], [ 112.767451298985293, -7.218664591400625 ], [ 112.766106893952838, -7.223366645238229 ], [ 112.767303001433447, -7.227555325066646 ], [ 112.770617740113835, -7.231699931642368 ], [ 112.776097172873961, -7.232715859808025 ], [ 112.78047133768905, -7.2310345094333 ], [ 112.782816424616726, -7.228106034728057 ], [ 112.784553831224912, -7.226714740316822 ], [ 112.785157753360181, -7.221886269799995 ], [ 112.780802821605789, -7.220641127559986 ], [ 112.778741748908374, -7.219429577860865 ], [ 112.779596524823319, -7.215666504871933 ], [ 112.779889381840007, -7.213983712519962 ], [ 112.779230835400199, -7.213983712519962 ], [ 112.779230835400199, -7.213325166079983 ], [ 112.778572288960049, -7.213325166079983 ] ] ] } },
{ "type": "Feature", "properties": { "FID": 8, "OBJECTID": 9, "Id": 9, "gridcode": 5, "Shape_Leng": 0.243787843842, "Shape_Area": 0.0022042324160799999 }, "geometry": { "type": "Polygon", "coordinates": [ [ [ 112.614594225399969, -7.24954522027997 ], [ 112.617594110631899, -7.24925237331189 ], [ 112.624569780578781, -7.248270376827861 ], [ 112.625423815408112, -7.247203881488076 ], [ 112.631332580534036, -7.246175611103411 ], [ 112.632204511957639, -7.24410637892538 ], [ 112.635727897696938, -7.24262169514077 ], [ 112.641516491361585, -7.23893899102427 ], [ 112.645906337050292, -7.233457081279084 ], [ 112.649330002784495, -7.227077580956063 ], [ 112.651544236566792, -7.219333214095457 ], [ 112.652424219448221, -7.214276559488042 ], [ 112.653161471713815, -7.211030902566335 ], [ 112.653076822128696, -7.210350325780382 ], [ 112.654997113643162, -7.202262564874786 ], [ 112.657399744000031, -7.196202958640015 ], [ 112.653106636387861, -7.19651967830589 ], [ 112.646885283777578, -7.197821311696202 ], [ 112.639130596983136, -7.198749269835446 ], [ 112.632469451392467, -7.200335943985294 ], [ 112.628190949451096, -7.202002016687572 ], [ 112.614905393516779, -7.209032060979951 ], [ 112.610301120299937, -7.208398621020024 ], [ 112.597935835309841, -7.202581942715199 ], [ 112.592549565672243, -7.202368452220981 ], [ 112.592365651724322, -7.207008512346135 ], [ 112.594186735870608, -7.207867957101882 ], [ 112.597826640083099, -7.212340515503911 ], [ 112.594521112534039, -7.214765045574779 ], [ 112.596866888734326, -7.21661245192729 ], [ 112.598173264759794, -7.215202514811494 ], [ 112.601081470140116, -7.216575018301114 ], [ 112.600448030180132, -7.217618271180072 ], [ 112.597778751494729, -7.219341963932379 ], [ 112.597837846179914, -7.220832895447359 ], [ 112.596834812279553, -7.221915440947271 ], [ 112.593563619927181, -7.214984085420042 ], [ 112.592047422567134, -7.216861773292578 ], [ 112.591783675228498, -7.223515990358919 ], [ 112.592862192880034, -7.223558737193628 ], [ 112.596908266444302, -7.22339836622325 ], [ 112.597788737939936, -7.226179374900028 ], [ 112.598498528579967, -7.226837032037054 ], [ 112.59839520112007, -7.229443940814804 ], [ 112.599118384060148, -7.229472604506725 ], [ 112.599788594437086, -7.229446040976597 ], [ 112.600422923699966, -7.230130653539959 ], [ 112.602788125455163, -7.231246889554882 ], [ 112.604450624616447, -7.232787277871239 ], [ 112.604250074234301, -7.237847037502604 ], [ 112.605032748780218, -7.238691759772223 ], [ 112.607008388100098, -7.240522286953251 ], [ 112.605480678631466, -7.242251267792483 ], [ 112.603232858589195, -7.244333985220237 ], [ 112.602003627084741, -7.246657020448595 ], [ 112.605559542723086, -7.248538629795519 ], [ 112.606362394899975, -7.248570453778882 ], [ 112.614187417018684, -7.248260298060814 ], [ 112.614594225399969, -7.24954522027997 ] ] ] } },
{ "type": "Feature", "properties": { "FID": 9, "OBJECTID": 10, "Id": 10, "gridcode": 4, "Shape_Leng": 0.271250666207, "Shape_Area": 0.00191425059281 }, "geometry": { "type": "Polygon", "coordinates": [ [ [ 112.63237497928003, -7.26205760263997 ], [ 112.635362926749963, -7.262362387370047 ], [ 112.640165197999067, -7.263107362001108 ], [ 112.643125737854803, -7.262869480991128 ], [ 112.649769840983822, -7.258158566781617 ], [ 112.650486272506441, -7.255005007985517 ], [ 112.652503945208991, -7.25326668695277 ], [ 112.657173363637071, -7.250342010626298 ], [ 112.663620609252121, -7.247675739618785 ], [ 112.675989622909015, -7.245524998049859 ], [ 112.677107160220203, -7.244227871780197 ], [ 112.682934787753993, -7.242473302126939 ], [ 112.689318787347474, -7.238488672113021 ], [ 112.693935545975819, -7.232520916556439 ], [ 112.696475566106415, -7.22682858868302 ], [ 112.696912530400027, -7.222544816239974 ], [ 112.694422733278429, -7.223650069111841 ], [ 112.692302705320117, -7.223479719860677 ], [ 112.690985612440045, -7.223585551939323 ], [ 112.688708625018307, -7.223402591668503 ], [ 112.685194983929591, -7.225362982205866 ], [ 112.680045115799658, -7.223471799034996 ], [ 112.680199653545287, -7.221548502982898 ], [ 112.678026779888114, -7.220922938629883 ], [ 112.6766530127843, -7.224001622637218 ], [ 112.668609463300072, -7.220430988280953 ], [ 112.667631702310018, -7.21823977588997 ], [ 112.664948539570219, -7.213678927789886 ], [ 112.662094364370205, -7.208535414156756 ], [ 112.660164094574952, -7.20767409282098 ], [ 112.66108822104934, -7.200856844411817 ], [ 112.663660693202132, -7.198640539357655 ], [ 112.664304206904944, -7.195112734737222 ], [ 112.664948539570219, -7.196556721605987 ], [ 112.665973554201742, -7.197166288554001 ], [ 112.665580532528566, -7.19227497176189 ], [ 112.660159738497669, -7.193457351883865 ], [ 112.659070598590006, -7.195898175165951 ], [ 112.657399744000031, -7.196202958640015 ], [ 112.654997113643162, -7.202262564874786 ], [ 112.653076822128696, -7.210350325780382 ], [ 112.653161471713815, -7.211030902566335 ], [ 112.652424219448221, -7.214276559488042 ], [ 112.651544236566792, -7.219333214095457 ], [ 112.649330002784495, -7.227077580956063 ], [ 112.645906337050292, -7.233457081279084 ], [ 112.641516491361585, -7.23893899102427 ], [ 112.635727897696938, -7.24262169514077 ], [ 112.632204511957639, -7.24410637892538 ], [ 112.631332580534036, -7.246175611103411 ], [ 112.625423815408112, -7.247203881488076 ], [ 112.624569780578781, -7.248270376827861 ], [ 112.617594110631899, -7.24925237331189 ], [ 112.614594225399969, -7.24954522027997 ], [ 112.614896477877551, -7.252018306544642 ], [ 112.617978962775851, -7.253279900889652 ], [ 112.617395057494377, -7.25723117952964 ], [ 112.620935204333705, -7.258680080174202 ], [ 112.622891472424158, -7.2598601148851 ], [ 112.626662863159481, -7.261342728653744 ], [ 112.629551588031404, -7.259600232418904 ], [ 112.631429554752913, -7.260368841407114 ], [ 112.63237497928003, -7.26205760263997 ] ], [ [ 112.663985208400163, -7.194227319319964 ], [ 112.663182293419027, -7.194001879602069 ], [ 112.663759767583201, -7.193424404024938 ], [ 112.663985208400163, -7.194227319319964 ] ] ] } },
{ "type": "Feature", "properties": { "FID": 10, "OBJECTID": 11, "Id": 11, "gridcode": 1, "Shape_Leng": 0.0197699873479, "Shape_Area": 2.74972927118e-05 }, "geometry": { "type": "Polygon", "coordinates": [ [ [ 112.776596649640055, -7.27786271719998 ], [ 112.77775308516425, -7.27600993232295 ], [ 112.777544234620677, -7.273410735862058 ], [ 112.775612588164336, -7.271746533459407 ], [ 112.772036022609541, -7.27305995356835 ], [ 112.77238742289353, -7.277433359712688 ], [ 112.776596649640055, -7.27786271719998 ] ] ] } },
{ "type": "Feature", "properties": { "FID": 11, "OBJECTID": 12, "Id": 12, "gridcode": 1, "Shape_Leng": 0.13497581539799999, "Shape_Area": 0.0014095720279300001 }, "geometry": { "type": "Polygon", "coordinates": [ [ [ 112.732474038160035, -7.29630201752002 ], [ 112.733257127211346, -7.295425576777461 ], [ 112.736740712874166, -7.293976656035852 ], [ 112.737899519872826, -7.294045720209454 ], [ 112.742937325778939, -7.289544490578805 ], [ 112.746481353898275, -7.284470821143543 ], [ 112.747911302843136, -7.280485558066573 ], [ 112.748405202624667, -7.272199098237422 ], [ 112.745930438240293, -7.265761534468709 ], [ 112.739657696981226, -7.25861031762139 ], [ 112.735773492887574, -7.256499609759317 ], [ 112.734778950700161, -7.256440332942759 ], [ 112.734109963742526, -7.256480205871753 ], [ 112.727937266556296, -7.255161384628877 ], [ 112.71891988509276, -7.255961285023488 ], [ 112.715004037891049, -7.257758531171021 ], [ 112.714382530669013, -7.25845411682883 ], [ 112.708537931013893, -7.263676214448196 ], [ 112.705932554651099, -7.268470723137511 ], [ 112.704504334068929, -7.275155477963779 ], [ 112.705345765415018, -7.281966272645889 ], [ 112.709174943258631, -7.288543366544445 ], [ 112.716098865318486, -7.293909139349807 ], [ 112.720986946768676, -7.295218303867671 ], [ 112.725888573760244, -7.295510457480987 ], [ 112.730152475054865, -7.295256317801716 ], [ 112.730809152451116, -7.295991263908888 ], [ 112.732474038160035, -7.29630201752002 ] ] ] } },
{ "type": "Feature", "properties": { "FID": 12, "OBJECTID": 13, "Id": 13, "gridcode": 5, "Shape_Leng": 0.0039512786399900001, "Shape_Area": 8.6736682729300002e-07 }, "geometry": { "type": "Polygon", "coordinates": [ [ [ 112.627765154200006, -7.300253296160008 ], [ 112.627765154200006, -7.299594749719972 ], [ 112.626448061320048, -7.299594749719972 ], [ 112.626448061320048, -7.300253296160008 ], [ 112.627765154200006, -7.300253296160008 ] ] ] } },
{ "type": "Feature", "properties": { "FID": 13, "OBJECTID": 14, "Id": 14, "gridcode": 1, "Shape_Leng": 0.027998240212300001, "Shape_Area": 5.7276012482699999e-05 }, "geometry": { "type": "Polygon", "coordinates": [ [ [ 112.725888573760244, -7.329229339519941 ], [ 112.726175451847098, -7.328857671167043 ], [ 112.728660094026168, -7.327371650915836 ], [ 112.729468184047164, -7.323704637721391 ], [ 112.727490635489062, -7.321037331705895 ], [ 112.722928079123221, -7.320381357712904 ], [ 112.720333324152875, -7.324923897225176 ], [ 112.722592666195737, -7.328669440394492 ], [ 112.725888573760244, -7.329229339519941 ] ] ] } },
{ "type": "Feature", "properties": { "FID": 14, "OBJECTID": 15, "Id": 15, "gridcode": 2, "Shape_Leng": 0.66904465610800001, "Shape_Area": 0.0083969443918000004 }, "geometry": { "type": "Polygon", "coordinates": [ [ [ 112.8042556001202, -7.250862313159985 ], [ 112.800012951659255, -7.250401357783289 ], [ 112.801339610826631, -7.247826072016494 ], [ 112.790072554094081, -7.248872736402348 ], [ 112.7725968763541, -7.248516090738121 ], [ 112.763784717881663, -7.247013012952266 ], [ 112.757288063196029, -7.244377827354526 ], [ 112.751689483934115, -7.24149370726343 ], [ 112.746009551034945, -7.239082565724175 ], [ 112.735981640027489, -7.240014123153969 ], [ 112.73198314291642, -7.239932518301146 ], [ 112.725565882386945, -7.240661430211162 ], [ 112.716991614973153, -7.241306802908753 ], [ 112.715687685786861, -7.241978523091177 ], [ 112.713040336333165, -7.242623895788768 ], [ 112.709415778563425, -7.243552805406864 ], [ 112.701684751247626, -7.248005339419024 ], [ 112.698648439763815, -7.251165590596941 ], [ 112.693998359907141, -7.254214312127885 ], [ 112.688870558549411, -7.256236833290188 ], [ 112.674961875052531, -7.25737082019441 ], [ 112.672230207618099, -7.258778039158074 ], [ 112.66646573566868, -7.261574670928667 ], [ 112.662911332347903, -7.264443883890294 ], [ 112.660030859906328, -7.268837332009639 ], [ 112.659052696971344, -7.275021801155674 ], [ 112.660729274251025, -7.281563744977177 ], [ 112.663761305022035, -7.285559599300939 ], [ 112.669937051965007, -7.289608600782174 ], [ 112.675636574651321, -7.29072125446362 ], [ 112.679454467893265, -7.292028047506903 ], [ 112.688029006619786, -7.292673450350264 ], [ 112.688015300300322, -7.293345039900657 ], [ 112.692225913756943, -7.295005795626196 ], [ 112.698381086147606, -7.299178093689932 ], [ 112.703913766551523, -7.306641636757604 ], [ 112.706010351076543, -7.313102548497625 ], [ 112.707113418373069, -7.321004090866836 ], [ 112.707785128506998, -7.322308020053129 ], [ 112.708430511253141, -7.325613915946917 ], [ 112.710497311664881, -7.330390839549068 ], [ 112.713133316225253, -7.334279595667908 ], [ 112.719573065568966, -7.3385016846496 ], [ 112.729450106577588, -7.339880536355565 ], [ 112.735593270866048, -7.337388729509655 ], [ 112.739474390032797, -7.334757899989086 ], [ 112.743343481000011, -7.329538525546127 ], [ 112.745026685345351, -7.32957287173349 ], [ 112.749555980774858, -7.317031971386484 ], [ 112.751240330663109, -7.317066347719617 ], [ 112.752553122733161, -7.315064009213074 ], [ 112.754232408116309, -7.313450562396213 ], [ 112.758046472833485, -7.309480824438992 ], [ 112.762002715492486, -7.306344207618167 ], [ 112.764071103586502, -7.304191401057608 ], [ 112.765308289830273, -7.303002729556738 ], [ 112.776610617223582, -7.300796293504618 ], [ 112.791917360365687, -7.29985993283384 ], [ 112.802912782769909, -7.296835689744114 ], [ 112.80802763145482, -7.29254195409311 ], [ 112.822365627220051, -7.292834569942841 ], [ 112.830371444131629, -7.292671189410555 ], [ 112.834559186926185, -7.291237793788639 ], [ 112.838189753771303, -7.28936750421343 ], [ 112.840133337989755, -7.289407176169959 ], [ 112.842337603539704, -7.287913006486804 ], [ 112.843768386519969, -7.286423820919936 ], [ 112.843463611838615, -7.284752966330075 ], [ 112.842402316660241, -7.282850792479792 ], [ 112.841183177739822, -7.280118652760166 ], [ 112.839447780855835, -7.277008252792086 ], [ 112.832219325281471, -7.274265200269895 ], [ 112.83160977591865, -7.273557676849975 ], [ 112.829585139521441, -7.272948107389823 ], [ 112.82897559015862, -7.271582037530095 ], [ 112.828268046641483, -7.270972468069772 ], [ 112.827658497278549, -7.269662469516504 ], [ 112.83605990831029, -7.267132995413874 ], [ 112.83174671852862, -7.261625537049213 ], [ 112.828286315034916, -7.263082853413948 ], [ 112.825872776899473, -7.261371573220856 ], [ 112.818092772603904, -7.25902918937237 ], [ 112.81579849150512, -7.257749120637357 ], [ 112.814133796720057, -7.257882882858667 ], [ 112.811303703040835, -7.257655477536161 ], [ 112.809870829947272, -7.254444375310641 ], [ 112.806326862119477, -7.25574582751176 ], [ 112.806646810219149, -7.251763825212379 ], [ 112.804577095707145, -7.251930129893424 ], [ 112.8042556001202, -7.250862313159985 ] ], [ [ 112.732474038160035, -7.29630201752002 ], [ 112.730809152451116, -7.295991263908888 ], [ 112.730152475054865, -7.295256317801716 ], [ 112.725888573760244, -7.295510457480987 ], [ 112.720986946768676, -7.295218303867671 ], [ 112.716098865318486, -7.293909139349807 ], [ 112.709174943258631, -7.288543366544445 ], [ 112.705345765415018, -7.281966272645889 ], [ 112.704504334068929, -7.275155477963779 ], [ 112.705932554651099, -7.268470723137511 ], [ 112.708537931013893, -7.263676214448196 ], [ 112.714382530669013, -7.25845411682883 ], [ 112.715004037891049, -7.257758531171021 ], [ 112.71891988509276, -7.255961285023488 ], [ 112.727937266556296, -7.255161384628877 ], [ 112.734109963742526, -7.256480205871753 ], [ 112.734778950700161, -7.256440332942759 ], [ 112.735773492887574, -7.256499609759317 ], [ 112.739657696981226, -7.25861031762139 ], [ 112.745930438240293, -7.265761534468709 ], [ 112.748405202624667, -7.272199098237422 ], [ 112.747911302843136, -7.280485558066573 ], [ 112.746481353898275, -7.284470821143543 ], [ 112.742937325778939, -7.289544490578805 ], [ 112.737899519872826, -7.294045720209454 ], [ 112.736740712874166, -7.293976656035852 ], [ 112.733257127211346, -7.295425576777461 ], [ 112.732474038160035, -7.29630201752002 ] ], [ [ 112.776596649640055, -7.27786271719998 ], [ 112.77238742289353, -7.277433359712688 ], [ 112.772036022609541, -7.27305995356835 ], [ 112.775612588164336, -7.271746533459407 ], [ 112.777544234620677, -7.273410735862058 ], [ 112.77775308516425, -7.27600993232295 ], [ 112.776596649640055, -7.27786271719998 ] ], [ [ 112.725888573760244, -7.329229339519941 ], [ 112.722592666195737, -7.328669440394492 ], [ 112.720333324152875, -7.324923897225176 ], [ 112.722928079123221, -7.320381357712904 ], [ 112.727490635489062, -7.321037331705895 ], [ 112.729468184047164, -7.323704637721391 ], [ 112.728660094026168, -7.327371650915836 ], [ 112.726175451847098, -7.328857671167043 ], [ 112.725888573760244, -7.329229339519941 ] ] ] } },
{ "type": "Feature", "properties": { "FID": 15, "OBJECTID": 16, "Id": 16, "gridcode": 4, "Shape_Leng": 0.0065854644000199998, "Shape_Area": 2.60210048184e-06 }, "geometry": { "type": "Polygon", "coordinates": [ [ [ 112.766718453039971, -7.340424628999926 ], [ 112.766718453039971, -7.341741721879941 ], [ 112.768694092359965, -7.341741721879941 ], [ 112.768694092359965, -7.340424628999926 ], [ 112.766718453039971, -7.340424628999926 ] ] ] } },
{ "type": "Feature", "properties": { "FID": 16, "OBJECTID": 17, "Id": 17, "gridcode": 4, "Shape_Leng": 0.0091936560638600003, "Shape_Area": 3.7540720493400002e-06 }, "geometry": { "type": "Polygon", "coordinates": [ [ [ 112.750254792039982, -7.342400268319977 ], [ 112.753547524240048, -7.342400268319977 ], [ 112.753547524240048, -7.340424628999926 ], [ 112.750476022484918, -7.34196295232465 ], [ 112.750254792039982, -7.342400268319977 ] ] ] } },
{ "type": "Feature", "properties": { "FID": 17, "OBJECTID": 18, "Id": 18, "gridcode": 4, "Shape_Leng": 0.21832173422000001, "Shape_Area": 0.0014923217656800001 }, "geometry": { "type": "Polygon", "coordinates": [ [ [ 112.695595437520069, -7.343058814760013 ], [ 112.697349846395355, -7.342179037875269 ], [ 112.700426493044802, -7.339328766564677 ], [ 112.703490749744333, -7.33778944842652 ], [ 112.704156541240081, -7.336473350359995 ], [ 112.703535034017818, -7.335777764702129 ], [ 112.702491655531276, -7.334845503868905 ], [ 112.701210255353658, -7.332830695023347 ], [ 112.700126581896029, -7.332895287560461 ], [ 112.696268152515927, -7.320400098391417 ], [ 112.693500842622029, -7.314112826825976 ], [ 112.689116810061023, -7.308769572980736 ], [ 112.686847580174685, -7.306742032532156 ], [ 112.681399649842433, -7.304241614017769 ], [ 112.679159560957714, -7.303024334092299 ], [ 112.667588694211076, -7.300601088988856 ], [ 112.665444494294547, -7.299435911164437 ], [ 112.660344683371136, -7.297308356788903 ], [ 112.65562584079953, -7.294551808968322 ], [ 112.645681062035351, -7.28670578523122 ], [ 112.643570268760072, -7.286831593968941 ], [ 112.639948263339988, -7.28661571943934 ], [ 112.637298467047003, -7.286773653618923 ], [ 112.635344387043801, -7.285408699156051 ], [ 112.631603380827187, -7.286751014075435 ], [ 112.628423700640155, -7.287082367359972 ], [ 112.628036183099425, -7.296975928301777 ], [ 112.626448061320048, -7.299594749719972 ], [ 112.627765154200006, -7.299594749719972 ], [ 112.627765154200006, -7.300253296160008 ], [ 112.63271779804154, -7.300570078943849 ], [ 112.632664937269737, -7.301903742000206 ], [ 112.634921048680667, -7.302618028142092 ], [ 112.637301521827794, -7.305863491627861 ], [ 112.643465717880645, -7.309487376140055 ], [ 112.655502383439284, -7.318940254798463 ], [ 112.660792454956777, -7.320326411852079 ], [ 112.664360705277659, -7.319307119910434 ], [ 112.671021830770997, -7.31640023466781 ], [ 112.677578802305561, -7.317205320151061 ], [ 112.683799109859251, -7.322968747043888 ], [ 112.685564009495124, -7.334047794073683 ], [ 112.688567713203042, -7.338699280737217 ], [ 112.690032882565447, -7.339474572058464 ], [ 112.692008421399123, -7.339396273201999 ], [ 112.693277974252169, -7.340766452947832 ], [ 112.694645280092345, -7.342033332867572 ], [ 112.695595437520069, -7.343058814760013 ] ] ] } },
{ "type": "Feature", "properties": { "FID": 18, "OBJECTID": 19, "Id": 19, "gridcode": 4, "Shape_Leng": 0.098460546849700001, "Shape_Area": 0.00027778651385500003 }, "geometry": { "type": "Polygon", "coordinates": [ [ [ 112.773303917440103, -7.340424628999926 ], [ 112.773657689198785, -7.340729413730116 ], [ 112.776585736837433, -7.340964682098615 ], [ 112.777559970761558, -7.342095483589901 ], [ 112.778926060718618, -7.342705053050054 ], [ 112.779535610081439, -7.344729669349817 ], [ 112.78392858591576, -7.345727678311789 ], [ 112.788614438863874, -7.344006892123048 ], [ 112.789984889922493, -7.34411701496299 ], [ 112.792706538881475, -7.346046762229832 ], [ 112.79495572176836, -7.346656331690099 ], [ 112.797571237190027, -7.345197040771211 ], [ 112.79997504826008, -7.345390185319673 ], [ 112.800968856898294, -7.345310328926871 ], [ 112.812643445513004, -7.34628071422901 ], [ 112.81909299226254, -7.343417681169342 ], [ 112.819402168240117, -7.343058814760013 ], [ 112.815195272773508, -7.342273595400968 ], [ 112.807237588757516, -7.339418289731043 ], [ 112.794202939358456, -7.336036717670879 ], [ 112.791157865477203, -7.336218215867348 ], [ 112.780237184717521, -7.338796782508894 ], [ 112.773872166969795, -7.339788651763115 ], [ 112.773303917440103, -7.340424628999926 ] ] ] } },
{ "type": "Feature", "properties": { "FID": 19, "OBJECTID": 20, "Id": 20, "gridcode": 4, "Shape_Leng": 0.016475807944400001, "Shape_Area": 8.3367787938599993e-06 }, "geometry": { "type": "Polygon", "coordinates": [ [ [ 112.731815491720226, -7.34832718627996 ], [ 112.731815491720226, -7.347010093399945 ], [ 112.724571480880172, -7.347010093399945 ], [ 112.725120035112241, -7.348094440115403 ], [ 112.731815491720226, -7.34832718627996 ] ] ] } },
{ "type": "Feature", "properties": { "FID": 20, "OBJECTID": 21, "Id": 21, "gridcode": 3, "Shape_Leng": 1.1094966663200001, "Shape_Area": 0.0097302901240800006 }, "geometry": { "type": "Polygon", "coordinates": [ [ [ 112.732474038160035, -7.34832718627996 ], [ 112.732474038160035, -7.347668639839924 ], [ 112.733132584600185, -7.347668639839924 ], [ 112.733407524925042, -7.346626487285107 ], [ 112.736150376475052, -7.346076606634938 ], [ 112.736700257125221, -7.345309394405092 ], [ 112.742077294435035, -7.344759513754923 ], [ 112.742818822388926, -7.341060756966044 ], [ 112.747237000165228, -7.342125327994893 ], [ 112.750254792039982, -7.342400268319977 ], [ 112.750476022484918, -7.34196295232465 ], [ 112.753547524240048, -7.340424628999926 ], [ 112.753901285949951, -7.34011984426985 ], [ 112.754943418407606, -7.336658496205871 ], [ 112.761754856201492, -7.338144204949913 ], [ 112.766413678358504, -7.338753774410122 ], [ 112.766718453039971, -7.340424628999926 ], [ 112.768694092359965, -7.340424628999926 ], [ 112.770602767668265, -7.339163326064977 ], [ 112.773303917440103, -7.340424628999926 ], [ 112.773872166969795, -7.339788651763115 ], [ 112.780237184717521, -7.338796782508894 ], [ 112.791157865477203, -7.336218215867348 ], [ 112.794202939358456, -7.336036717670879 ], [ 112.807237588757516, -7.339418289731043 ], [ 112.815195272773508, -7.342273595400968 ], [ 112.819402168240117, -7.343058814760013 ], [ 112.823679725610873, -7.343593240630696 ], [ 112.826097001833432, -7.343292565786726 ], [ 112.825558556514125, -7.338963760447655 ], [ 112.826353322063369, -7.336180503391915 ], [ 112.82693903609686, -7.333473465128066 ], [ 112.830067995868149, -7.329751717093927 ], [ 112.832817801063811, -7.32522450172894 ], [ 112.837585489983212, -7.322328639823752 ], [ 112.835684672696857, -7.319726479019664 ], [ 112.839803803505561, -7.319009650576561 ], [ 112.84238225961235, -7.31749395674683 ], [ 112.845351968834848, -7.31018566487694 ], [ 112.846315953165117, -7.306814030903126 ], [ 112.845868508159583, -7.303216755139999 ], [ 112.846155215420367, -7.300911842599987 ], [ 112.845968130190386, -7.29940786546257 ], [ 112.846908841914228, -7.296960563959999 ], [ 112.84603002969709, -7.294674261466412 ], [ 112.846117975230072, -7.293967280672234 ], [ 112.845370076450195, -7.293368382847746 ], [ 112.84568289002857, -7.290853504367476 ], [ 112.844719789976807, -7.290082252591844 ], [ 112.84413407594343, -7.286716667888015 ], [ 112.843768386519969, -7.286423820919936 ], [ 112.842337603539704, -7.287913006486804 ], [ 112.840133337989755, -7.289407176169959 ], [ 112.838189753771303, -7.28936750421343 ], [ 112.834559186926185, -7.291237793788639 ], [ 112.830371444131629, -7.292671189410555 ], [ 112.822365627220051, -7.292834569942841 ], [ 112.80802763145482, -7.29254195409311 ], [ 112.802912782769909, -7.296835689744114 ], [ 112.791917360365687, -7.29985993283384 ], [ 112.776610617223582, -7.300796293504618 ], [ 112.765308289830273, -7.303002729556738 ], [ 112.764071103586502, -7.304191401057608 ], [ 112.762002715492486, -7.306344207618167 ], [ 112.758046472833485, -7.309480824438992 ], [ 112.754232408116309, -7.313450562396213 ], [ 112.752553122733161, -7.315064009213074 ], [ 112.751240330663109, -7.317066347719617 ], [ 112.749555980774858, -7.317031971386484 ], [ 112.745026685345351, -7.32957287173349 ], [ 112.743343481000011, -7.329538525546127 ], [ 112.739474390032797, -7.334757899989086 ], [ 112.735593270866048, -7.337388729509655 ], [ 112.729450106577588, -7.339880536355565 ], [ 112.719573065568966, -7.3385016846496 ], [ 112.713133316225253, -7.334279595667908 ], [ 112.710497311664881, -7.330390839549068 ], [ 112.708430511253141, -7.325613915946917 ], [ 112.707785128506998, -7.322308020053129 ], [ 112.707113418373069, -7.321004090866836 ], [ 112.706010351076543, -7.313102548497625 ], [ 112.703913766551523, -7.306641636757604 ], [ 112.698381086147606, -7.299178093689932 ], [ 112.692225913756943, -7.295005795626196 ], [ 112.688015300300322, -7.293345039900657 ], [ 112.688029006619786, -7.292673450350264 ], [ 112.679454467893265, -7.292028047506903 ], [ 112.675636574651321, -7.29072125446362 ], [ 112.669937051965007, -7.289608600782174 ], [ 112.663761305022035, -7.285559599300939 ], [ 112.660729274251025, -7.281563744977177 ], [ 112.659052696971344, -7.275021801155674 ], [ 112.660030859906328, -7.268837332009639 ], [ 112.662911332347903, -7.264443883890294 ], [ 112.66646573566868, -7.261574670928667 ], [ 112.672230207618099, -7.258778039158074 ], [ 112.674961875052531, -7.25737082019441 ], [ 112.688870558549411, -7.256236833290188 ], [ 112.693998359907141, -7.254214312127885 ], [ 112.698648439763815, -7.251165590596941 ], [ 112.701684751247626, -7.248005339419024 ], [ 112.709415778563425, -7.243552805406864 ], [ 112.713040336333165, -7.242623895788768 ], [ 112.715687685786861, -7.241978523091177 ], [ 112.716991614973153, -7.241306802908753 ], [ 112.725565882386945, -7.240661430211162 ], [ 112.73198314291642, -7.239932518301146 ], [ 112.735981640027489, -7.240014123153969 ], [ 112.746009551034945, -7.239082565724175 ], [ 112.751689483934115, -7.24149370726343 ], [ 112.757288063196029, -7.244377827354526 ], [ 112.763784717881663, -7.247013012952266 ], [ 112.7725968763541, -7.248516090738121 ], [ 112.790072554094081, -7.248872736402348 ], [ 112.801339610826631, -7.247826072016494 ], [ 112.800012951659255, -7.250401357783289 ], [ 112.8042556001202, -7.250862313159985 ], [ 112.803968711984339, -7.249832098367051 ], [ 112.802556398369688, -7.247927156121591 ], [ 112.802662873560166, -7.247206594615761 ], [ 112.801897048040018, -7.246615474424118 ], [ 112.802047998427838, -7.245593941639981 ], [ 112.801902032156022, -7.244606121979871 ], [ 112.801999343004127, -7.243947575540005 ], [ 112.801772646109271, -7.242413497757752 ], [ 112.799937486513954, -7.242684689947168 ], [ 112.799269012036234, -7.241051387054711 ], [ 112.797092581167135, -7.239371463584121 ], [ 112.797474850815433, -7.236784707316303 ], [ 112.795447903235527, -7.234050768893439 ], [ 112.794090515384255, -7.230734251607032 ], [ 112.792688652335755, -7.230160495432926 ], [ 112.791471121194718, -7.227185678998751 ], [ 112.788502436931708, -7.225410160482454 ], [ 112.787420341107577, -7.219040206349462 ], [ 112.78581629979999, -7.218593537599929 ], [ 112.787402374172757, -7.220993660825968 ], [ 112.786864411187366, -7.221617295843714 ], [ 112.785157753360181, -7.221886269799995 ], [ 112.784553831224912, -7.226714740316822 ], [ 112.782816424616726, -7.228106034728057 ], [ 112.78047133768905, -7.2310345094333 ], [ 112.776097172873961, -7.232715859808025 ], [ 112.770617740113835, -7.231699931642368 ], [ 112.767303001433447, -7.227555325066646 ], [ 112.766106893952838, -7.223366645238229 ], [ 112.767451298985293, -7.218664591400625 ], [ 112.77008777583103, -7.215372215926607 ], [ 112.772938228016756, -7.214276559488042 ], [ 112.774986699743295, -7.213690865551882 ], [ 112.77578632882512, -7.212692331549533 ], [ 112.778572288960049, -7.213325166079983 ], [ 112.78020042686137, -7.208679912073762 ], [ 112.775138413826539, -7.207474149124266 ], [ 112.774304297876483, -7.203105143019968 ], [ 112.772962083443531, -7.202471703060041 ], [ 112.772011926015807, -7.201446223051846 ], [ 112.770409191029103, -7.199961194473872 ], [ 112.767376999480121, -7.198178597960009 ], [ 112.766718453039971, -7.198178597960009 ], [ 112.766718453039971, -7.197520051519973 ], [ 112.766059906600162, -7.197520051519973 ], [ 112.764203122371782, -7.19712334200301 ], [ 112.756181710000078, -7.198837144399874 ], [ 112.75511569196965, -7.199088215481481 ], [ 112.752347688720988, -7.200328177657184 ], [ 112.749556754518608, -7.198067645480819 ], [ 112.746325087789728, -7.19696634988162 ], [ 112.746962059840143, -7.195544412199979 ], [ 112.745644966960072, -7.194885865759943 ], [ 112.74254065645664, -7.194519249351401 ], [ 112.736114563189176, -7.195892206913015 ], [ 112.722943634388912, -7.198165386535265 ], [ 112.724455509742597, -7.199369585668023 ], [ 112.732126245331187, -7.198912389103668 ], [ 112.731504738108924, -7.199843485552947 ], [ 112.73029483387154, -7.200924525015978 ], [ 112.73278479177111, -7.202067330841373 ], [ 112.732163284549074, -7.206428950580914 ], [ 112.730127785592344, -7.207363177175864 ], [ 112.730224292550474, -7.208982449680889 ], [ 112.72883467877125, -7.209065274185207 ], [ 112.725238548550806, -7.202477671940983 ], [ 112.724619985574691, -7.203556592400957 ], [ 112.727168828394611, -7.209684638538874 ], [ 112.725213155684969, -7.208938064921028 ], [ 112.721153211255114, -7.200092239799233 ], [ 112.719754141723456, -7.198526392672932 ], [ 112.717636053149022, -7.19914853358631 ], [ 112.71769599317463, -7.200154237279946 ], [ 112.717626376326848, -7.201322299686751 ], [ 112.720272409411223, -7.207087497021064 ], [ 112.721589502291295, -7.208264307380603 ], [ 112.72085690756137, -7.209982175700986 ], [ 112.718973836140094, -7.207021330618545 ], [ 112.717675262868966, -7.209063136341001 ], [ 112.715662584331199, -7.209684638538874 ], [ 112.714941625904885, -7.21583905728329 ], [ 112.710256878305017, -7.217639991274837 ], [ 112.711177151133143, -7.221947322710378 ], [ 112.707101480611186, -7.22351411377889 ], [ 112.706455504996256, -7.224237094490263 ], [ 112.704874726246999, -7.220792879325472 ], [ 112.698465504614433, -7.222162232572259 ], [ 112.697260323228875, -7.222234065141038 ], [ 112.696912530400027, -7.222544816239974 ], [ 112.696475566106415, -7.22682858868302 ], [ 112.693935545975819, -7.232520916556439 ], [ 112.689318787347474, -7.238488672113021 ], [ 112.682934787753993, -7.242473302126939 ], [ 112.677107160220203, -7.244227871780197 ], [ 112.675989622909015, -7.245524998049859 ], [ 112.663620609252121, -7.247675739618785 ], [ 112.657173363637071, -7.250342010626298 ], [ 112.652503945208991, -7.25326668695277 ], [ 112.650486272506441, -7.255005007985517 ], [ 112.649769840983822, -7.258158566781617 ], [ 112.643125737854803, -7.262869480991128 ], [ 112.640165197999067, -7.263107362001108 ], [ 112.635362926749963, -7.262362387370047 ], [ 112.63237497928003, -7.26205760263997 ], [ 112.632892757097807, -7.263374695519985 ], [ 112.632003310927075, -7.265637212927118 ], [ 112.631394866912615, -7.274805811066926 ], [ 112.626618747199927, -7.276760574376453 ], [ 112.628165021496216, -7.27884617575836 ], [ 112.626176195872972, -7.282143269059929 ], [ 112.62813682255296, -7.285393606127002 ], [ 112.628423700640155, -7.287082367359972 ], [ 112.631603380827187, -7.286751014075435 ], [ 112.635344387043801, -7.285408699156051 ], [ 112.637298467047003, -7.286773653618923 ], [ 112.639948263339988, -7.28661571943934 ], [ 112.643570268760072, -7.286831593968941 ], [ 112.645681062035351, -7.28670578523122 ], [ 112.65562584079953, -7.294551808968322 ], [ 112.660344683371136, -7.297308356788903 ], [ 112.665444494294547, -7.299435911164437 ], [ 112.667588694211076, -7.300601088988856 ], [ 112.679159560957714, -7.303024334092299 ], [ 112.681399649842433, -7.304241614017769 ], [ 112.686847580174685, -7.306742032532156 ], [ 112.689116810061023, -7.308769572980736 ], [ 112.693500842622029, -7.314112826825976 ], [ 112.696268152515927, -7.320400098391417 ], [ 112.700126581896029, -7.332895287560461 ], [ 112.701210255353658, -7.332830695023347 ], [ 112.702491655531276, -7.334845503868905 ], [ 112.703535034017818, -7.335777764702129 ], [ 112.704156541240081, -7.336473350359995 ], [ 112.707995335614328, -7.337487487358942 ], [ 112.715570538960719, -7.339768202819073 ], [ 112.716552419885716, -7.341968639844254 ], [ 112.719121440337062, -7.342742122413711 ], [ 112.720776860244882, -7.344663579568191 ], [ 112.723509010013004, -7.345882708439888 ], [ 112.724217719170269, -7.346705308669868 ], [ 112.724571480880172, -7.347010093399945 ], [ 112.731815491720226, -7.347010093399945 ], [ 112.731815491720226, -7.34832718627996 ], [ 112.732474038160035, -7.34832718627996 ] ] ] } },
{ "type": "Feature", "properties": { "FID": 21, "OBJECTID": 22, "Id": 22, "gridcode": 4, "Shape_Leng": 0.0026341857603699999, "Shape_Area": 4.3368341375900001e-07 }, "geometry": { "type": "Polygon", "coordinates": [ [ [ 112.732474038160035, -7.34832718627996 ], [ 112.733132584600185, -7.34832718627996 ], [ 112.733132584600185, -7.347668639839924 ], [ 112.732474038160035, -7.347668639839924 ], [ 112.732474038160035, -7.34832718627996 ] ] ] } },
{ "type": "Feature", "properties": { "FID": 22, "OBJECTID": 23, "Id": 23, "gridcode": 5, "Shape_Leng": 0.21558821881599999, "Shape_Area": 0.0012821121873699999 }, "geometry": { "type": "Polygon", "coordinates": [ [ [ 112.627765154200006, -7.300253296160008 ], [ 112.628789400112055, -7.302521782448082 ], [ 112.6293750940481, -7.311155738671914 ], [ 112.636033410951995, -7.311741432608017 ], [ 112.636619104888155, -7.312472831551929 ], [ 112.639686803240238, -7.313349935503368 ], [ 112.648947919035891, -7.314508280265329 ], [ 112.648390205485498, -7.318992045392235 ], [ 112.650931818322533, -7.321027333327777 ], [ 112.650230977235651, -7.326661776118669 ], [ 112.649131487248042, -7.32952218648802 ], [ 112.648545793311882, -7.335110264940624 ], [ 112.653272840582758, -7.338432931983277 ], [ 112.656375498088096, -7.34334647663951 ], [ 112.654745089198627, -7.356396178873183 ], [ 112.655979331196818, -7.357181136968052 ], [ 112.658415669653664, -7.354138705873879 ], [ 112.660399629231961, -7.353302710831883 ], [ 112.662302416048078, -7.351912765448105 ], [ 112.667833629353254, -7.350950197973134 ], [ 112.67346378138302, -7.351650506482997 ], [ 112.678608474472981, -7.350481881981466 ], [ 112.682480258470605, -7.347653627199918 ], [ 112.690107071535977, -7.345473006055727 ], [ 112.695243102714471, -7.343498803688533 ], [ 112.695595437520069, -7.343058814760013 ], [ 112.694645280092345, -7.342033332867572 ], [ 112.693277974252169, -7.340766452947832 ], [ 112.692008421399123, -7.339396273201999 ], [ 112.690032882565447, -7.339474572058464 ], [ 112.688567713203042, -7.338699280737217 ], [ 112.685564009495124, -7.334047794073683 ], [ 112.683799109859251, -7.322968747043888 ], [ 112.677578802305561, -7.317205320151061 ], [ 112.671021830770997, -7.31640023466781 ], [ 112.664360705277659, -7.319307119910434 ], [ 112.660792454956777, -7.320326411852079 ], [ 112.655502383439284, -7.318940254798463 ], [ 112.643465717880645, -7.309487376140055 ], [ 112.637301521827794, -7.305863491627861 ], [ 112.634921048680667, -7.302618028142092 ], [ 112.632664937269737, -7.301903742000206 ], [ 112.63271779804154, -7.300570078943849 ], [ 112.627765154200006, -7.300253296160008 ] ] ] } }
]
}
