{
"type": "FeatureCollection",
"name": "CH_2023",
"crs": { "type": "name", "properties": { "name": "urn:ogc:def:crs:OGC:1.3:CRS84" } },
"features": [
{ "type": "Feature", "properties": { "FID": 0, "OBJECTID": 1, "Id": 1, "gridcode": 3, "Shape_Leng": 0.0052683715201699999, "Shape_Area": 1.3010502409399999e-06 }, "geometry": { "type": "Polygon", "coordinates": [ [ [ 112.728522759520047, -7.197520051519973 ], [ 112.730498398840155, -7.197520051519973 ], [ 112.730498398840155, -7.196861505079994 ], [ 112.728522759520047, -7.196861505079994 ], [ 112.728522759520047, -7.197520051519973 ] ] ] } },
{ "type": "Feature", "properties": { "FID": 1, "OBJECTID": 2, "Id": 2, "gridcode": 5, "Shape_Leng": 0.0052611118777699997, "Shape_Area": 1.2740146144200001e-06 }, "geometry": { "type": "Polygon", "coordinates": [ [ [ 112.596154925080214, -7.215959351840013 ], [ 112.595933694635278, -7.214863489404706 ], [ 112.595496378640064, -7.213983712519962 ], [ 112.594592092226208, -7.214707853847131 ], [ 112.596154925080214, -7.215959351840013 ] ] ] } },
{ "type": "Feature", "properties": { "FID": 2, "OBJECTID": 3, "Id": 3, "gridcode": 5, "Shape_Leng": 0.0026341857598000001, "Shape_Area": 4.3368341357200002e-07 }, "geometry": { "type": "Polygon", "coordinates": [ [ [ 112.596813471520022, -7.216617898279992 ], [ 112.596813471520022, -7.215959351840013 ], [ 112.596154925080214, -7.215959351840013 ], [ 112.596154925080214, -7.216617898279992 ], [ 112.596813471520022, -7.216617898279992 ] ] ] } },
{ "type": "Feature", "properties": { "FID": 3, "OBJECTID": 4, "Id": 4, "gridcode": 4, "Shape_Leng": 0.0037266198795700002, "Shape_Area": 5.9215099397800004e-07 }, "geometry": { "type": "Polygon", "coordinates": [ [ [ 112.784499206920032, -7.217276444719914 ], [ 112.78423543061308, -7.215779875928547 ], [ 112.783643305559281, -7.216910174988755 ], [ 112.784499206920032, -7.217276444719914 ] ] ] } },
{ "type": "Feature", "properties": { "FID": 4, "OBJECTID": 5, "Id": 5, "gridcode": 4, "Shape_Leng": 0.0026341857601399998, "Shape_Area": 4.3368341368400001e-07 }, "geometry": { "type": "Polygon", "coordinates": [ [ [ 112.785157753360181, -7.217934991159893 ], [ 112.785157753360181, -7.217276444719914 ], [ 112.784499206920032, -7.217276444719914 ], [ 112.784499206920032, -7.217934991159893 ], [ 112.785157753360181, -7.217934991159893 ] ] ] } },
{ "type": "Feature", "properties": { "FID": 5, "OBJECTID": 6, "Id": 6, "gridcode": 4, "Shape_Leng": 0.0026341857598000001, "Shape_Area": 4.3368341357200002e-07 }, "geometry": { "type": "Polygon", "coordinates": [ [ [ 112.78581629979999, -7.218593537599929 ], [ 112.78581629979999, -7.217934991159893 ], [ 112.785157753360181, -7.217934991159893 ], [ 112.785157753360181, -7.218593537599929 ], [ 112.78581629979999, -7.218593537599929 ] ] ] } },
{ "type": "Feature", "properties": { "FID": 6, "OBJECTID": 7, "Id": 7, "gridcode": 5, "Shape_Leng": 0.036096288307900001, "Shape_Area": 3.5074204348900001e-05 }, "geometry": { "type": "Polygon", "coordinates": [ [ [ 112.598789110840016, -7.227154641319999 ], [ 112.599447657280052, -7.227154641319999 ], [ 112.599447657280052, -7.225179001999948 ], [ 112.598130564400094, -7.225179001999948 ], [ 112.598130564400094, -7.221227723360016 ], [ 112.597472017960172, -7.221227723360016 ], [ 112.596754714719737, -7.222060299358645 ], [ 112.593602502124781, -7.214996020669901 ], [ 112.592249045796621, -7.216564781268232 ], [ 112.591692471194733, -7.223491562160802 ], [ 112.592862192880034, -7.223585551939323 ], [ 112.596894711482491, -7.223261534148151 ], [ 112.597776801434179, -7.226191310149886 ], [ 112.598484327366009, -7.226800879610039 ], [ 112.598789110840016, -7.227154641319999 ] ] ] } },
{ "type": "Feature", "properties": { "FID": 7, "OBJECTID": 8, "Id": 8, "gridcode": 5, "Shape_Leng": 0.0035779736472000001, "Shape_Area": 6.0507913736699996e-07 }, "geometry": { "type": "Polygon", "coordinates": [ [ [ 112.598789110840016, -7.229130280639993 ], [ 112.598789110840016, -7.227813187759978 ], [ 112.597870300714249, -7.228471734200014 ], [ 112.598789110840016, -7.229130280639993 ] ] ] } },
{ "type": "Feature", "properties": { "FID": 8, "OBJECTID": 9, "Id": 9, "gridcode": 4, "Shape_Leng": 0.105811965497, "Shape_Area": 0.000565818767159 }, "geometry": { "type": "Polygon", "coordinates": [ [ [ 112.774621010320175, -7.206739701679965 ], [ 112.774316235638594, -7.207093464645993 ], [ 112.770670595861475, -7.208191079309643 ], [ 112.765210858398973, -7.212111474768392 ], [ 112.761871058457359, -7.219427894716773 ], [ 112.761457738569334, -7.224571746234801 ], [ 112.764241065965621, -7.231906332834228 ], [ 112.768971775958789, -7.235819476956806 ], [ 112.774518876133925, -7.237337622649989 ], [ 112.78150654664671, -7.23649678417263 ], [ 112.786048382755666, -7.23323549159619 ], [ 112.788755260241601, -7.230093611810105 ], [ 112.789462803758511, -7.229484042349839 ], [ 112.790730899561595, -7.227459426050075 ], [ 112.791084671320164, -7.227154641319999 ], [ 112.790797783184303, -7.226782972967101 ], [ 112.788502436931708, -7.225410160482454 ], [ 112.787420341107577, -7.219040206349462 ], [ 112.78581629979999, -7.218593537599929 ], [ 112.78742624969675, -7.221124089417174 ], [ 112.786109639150482, -7.222179116768075 ], [ 112.77962874070306, -7.220258280115956 ], [ 112.778853208214855, -7.218938931320565 ], [ 112.779990229802479, -7.213933286026588 ], [ 112.778848204001633, -7.213018761009721 ], [ 112.78010912508887, -7.208603031328892 ], [ 112.776230960216708, -7.2077639475919 ], [ 112.774621010320175, -7.206739701679965 ] ] ] } },
{ "type": "Feature", "properties": { "FID": 9, "OBJECTID": 10, "Id": 10, "gridcode": 3, "Shape_Leng": 0.0035779746679899999, "Shape_Area": 6.0507955091200003e-07 }, "geometry": { "type": "Polygon", "coordinates": [ [ [ 112.801621414360056, -7.242959755879951 ], [ 112.80096286792002, -7.242040945126178 ], [ 112.800304321480098, -7.242959755879951 ], [ 112.801621414360056, -7.242959755879951 ] ] ] } },
{ "type": "Feature", "properties": { "FID": 10, "OBJECTID": 11, "Id": 11, "gridcode": 3, "Shape_Leng": 0.238398243968, "Shape_Area": 0.00131189810589 }, "geometry": { "type": "Polygon", "coordinates": [ [ [ 112.732474038160035, -7.196861505079994 ], [ 112.733211918464463, -7.197687349758496 ], [ 112.737883040133966, -7.201330702846178 ], [ 112.741347543465167, -7.205772513095383 ], [ 112.742040134633726, -7.205731233359472 ], [ 112.744394787848705, -7.209433568713507 ], [ 112.74567721298547, -7.21358658096085 ], [ 112.747100801153124, -7.222722091503329 ], [ 112.749341985337537, -7.230290331155459 ], [ 112.750602584868943, -7.231416671058923 ], [ 112.754191349449911, -7.237580814356477 ], [ 112.76082005306705, -7.243503496822541 ], [ 112.768341787700251, -7.246395042844824 ], [ 112.7819380746364, -7.24788033457105 ], [ 112.78810268268262, -7.246563241691035 ], [ 112.792542384605326, -7.245734567069576 ], [ 112.799725661578805, -7.243607389517365 ], [ 112.800304321480098, -7.242959755879951 ], [ 112.799932663175809, -7.242672877792927 ], [ 112.799269012036234, -7.241051387054711 ], [ 112.797092581167135, -7.239371463584121 ], [ 112.797474850815433, -7.236784707316303 ], [ 112.795447903235527, -7.234050768893439 ], [ 112.794090515384255, -7.230734251607032 ], [ 112.792688652335755, -7.230160495432926 ], [ 112.791631014855511, -7.227576341757867 ], [ 112.791084671320164, -7.227154641319999 ], [ 112.790730899561595, -7.227459426050075 ], [ 112.789462803758511, -7.229484042349839 ], [ 112.788755260241601, -7.230093611810105 ], [ 112.786048382755666, -7.23323549159619 ], [ 112.78150654664671, -7.23649678417263 ], [ 112.774518876133925, -7.237337622649989 ], [ 112.768971775958789, -7.235819476956806 ], [ 112.764241065965621, -7.231906332834228 ], [ 112.761457738569334, -7.224571746234801 ], [ 112.761871058457359, -7.219427894716773 ], [ 112.765210858398973, -7.212111474768392 ], [ 112.770670595861475, -7.208191079309643 ], [ 112.774316235638594, -7.207093464645993 ], [ 112.774621010320175, -7.206739701679965 ], [ 112.774316235638594, -7.203093206513984 ], [ 112.772950145681534, -7.202483639565969 ], [ 112.771731026858333, -7.201068587702082 ], [ 112.765843539688035, -7.196841047343241 ], [ 112.763135034325501, -7.195632467325652 ], [ 112.759561905399096, -7.195919572134756 ], [ 112.755876925270059, -7.198532360925924 ], [ 112.752736379438261, -7.200459020753954 ], [ 112.74968048319181, -7.198292281152021 ], [ 112.746222260248828, -7.196749154900374 ], [ 112.747974367989855, -7.195239628725972 ], [ 112.748583937450121, -7.194320443033007 ], [ 112.74432787408, -7.194662422420492 ], [ 112.742470306059317, -7.194513164911257 ], [ 112.73612053206989, -7.195898175165951 ], [ 112.732778822890282, -7.196507742113965 ], [ 112.732474038160035, -7.196861505079994 ] ] ] } },
{ "type": "Feature", "properties": { "FID": 11, "OBJECTID": 12, "Id": 12, "gridcode": 4, "Shape_Leng": 0.193674039859, "Shape_Area": 0.0016755670475 }, "geometry": { "type": "Polygon", "coordinates": [ [ [ 112.614594225399969, -7.248886673839934 ], [ 112.615600567181218, -7.248575920228916 ], [ 112.617901141228913, -7.247750451117554 ], [ 112.624595879360299, -7.246192814342862 ], [ 112.625752470637963, -7.24489835095784 ], [ 112.630790681001145, -7.243342583226763 ], [ 112.630707958239213, -7.241954657615793 ], [ 112.635149790469768, -7.239368619824347 ], [ 112.639090096015252, -7.236315039784927 ], [ 112.643075690696719, -7.229183917667854 ], [ 112.643881022371147, -7.218932377107421 ], [ 112.639927784249949, -7.210375996239293 ], [ 112.640042333507495, -7.208454164773798 ], [ 112.635939657316158, -7.203750270782393 ], [ 112.636058994741575, -7.201747997591781 ], [ 112.633344279331141, -7.200502031992983 ], [ 112.63303352572018, -7.200154237279946 ], [ 112.628223637615974, -7.201984719870268 ], [ 112.616323585574833, -7.208281626179257 ], [ 112.611647705883229, -7.209032060979951 ], [ 112.599441324764484, -7.203290130600067 ], [ 112.592709871483294, -7.202004966585946 ], [ 112.591886926774123, -7.206782582914968 ], [ 112.593948523256131, -7.207755534383807 ], [ 112.598050709263362, -7.21218291041663 ], [ 112.595496378640064, -7.213983712519962 ], [ 112.595933694635278, -7.214863489404706 ], [ 112.596154925080214, -7.215959351840013 ], [ 112.596813471520022, -7.215959351840013 ], [ 112.596813471520022, -7.216617898279992 ], [ 112.597220946878565, -7.216366828454625 ], [ 112.597872007723936, -7.215310188300009 ], [ 112.601015821241504, -7.216381544660351 ], [ 112.600513679078517, -7.217683921334583 ], [ 112.597601532126646, -7.219269297328026 ], [ 112.597908229235031, -7.220253959208947 ], [ 112.597472017960172, -7.221227723360016 ], [ 112.598130564400094, -7.221227723360016 ], [ 112.598130564400094, -7.225179001999948 ], [ 112.599447657280052, -7.225179001999948 ], [ 112.599447657280052, -7.227154641319999 ], [ 112.598789110840016, -7.227154641319999 ], [ 112.598789110840016, -7.227813187759978 ], [ 112.598789110840016, -7.229130280639993 ], [ 112.599097065282081, -7.229487725169577 ], [ 112.59979824927791, -7.229431382550388 ], [ 112.600410987193982, -7.230142588789874 ], [ 112.602484539023067, -7.231067848246312 ], [ 112.604513904552732, -7.232816240509749 ], [ 112.604124440091368, -7.23766327334215 ], [ 112.605020812274006, -7.238703692509887 ], [ 112.606996451594114, -7.24040579831177 ], [ 112.605496202495146, -7.242287598582493 ], [ 112.603388028141808, -7.244103891891598 ], [ 112.601994185148897, -7.246602104733597 ], [ 112.605408785770919, -7.248507232878524 ], [ 112.606362394899975, -7.248583858639677 ], [ 112.613817263495548, -7.247984850280375 ], [ 112.614594225399969, -7.248886673839934 ] ] ] } },
{ "type": "Feature", "properties": { "FID": 12, "OBJECTID": 13, "Id": 13, "gridcode": 3, "Shape_Leng": 0.25313279567199998, "Shape_Area": 0.00170051607408 }, "geometry": { "type": "Polygon", "coordinates": [ [ [ 112.620521143360065, -7.258106323999982 ], [ 112.624808279579042, -7.257125091211094 ], [ 112.625453657301023, -7.256453371028783 ], [ 112.643226957616207, -7.255728232375986 ], [ 112.649880456206233, -7.252849498345711 ], [ 112.649819611804674, -7.249868157844332 ], [ 112.666756417158922, -7.233769327110508 ], [ 112.66981464468563, -7.234816102031175 ], [ 112.672868998468857, -7.232745701700878 ], [ 112.676216490630168, -7.231425378189215 ], [ 112.679612512607605, -7.227890735481992 ], [ 112.68077156077311, -7.225501690860938 ], [ 112.681443270906925, -7.224856313139071 ], [ 112.68176596228011, -7.224520455560025 ], [ 112.681461177549977, -7.224166693850123 ], [ 112.680084576735112, -7.222980682721698 ], [ 112.680199653545287, -7.221548502982898 ], [ 112.678026779888114, -7.220922938629883 ], [ 112.6766530127843, -7.224001622637218 ], [ 112.668609463300072, -7.220430988280953 ], [ 112.667631702310018, -7.21823977588997 ], [ 112.664948539570219, -7.213678927789886 ], [ 112.662094364370205, -7.208535414156756 ], [ 112.660164094574952, -7.20767409282098 ], [ 112.66108822104934, -7.200856844411817 ], [ 112.663660693202132, -7.198640539357655 ], [ 112.664304206904944, -7.195112734737222 ], [ 112.664948539570219, -7.196556721605987 ], [ 112.665973554201742, -7.197166288554001 ], [ 112.665580532528566, -7.19227497176189 ], [ 112.660159738497669, -7.193457351883865 ], [ 112.659070598590006, -7.195898175165951 ], [ 112.653094703650254, -7.196507742113965 ], [ 112.647134770945172, -7.197807720307935 ], [ 112.640087763324004, -7.198615569790036 ], [ 112.63303352572018, -7.200154237279946 ], [ 112.633344279331141, -7.200502031992983 ], [ 112.636058994741575, -7.201747997591781 ], [ 112.635939657316158, -7.203750270782393 ], [ 112.640042333507495, -7.208454164773798 ], [ 112.639927784249949, -7.210375996239293 ], [ 112.643881022371147, -7.218932377107421 ], [ 112.643075690696719, -7.229183917667854 ], [ 112.639090096015252, -7.236315039784927 ], [ 112.635149790469768, -7.239368619824347 ], [ 112.630707958239213, -7.241954657615793 ], [ 112.630790681001145, -7.243342583226763 ], [ 112.625752470637963, -7.24489835095784 ], [ 112.624595879360299, -7.246192814342862 ], [ 112.617901141228913, -7.247750451117554 ], [ 112.615600567181218, -7.248575920228916 ], [ 112.614594225399969, -7.248886673839934 ], [ 112.614892973421092, -7.252016874616118 ], [ 112.617978962775851, -7.253279900889652 ], [ 112.617345452475774, -7.257566853721414 ], [ 112.620521143360065, -7.258106323999982 ] ], [ [ 112.663985208400163, -7.194227319319964 ], [ 112.663182293419027, -7.194001879602069 ], [ 112.663759767583201, -7.193424404024938 ], [ 112.663985208400163, -7.194227319319964 ] ] ] } },
{ "type": "Feature", "properties": { "FID": 13, "OBJECTID": 14, "Id": 14, "gridcode": 1, "Shape_Leng": 0.019428037885700002, "Shape_Area": 1.7379179183499998e-05 }, "geometry": { "type": "Polygon", "coordinates": [ [ [ 112.62710660775997, -7.281155449399989 ], [ 112.628154726683761, -7.280886477955846 ], [ 112.630092000367995, -7.279624943902547 ], [ 112.631440512774475, -7.277671823542789 ], [ 112.631716432840108, -7.274569984999971 ], [ 112.626687236089992, -7.276806858325756 ], [ 112.62813420991165, -7.278847612711218 ], [ 112.627411392490103, -7.280143141250107 ], [ 112.62710660775997, -7.281155449399989 ] ] ] } },
{ "type": "Feature", "properties": { "FID": 14, "OBJECTID": 15, "Id": 15, "gridcode": 1, "Shape_Leng": 0.31042134216299999, "Shape_Area": 0.0044147392462600002 }, "geometry": { "type": "Polygon", "coordinates": [ [ [ 112.735766770359987, -7.300911842599987 ], [ 112.736083492852117, -7.300570018652081 ], [ 112.742876943614078, -7.296745875167744 ], [ 112.753859463588583, -7.288324035289179 ], [ 112.758054551925056, -7.286853670789753 ], [ 112.763109008396555, -7.288057636292081 ], [ 112.770648790353675, -7.290033275612075 ], [ 112.780169075162917, -7.289165356100398 ], [ 112.786691916555469, -7.284953205205056 ], [ 112.790040539186862, -7.278624905119216 ], [ 112.79025071614808, -7.273322292922444 ], [ 112.789344250125396, -7.26763205013782 ], [ 112.784704017917761, -7.262623963028886 ], [ 112.778114473777464, -7.25991726139398 ], [ 112.772256670234128, -7.259685077952156 ], [ 112.767035165483549, -7.260398680787773 ], [ 112.758202487726749, -7.261715773667731 ], [ 112.753799895361908, -7.25983302380223 ], [ 112.746939641366112, -7.255402998701697 ], [ 112.745960724784595, -7.254495985029166 ], [ 112.746023880368966, -7.252902610333081 ], [ 112.741640882815659, -7.250583348362056 ], [ 112.738717678612147, -7.249887049252209 ], [ 112.732046841126362, -7.247934124840469 ], [ 112.715201081304599, -7.247266424106556 ], [ 112.708643712849607, -7.249342499395539 ], [ 112.693537841645366, -7.258282230138718 ], [ 112.687187625516685, -7.258533928002919 ], [ 112.67641786499928, -7.257733153378183 ], [ 112.673459510718999, -7.258437828013882 ], [ 112.672229594652208, -7.259765245852236 ], [ 112.664703473795953, -7.264001814897142 ], [ 112.661617778363279, -7.269041389360666 ], [ 112.66170639715358, -7.271277252800019 ], [ 112.661554547414084, -7.275108415246223 ], [ 112.663201124535135, -7.280309214812917 ], [ 112.666486742311349, -7.283855282802278 ], [ 112.671749582065559, -7.28664010744302 ], [ 112.677775443774181, -7.287900847655237 ], [ 112.684716870532384, -7.28608199697203 ], [ 112.687376157747849, -7.285448551987827 ], [ 112.692260591548461, -7.28416869929805 ], [ 112.695981616082122, -7.285472899797128 ], [ 112.697800838564262, -7.285400790891231 ], [ 112.706527875166216, -7.293115298273847 ], [ 112.711209145943144, -7.296336584777009 ], [ 112.715458366202142, -7.298585054211628 ], [ 112.716668923599968, -7.298633036377851 ], [ 112.718673492900507, -7.29855358192998 ], [ 112.725999731607999, -7.299508823959968 ], [ 112.732196766555035, -7.298584752752959 ], [ 112.734049089195196, -7.300583905846565 ], [ 112.735766770359987, -7.300911842599987 ] ] ] } },
{ "type": "Feature", "properties": { "FID": 15, "OBJECTID": 16, "Id": 16, "gridcode": 1, "Shape_Leng": 0.031412340795599999, "Shape_Area": 7.3568598886699995e-05 }, "geometry": { "type": "Polygon", "coordinates": [ [ [ 112.727205666639975, -7.329229339519941 ], [ 112.727779422814137, -7.328486002814145 ], [ 112.729238402225747, -7.327359863883146 ], [ 112.7301267304872, -7.324390245098357 ], [ 112.728697675869626, -7.320755096081768 ], [ 112.724780431909608, -7.319151858664043 ], [ 112.721190893584776, -7.321317085320459 ], [ 112.720333324152875, -7.326192937598591 ], [ 112.722345389724865, -7.328906798876233 ], [ 112.727205666639975, -7.329229339519941 ] ] ] } },
{ "type": "Feature", "properties": { "FID": 16, "OBJECTID": 17, "Id": 17, "gridcode": 1, "Shape_Leng": 0.030186298126800001, "Shape_Area": 6.7768600605800004e-05 }, "geometry": { "type": "Polygon", "coordinates": [ [ [ 112.82730472551998, -7.329229339519941 ], [ 112.827591613655841, -7.328857671167043 ], [ 112.828334930264418, -7.328283914992824 ], [ 112.830225799415757, -7.325048791538279 ], [ 112.828764006390202, -7.321330379646383 ], [ 112.825024713463336, -7.319722811272925 ], [ 112.821160375494173, -7.322053789936263 ], [ 112.820432372984556, -7.326192937598591 ], [ 112.822444448604983, -7.328906798876233 ], [ 112.82730472551998, -7.329229339519941 ] ] ] } },
{ "type": "Feature", "properties": { "FID": 17, "OBJECTID": 18, "Id": 18, "gridcode": 4, "Shape_Leng": 0.0026341857595799999, "Shape_Area": 4.3368341349700002e-07 }, "geometry": { "type": "Polygon", "coordinates": [ [ [ 112.706132180559962, -7.337131896799974 ], [ 112.706132180559962, -7.336473350359995 ], [ 112.705473634120153, -7.336473350359995 ], [ 112.705473634120153, -7.337131896799974 ], [ 112.706132180559962, -7.337131896799974 ] ] ] } },
{ "type": "Feature", "properties": { "FID": 18, "OBJECTID": 19, "Id": 19, "gridcode": 4, "Shape_Leng": 0.0052683715199499997, "Shape_Area": 1.30105024086e-06 }, "geometry": { "type": "Polygon", "coordinates": [ [ [ 112.766718453039971, -7.341083175439962 ], [ 112.766718453039971, -7.341741721879941 ], [ 112.768694092359965, -7.341741721879941 ], [ 112.768694092359965, -7.341083175439962 ], [ 112.766718453039971, -7.341083175439962 ] ] ] } },
{ "type": "Feature", "properties": { "FID": 19, "OBJECTID": 20, "Id": 20, "gridcode": 4, "Shape_Leng": 0.209649403244, "Shape_Area": 0.001546468646 }, "geometry": { "type": "Polygon", "coordinates": [ [ [ 112.696253983959991, -7.342400268319977 ], [ 112.697349846395355, -7.342179037875269 ], [ 112.700426493044802, -7.339328766564677 ], [ 112.702618217915301, -7.338227759235338 ], [ 112.704377771684676, -7.336694580804647 ], [ 112.705473634120153, -7.336473350359995 ], [ 112.702430469476667, -7.332156804338751 ], [ 112.700546202269379, -7.332231485691693 ], [ 112.699561316806694, -7.331168532490835 ], [ 112.693961622147867, -7.321643504731981 ], [ 112.692594316307691, -7.320376624812241 ], [ 112.685076410199258, -7.312262755076688 ], [ 112.677855229826605, -7.309450789110201 ], [ 112.672863029587802, -7.308497677387891 ], [ 112.671444093931768, -7.307746854459253 ], [ 112.663523378793229, -7.306522038067897 ], [ 112.660986664659049, -7.307864342938444 ], [ 112.658184074056066, -7.30775325543101 ], [ 112.64582914354196, -7.304857393525879 ], [ 112.635361761110062, -7.302858973981529 ], [ 112.632243817139511, -7.29860806555422 ], [ 112.627765154200006, -7.298277656839957 ], [ 112.626330309064429, -7.299559680031962 ], [ 112.628709767300961, -7.301685707017043 ], [ 112.629392998178901, -7.311137832028919 ], [ 112.636015504309057, -7.311759339251125 ], [ 112.636637011531093, -7.31245492490882 ], [ 112.639129536853602, -7.313224599050841 ], [ 112.64871957416733, -7.314507235208737 ], [ 112.648451481977645, -7.319005219134624 ], [ 112.650699896144715, -7.321014159585332 ], [ 112.650399361981385, -7.326056447176597 ], [ 112.649149393891321, -7.329540093131072 ], [ 112.648838640280019, -7.331863525280028 ], [ 112.650664952064517, -7.332503642548659 ], [ 112.654500978043529, -7.330473811014429 ], [ 112.663444441849265, -7.336215995122018 ], [ 112.670307921452491, -7.338621624992413 ], [ 112.67618086826792, -7.339424258612098 ], [ 112.676995821497258, -7.340303814427102 ], [ 112.689327579890914, -7.340792589411706 ], [ 112.690116617725948, -7.339941008958135 ], [ 112.69557719927252, -7.341669834043842 ], [ 112.696253983959991, -7.342400268319977 ] ] ] } },
{ "type": "Feature", "properties": { "FID": 20, "OBJECTID": 21, "Id": 21, "gridcode": 4, "Shape_Leng": 0.017963898407600001, "Shape_Area": 1.3887050612199999e-05 }, "geometry": { "type": "Polygon", "coordinates": [ [ [ 112.746962059840143, -7.341741721879941 ], [ 112.747231031284059, -7.342131296875834 ], [ 112.753292038045743, -7.342669239764064 ], [ 112.754206070680084, -7.339107536120025 ], [ 112.750361990731108, -7.340206614114038 ], [ 112.746962059840143, -7.341741721879941 ] ] ] } },
{ "type": "Feature", "properties": { "FID": 21, "OBJECTID": 22, "Id": 22, "gridcode": 2, "Shape_Leng": 1.1452376613, "Shape_Area": 0.011607519045899999 }, "geometry": { "type": "Polygon", "coordinates": [ [ [ 112.819402168240117, -7.343058814760013 ], [ 112.823415245900492, -7.343541872079072 ], [ 112.825945408333723, -7.343338568374634 ], [ 112.825589928309569, -7.33891435137707 ], [ 112.82634140439859, -7.336168565629919 ], [ 112.826950953761639, -7.333485402890119 ], [ 112.829962224081441, -7.329845008493237 ], [ 112.832808676915761, -7.325300459256709 ], [ 112.837560730180485, -7.322324027506625 ], [ 112.835726394572021, -7.319736959731529 ], [ 112.839715516319643, -7.319009288826237 ], [ 112.842335533523737, -7.317547495800738 ], [ 112.845200335140476, -7.310620207452814 ], [ 112.846254535992216, -7.307118765390044 ], [ 112.845941019010297, -7.303216755139999 ], [ 112.846126215099275, -7.300911842599987 ], [ 112.846002154822031, -7.299368002582185 ], [ 112.846886252613672, -7.296960563959999 ], [ 112.846045584962781, -7.294671347366261 ], [ 112.84610147539388, -7.293975781805727 ], [ 112.84538657628616, -7.293359881714196 ], [ 112.845591387284003, -7.290810968553842 ], [ 112.844731707641472, -7.290070314829791 ], [ 112.843906595256158, -7.285546968184008 ], [ 112.842402316660241, -7.282850792479792 ], [ 112.841183177739822, -7.280118652760166 ], [ 112.839447780855835, -7.277008252792086 ], [ 112.832219325281471, -7.274265200269895 ], [ 112.83160977591865, -7.273557676849975 ], [ 112.829585139521441, -7.272948107389823 ], [ 112.82897559015862, -7.271582037530095 ], [ 112.828268046641483, -7.270972468069772 ], [ 112.827658497278549, -7.269662469516504 ], [ 112.83605990831029, -7.267132995413874 ], [ 112.83174671852862, -7.261625537049213 ], [ 112.828286315034916, -7.263082853413948 ], [ 112.825872776899473, -7.261371573220856 ], [ 112.818092772603904, -7.25902918937237 ], [ 112.81579849150512, -7.257749120637357 ], [ 112.814133796720057, -7.257882882858667 ], [ 112.811303703040835, -7.257655477536161 ], [ 112.809870829947272, -7.254444375310641 ], [ 112.806326862119477, -7.25574582751176 ], [ 112.806646810219149, -7.251763825212379 ], [ 112.804577095707145, -7.251930129893424 ], [ 112.803950825438619, -7.249850005010046 ], [ 112.802581218464297, -7.247918358553761 ], [ 112.802637410354009, -7.247218989590067 ], [ 112.801922511246289, -7.246603079449926 ], [ 112.802003603619482, -7.245593941639981 ], [ 112.801924239608979, -7.244606121979871 ], [ 112.801978401677388, -7.243931879593674 ], [ 112.801621414360056, -7.242959755879951 ], [ 112.800304321480098, -7.242959755879951 ], [ 112.799725661578805, -7.243607389517365 ], [ 112.792542384605326, -7.245734567069576 ], [ 112.78810268268262, -7.246563241691035 ], [ 112.7819380746364, -7.24788033457105 ], [ 112.768341787700251, -7.246395042844824 ], [ 112.76082005306705, -7.243503496822541 ], [ 112.754191349449911, -7.237580814356477 ], [ 112.750602584868943, -7.231416671058923 ], [ 112.749341985337537, -7.230290331155459 ], [ 112.747100801153124, -7.222722091503329 ], [ 112.74567721298547, -7.21358658096085 ], [ 112.744394787848705, -7.209433568713507 ], [ 112.742040134633726, -7.205731233359472 ], [ 112.741347543465167, -7.205772513095383 ], [ 112.737883040133966, -7.201330702846178 ], [ 112.733211918464463, -7.197687349758496 ], [ 112.732474038160035, -7.196861505079994 ], [ 112.730498398840155, -7.196861505079994 ], [ 112.730498398840155, -7.197520051519973 ], [ 112.728522759520047, -7.197520051519973 ], [ 112.722943634388912, -7.197996279544896 ], [ 112.724424519794752, -7.199371432730231 ], [ 112.732126245331187, -7.198912389103668 ], [ 112.731504738108924, -7.199843485552947 ], [ 112.73029483387154, -7.200924525015978 ], [ 112.73278479177111, -7.202067330841373 ], [ 112.732163284549074, -7.206428950580914 ], [ 112.730127785592344, -7.207363177175864 ], [ 112.730224292550474, -7.208982449680889 ], [ 112.72883467877125, -7.209065274185207 ], [ 112.725238548550806, -7.202477671940983 ], [ 112.724619985574691, -7.203556592400957 ], [ 112.727168828394611, -7.209684638538874 ], [ 112.725213155684969, -7.208938064921028 ], [ 112.721153211255114, -7.200092239799233 ], [ 112.719754141723456, -7.198526392672932 ], [ 112.717636053149022, -7.19914853358631 ], [ 112.71769599317463, -7.200154237279946 ], [ 112.717626376326848, -7.201322299686751 ], [ 112.720272409411223, -7.207087497021064 ], [ 112.721589502291295, -7.208264307380603 ], [ 112.72085690756137, -7.209982175700986 ], [ 112.718973836140094, -7.207021330618545 ], [ 112.717675262868966, -7.209063136341001 ], [ 112.715662584331199, -7.209684638538874 ], [ 112.714941625904885, -7.21583905728329 ], [ 112.710256878305017, -7.217639991274837 ], [ 112.711177151133143, -7.221947322710378 ], [ 112.707101480611186, -7.22351411377889 ], [ 112.706455504996256, -7.224237094490263 ], [ 112.704874726246999, -7.220792879325472 ], [ 112.701211601868977, -7.221575518701002 ], [ 112.697881830451252, -7.222197020898875 ], [ 112.694456416256799, -7.223621752097245 ], [ 112.692302705320117, -7.223493385985535 ], [ 112.690985612440045, -7.223571885814408 ], [ 112.688701209135957, -7.223435729509163 ], [ 112.685624853896798, -7.225107450792621 ], [ 112.68176596228011, -7.224520455560025 ], [ 112.681443270906925, -7.224856313139071 ], [ 112.68077156077311, -7.225501690860938 ], [ 112.679612512607605, -7.227890735481992 ], [ 112.676216490630168, -7.231425378189215 ], [ 112.672868998468857, -7.232745701700878 ], [ 112.66981464468563, -7.234816102031175 ], [ 112.666756417158922, -7.233769327110508 ], [ 112.649819611804674, -7.249868157844332 ], [ 112.649880456206233, -7.252849498345711 ], [ 112.643226957616207, -7.255728232375986 ], [ 112.625453657301023, -7.256453371028783 ], [ 112.624808279579042, -7.257125091211094 ], [ 112.620521143360065, -7.258106323999982 ], [ 112.620989110162327, -7.258712597512442 ], [ 112.622891472424158, -7.2598601148851 ], [ 112.626662863159481, -7.261342728653744 ], [ 112.629551588031404, -7.259600232418904 ], [ 112.631765075703129, -7.26050616586457 ], [ 112.632892757097807, -7.263374695519985 ], [ 112.632003310927075, -7.265637212927118 ], [ 112.631716432840108, -7.274569984999971 ], [ 112.631440512774475, -7.277671823542789 ], [ 112.630092000367995, -7.279624943902547 ], [ 112.628154726683761, -7.280886477955846 ], [ 112.62710660775997, -7.281155449399989 ], [ 112.626186563538226, -7.281948114787383 ], [ 112.628118915910022, -7.285411512770111 ], [ 112.628423700640155, -7.291033646000017 ], [ 112.629398967059956, -7.290691822052111 ], [ 112.63266213872862, -7.289914541103769 ], [ 112.637976703760387, -7.28805180809178 ], [ 112.64023289556053, -7.289604330118266 ], [ 112.645597512774316, -7.286765644867842 ], [ 112.650634740884811, -7.287656193874454 ], [ 112.662448221542036, -7.294036847276914 ], [ 112.664784726947005, -7.296558568868249 ], [ 112.66760721382002, -7.296670440168214 ], [ 112.669941056340463, -7.296577942609986 ], [ 112.675497220372108, -7.297302387907791 ], [ 112.681556569111081, -7.297947248125809 ], [ 112.684033212587906, -7.300620231612299 ], [ 112.689559642749259, -7.302369907587035 ], [ 112.693512609557501, -7.30423547431019 ], [ 112.699083957055905, -7.308321927002851 ], [ 112.701218193764475, -7.311423474135609 ], [ 112.703156793866583, -7.314425570064145 ], [ 112.704110719527421, -7.314387757102509 ], [ 112.705790356612283, -7.319692966867876 ], [ 112.707847399812636, -7.322375466398626 ], [ 112.709083088812122, -7.326278431267895 ], [ 112.709766736708048, -7.326911876252097 ], [ 112.713593442590764, -7.333421061568458 ], [ 112.719585556005086, -7.33708999404945 ], [ 112.724913304827965, -7.338107165732083 ], [ 112.726581426193093, -7.338989846668312 ], [ 112.732599284174853, -7.337556400803237 ], [ 112.738920439691015, -7.333998123739036 ], [ 112.742688270702047, -7.32886117813581 ], [ 112.744155801490365, -7.328919349604064 ], [ 112.749789681558468, -7.316981667988671 ], [ 112.752048199614251, -7.317773268222197 ], [ 112.755358727922385, -7.313259789322444 ], [ 112.759459660678317, -7.310251855144941 ], [ 112.762235562143246, -7.307255908972479 ], [ 112.769748775545622, -7.304622557248081 ], [ 112.782375933257072, -7.304122065571164 ], [ 112.790870414618553, -7.306145435841984 ], [ 112.794902443978572, -7.307421982535288 ], [ 112.797131951664937, -7.309487727841827 ], [ 112.79930394104349, -7.312448956027879 ], [ 112.800933907793706, -7.313959193456242 ], [ 112.803648241356541, -7.326824031205376 ], [ 112.80587766865392, -7.332549253240416 ], [ 112.810336061012322, -7.338627684311064 ], [ 112.815218143435459, -7.341211034096375 ], [ 112.819085455796653, -7.34271699081205 ], [ 112.819402168240117, -7.343058814760013 ] ], [ [ 112.727205666639975, -7.329229339519941 ], [ 112.722345389724865, -7.328906798876233 ], [ 112.720333324152875, -7.326192937598591 ], [ 112.721190893584776, -7.321317085320459 ], [ 112.724780431909608, -7.319151858664043 ], [ 112.728697675869626, -7.320755096081768 ], [ 112.7301267304872, -7.324390245098357 ], [ 112.729238402225747, -7.327359863883146 ], [ 112.727779422814137, -7.328486002814145 ], [ 112.727205666639975, -7.329229339519941 ] ], [ [ 112.82730472551998, -7.329229339519941 ], [ 112.822444448604983, -7.328906798876233 ], [ 112.820432372984556, -7.326192937598591 ], [ 112.821160375494173, -7.322053789936263 ], [ 112.825024713463336, -7.319722811272925 ], [ 112.828764006390202, -7.321330379646383 ], [ 112.830225799415757, -7.325048791538279 ], [ 112.828334930264418, -7.328283914992824 ], [ 112.827591613655841, -7.328857671167043 ], [ 112.82730472551998, -7.329229339519941 ] ], [ [ 112.735766770359987, -7.300911842599987 ], [ 112.734049089195196, -7.300583905846565 ], [ 112.732196766555035, -7.298584752752959 ], [ 112.725999731607999, -7.299508823959968 ], [ 112.718673492900507, -7.29855358192998 ], [ 112.716668923599968, -7.298633036377851 ], [ 112.715458366202142, -7.298585054211628 ], [ 112.711209145943144, -7.296336584777009 ], [ 112.706527875166216, -7.293115298273847 ], [ 112.697800838564262, -7.285400790891231 ], [ 112.695981616082122, -7.285472899797128 ], [ 112.692260591548461, -7.28416869929805 ], [ 112.687376157747849, -7.285448551987827 ], [ 112.684716870532384, -7.28608199697203 ], [ 112.677775443774181, -7.287900847655237 ], [ 112.671749582065559, -7.28664010744302 ], [ 112.666486742311349, -7.283855282802278 ], [ 112.663201124535135, -7.280309214812917 ], [ 112.661554547414084, -7.275108415246223 ], [ 112.66170639715358, -7.271277252800019 ], [ 112.661617778363279, -7.269041389360666 ], [ 112.664703473795953, -7.264001814897142 ], [ 112.672229594652208, -7.259765245852236 ], [ 112.673459510718999, -7.258437828013882 ], [ 112.67641786499928, -7.257733153378183 ], [ 112.687187625516685, -7.258533928002919 ], [ 112.693537841645366, -7.258282230138718 ], [ 112.708643712849607, -7.249342499395539 ], [ 112.715201081304599, -7.247266424106556 ], [ 112.732046841126362, -7.247934124840469 ], [ 112.738717678612147, -7.249887049252209 ], [ 112.741640882815659, -7.250583348362056 ], [ 112.746023880368966, -7.252902610333081 ], [ 112.745960724784595, -7.254495985029166 ], [ 112.746939641366112, -7.255402998701697 ], [ 112.753799895361908, -7.25983302380223 ], [ 112.758202487726749, -7.261715773667731 ], [ 112.767035165483549, -7.260398680787773 ], [ 112.772256670234128, -7.259685077952156 ], [ 112.778114473777464, -7.25991726139398 ], [ 112.784704017917761, -7.262623963028886 ], [ 112.789344250125396, -7.26763205013782 ], [ 112.79025071614808, -7.273322292922444 ], [ 112.790040539186862, -7.278624905119216 ], [ 112.786691916555469, -7.284953205205056 ], [ 112.780169075162917, -7.289165356100398 ], [ 112.770648790353675, -7.290033275612075 ], [ 112.763109008396555, -7.288057636292081 ], [ 112.758054551925056, -7.286853670789753 ], [ 112.753859463588583, -7.288324035289179 ], [ 112.742876943614078, -7.296745875167744 ], [ 112.736083492852117, -7.300570018652081 ], [ 112.735766770359987, -7.300911842599987 ] ] ] } },
{ "type": "Feature", "properties": { "FID": 22, "OBJECTID": 23, "Id": 23, "gridcode": 4, "Shape_Leng": 0.0130498931808, "Shape_Area": 6.0131106313899996e-06 }, "geometry": { "type": "Polygon", "coordinates": [ [ [ 112.737083863240059, -7.345034454080007 ], [ 112.742352234760119, -7.345034454080007 ], [ 112.742352234760119, -7.343058814760013 ], [ 112.741962659764226, -7.3433277862041 ], [ 112.737506508248316, -7.344422312172696 ], [ 112.737083863240059, -7.345034454080007 ] ] ] } },
{ "type": "Feature", "properties": { "FID": 23, "OBJECTID": 24, "Id": 24, "gridcode": 4, "Shape_Leng": 0.023861133410900001, "Shape_Area": 2.1301516443799999e-05 }, "geometry": { "type": "Polygon", "coordinates": [ [ [ 112.777255196079977, -7.341741721879941 ], [ 112.777530146453728, -7.342125327994893 ], [ 112.778955885026448, -7.342675208645062 ], [ 112.779507976373111, -7.344767834013282 ], [ 112.784205988152962, -7.345696185932866 ], [ 112.78674979661389, -7.344650847965113 ], [ 112.787791939119984, -7.344375907639972 ], [ 112.787304500602204, -7.34376721240983 ], [ 112.781373181345998, -7.342071356850283 ], [ 112.777255196079977, -7.341741721879941 ] ] ] } },
{ "type": "Feature", "properties": { "FID": 24, "OBJECTID": 25, "Id": 25, "gridcode": 3, "Shape_Leng": 0.48294891067099999, "Shape_Area": 0.0034790815133 }, "geometry": { "type": "Polygon", "coordinates": [ [ [ 112.787791939119984, -7.344375907639972 ], [ 112.78876406283382, -7.34401892032264 ], [ 112.789984889922493, -7.34411701496299 ], [ 112.792706538881475, -7.346046762229832 ], [ 112.79495572176836, -7.346656331690099 ], [ 112.797571237190027, -7.345197040771211 ], [ 112.79997504826008, -7.345390185319673 ], [ 112.800968856898294, -7.345310328926871 ], [ 112.812643445513004, -7.34628071422901 ], [ 112.81909299226254, -7.343417681169342 ], [ 112.819402168240117, -7.343058814760013 ], [ 112.819085455796653, -7.34271699081205 ], [ 112.815218143435459, -7.341211034096375 ], [ 112.810336061012322, -7.338627684311064 ], [ 112.80587766865392, -7.332549253240416 ], [ 112.803648241356541, -7.326824031205376 ], [ 112.800933907793706, -7.313959193456242 ], [ 112.79930394104349, -7.312448956027879 ], [ 112.797131951664937, -7.309487727841827 ], [ 112.794902443978572, -7.307421982535288 ], [ 112.790870414618553, -7.306145435841984 ], [ 112.782375933257072, -7.304122065571164 ], [ 112.769748775545622, -7.304622557248081 ], [ 112.762235562143246, -7.307255908972479 ], [ 112.759459660678317, -7.310251855144941 ], [ 112.755358727922385, -7.313259789322444 ], [ 112.752048199614251, -7.317773268222197 ], [ 112.749789681558468, -7.316981667988671 ], [ 112.744155801490365, -7.328919349604064 ], [ 112.742688270702047, -7.32886117813581 ], [ 112.738920439691015, -7.333998123739036 ], [ 112.732599284174853, -7.337556400803237 ], [ 112.726581426193093, -7.338989846668312 ], [ 112.724913304827965, -7.338107165732083 ], [ 112.719585556005086, -7.33708999404945 ], [ 112.713593442590764, -7.333421061568458 ], [ 112.709766736708048, -7.326911876252097 ], [ 112.709083088812122, -7.326278431267895 ], [ 112.707847399812636, -7.322375466398626 ], [ 112.705790356612283, -7.319692966867876 ], [ 112.704110719527421, -7.314387757102509 ], [ 112.703156793866583, -7.314425570064145 ], [ 112.701218193764475, -7.311423474135609 ], [ 112.699083957055905, -7.308321927002851 ], [ 112.693512609557501, -7.30423547431019 ], [ 112.689559642749259, -7.302369907587035 ], [ 112.684033212587906, -7.300620231612299 ], [ 112.681556569111081, -7.297947248125809 ], [ 112.675497220372108, -7.297302387907791 ], [ 112.669941056340463, -7.296577942609986 ], [ 112.66760721382002, -7.296670440168214 ], [ 112.664784726947005, -7.296558568868249 ], [ 112.662448221542036, -7.294036847276914 ], [ 112.650634740884811, -7.287656193874454 ], [ 112.645597512774316, -7.286765644867842 ], [ 112.64023289556053, -7.289604330118266 ], [ 112.637976703760387, -7.28805180809178 ], [ 112.63266213872862, -7.289914541103769 ], [ 112.629398967059956, -7.290691822052111 ], [ 112.628423700640155, -7.291033646000017 ], [ 112.628130853671905, -7.295350624111848 ], [ 112.627765154200006, -7.298277656839957 ], [ 112.632243817139511, -7.29860806555422 ], [ 112.635361761110062, -7.302858973981529 ], [ 112.64582914354196, -7.304857393525879 ], [ 112.658184074056066, -7.30775325543101 ], [ 112.660986664659049, -7.307864342938444 ], [ 112.663523378793229, -7.306522038067897 ], [ 112.671444093931768, -7.307746854459253 ], [ 112.672863029587802, -7.308497677387891 ], [ 112.677855229826605, -7.309450789110201 ], [ 112.685076410199258, -7.312262755076688 ], [ 112.692594316307691, -7.320376624812241 ], [ 112.693961622147867, -7.321643504731981 ], [ 112.699561316806694, -7.331168532490835 ], [ 112.700546202269379, -7.332231485691693 ], [ 112.702430469476667, -7.332156804338751 ], [ 112.705473634120153, -7.336473350359995 ], [ 112.706132180559962, -7.336473350359995 ], [ 112.706132180559962, -7.337131896799974 ], [ 112.70786283449479, -7.337447584284121 ], [ 112.715570538960719, -7.339768202819073 ], [ 112.716552419885716, -7.341968639844254 ], [ 112.719121440337062, -7.342742122413711 ], [ 112.719961655800148, -7.343717361199992 ], [ 112.722248048731103, -7.34406515402884 ], [ 112.72952909878893, -7.344686661251046 ], [ 112.731934708562108, -7.345993886385088 ], [ 112.736425316800137, -7.345034454080007 ], [ 112.737083863240059, -7.345034454080007 ], [ 112.737506508248316, -7.344422312172696 ], [ 112.741962659764226, -7.3433277862041 ], [ 112.742352234760119, -7.343058814760013 ], [ 112.742874813306344, -7.341231071047048 ], [ 112.746962059840143, -7.341741721879941 ], [ 112.750361990731108, -7.340206614114038 ], [ 112.754206070680084, -7.339107536120025 ], [ 112.754943418407606, -7.336658496205871 ], [ 112.761754856201492, -7.338144204949913 ], [ 112.766413678358504, -7.338753774410122 ], [ 112.766718453039971, -7.341083175439962 ], [ 112.768694092359965, -7.341083175439962 ], [ 112.770155322662845, -7.338966805179894 ], [ 112.77423144537272, -7.340814203995933 ], [ 112.776986214587282, -7.341352146884105 ], [ 112.777255196079977, -7.341741721879941 ], [ 112.781373181345998, -7.342071356850283 ], [ 112.787304500602204, -7.34376721240983 ], [ 112.787791939119984, -7.344375907639972 ] ] ] } },
{ "type": "Feature", "properties": { "FID": 25, "OBJECTID": 26, "Id": 26, "gridcode": 4, "Shape_Leng": 0.037561447365099997, "Shape_Area": 3.7915694830900002e-05 }, "geometry": { "type": "Polygon", "coordinates": [ [ [ 112.719961655800148, -7.343717361199992 ], [ 112.720614303699335, -7.344662624949137 ], [ 112.723489686514426, -7.3457385308227 ], [ 112.725068988116504, -7.348025918567316 ], [ 112.732662319175688, -7.348596157724103 ], [ 112.733401556044214, -7.346620518404052 ], [ 112.73615634535588, -7.346082575515936 ], [ 112.736425316800137, -7.345034454080007 ], [ 112.731934708562108, -7.345993886385088 ], [ 112.72952909878893, -7.344686661251046 ], [ 112.722248048731103, -7.34406515402884 ], [ 112.719961655800148, -7.343717361199992 ] ] ] } },
{ "type": "Feature", "properties": { "FID": 26, "OBJECTID": 27, "Id": 27, "gridcode": 5, "Shape_Leng": 0.12540321552, "Shape_Area": 0.00049461016803899996 }, "geometry": { "type": "Polygon", "coordinates": [ [ [ 112.648838640280019, -7.331863525280028 ], [ 112.649131487248042, -7.335521956951879 ], [ 112.653272840582758, -7.338432931983277 ], [ 112.656375498088096, -7.34334647663951 ], [ 112.654745089198627, -7.356396178873183 ], [ 112.655979331196818, -7.357181136968052 ], [ 112.658415669653664, -7.354138705873879 ], [ 112.660399629231961, -7.353302710831883 ], [ 112.662302416048078, -7.351912765448105 ], [ 112.667833629353254, -7.350950197973134 ], [ 112.67346378138302, -7.351650506482997 ], [ 112.678608474472981, -7.350481881981466 ], [ 112.682480258470605, -7.347653627199918 ], [ 112.690107071535977, -7.345473006055727 ], [ 112.695432629759239, -7.343425951184656 ], [ 112.696253983959991, -7.342400268319977 ], [ 112.69557719927252, -7.341669834043842 ], [ 112.690116617725948, -7.339941008958135 ], [ 112.689327579890914, -7.340792589411706 ], [ 112.676995821497258, -7.340303814427102 ], [ 112.67618086826792, -7.339424258612098 ], [ 112.670307921452491, -7.338621624992413 ], [ 112.663444441849265, -7.336215995122018 ], [ 112.654500978043529, -7.330473811014429 ], [ 112.650664952064517, -7.332503642548659 ], [ 112.648838640280019, -7.331863525280028 ] ] ] } }
]
}
